[
  "EHDL 121425Z AUTO 30007KT 250V360 9999 BKN010 OVC012 15/12 Q1029 GRN",
  "EHVK 121425Z AUTO 35005KT 310V020 9999 BKN017 OVC020 16/11 Q1029 WHT",
  "ETND 100920Z 27006KT 9999 BKN013 15/12 Q1031 GRN",
  "ETSB 121420Z AUTO 05006KT //// // ////// 12/07 Q1029 ///",
  "ETNW 121420Z 28009KT 9999 BKN010 14/13 Q1027 GRN",
  "ESUP 121420Z AUTO 35013KT 310V020 9999 // SCT040/// BKN051/// 06/M01 Q1016",
  "EHEH 121425Z AUTO 34004KT 310V050 9999 BKN020 OVC023 16/11 Q1029 WHT NOSIG RMK TREND REMOTE BY EHWX",
  "EHQS 162055Z AUTO 27019KT //// // FEW035/// SCT048/// 18/10 Q1017 RE//",
  "ETSL 121420Z AUTO /////KT 9999 // ////// 13/06 Q1027 ///",
  "ETMN 121420Z 33012KT 4000 -DZ BR OVC004 14/13 Q1026 YLO",
  "EGLL 121420Z COR AUTO 05005KT 360V120 9999 NCD 15/08 Q1031 NOSIG",
  "ETHB 121420Z AUTO 27008KT 6000 // ////// 13/11 Q1027 ///",
  "ETSH 121420Z 28010KT 9999 -DZ SCT011 BKN016 OVC021 14/11 Q1025 WHT",
  "ETNN 121420Z 32006KT 9999 BKN035 15/09 Q1029 BLU",
  "EBBE 121425Z AUTO 03007KT 9999 SCT027/// 16/09 Q1029 BLU",
  "EHQW 162055Z AUTO 28023KT //// // FEW033/// SCT041/// 18/10 Q1016 RE//",
  "EHKD 121429Z AUTO 35006KT 300V030 9999 SCT013 OVC016 16/13 Q1030 WHT TEMPO SCT012 BKN015",
  "EGWC 121350Z AUTO 05002KT //// ///////// ///// Q////",
  "EGSH 121420Z COR VRB02KT 7000 BKN011 14/12 Q1032 NOSIG",
  "EHQN 162055Z AUTO 29025KT //// // FEW034/// 18/10 Q1016 RE//",
  "EDGS 121420Z COR 32006KT 290V360 9999 BKN019 11/08 Q1028",
  "ETHN 121420Z 02004KT 9999 FEW016 BKN021 11/07 Q1028 WHT",
  "EBFN 121425Z AUTO 03012KT 9999 FEW028/// 16/10 Q1030 BLU",
  "ETGG 121420Z AUTO 32011KT 9999 // ////// 16/12 Q1025 ///",
  "ETHS 121420Z AUTO 29009KT 9000 // ////// 15/12 Q1026 ///",
  "EHWO 121425Z AUTO 36005KT 320V070 9999 BKN018 OVC021 16/12 Q1030 WHT",
  "EHGR 121425Z AUTO 34005KT 290V020 9999 OVC017 16/12 Q1030 WHT",
  "EHSC 121425Z AUTO 01011KT 9999 ///////// 15/13 Q1030 W16/H7",
  "ETHL 121420Z 03008KT 9999 BKN028 13/07 Q1027 BLU",
  "EHLW 121425Z AUTO 33014KT 290V360 9999 BKN011 OVC013 16/13 Q1029 GRN",
  "ETHF 121420Z AUTO 32005KT 6000 // ////// 15/08 Q1028 ///",
  "ETSI 121420Z AUTO 35004KT 9999 // ////// 13/07 Q1027 ///",
  "EBCV 121425Z AUTO 04009KT 9999 SCT029/// BKN110/// 16/09 Q1029 BLU",
  "EGPD 121420Z COR 14005KT 100V160 9999 BKN019 16/12 Q1032 NOSIG",
  "ETNS 121420Z AUTO 31011KT //// // ////// 16/13 Q1025 ///",
  "ESNO 121420Z COR 33010KT 300V360 CAVOK 10/M00 Q1018",
  "EBBL 121425Z AUTO 02003KT 9999 OVC023/// 16/11 Q1029 WHT",
  "ETNL 121420Z 34009KT 9999 FEW011 BKN025 14/11 Q1024 BLU",
  "EBFS 121425Z AUTO 05008KT 9999 BKN024/// BKN220/// 14/09 Q1029 WHT",
  "EDLN 121420Z COR 32006KT 300V360 9999 OVC025 16/10 Q1029",
  "ETNG 121350Z AUTO 35004KT 290V020 9999 // OVC028/// 15/10 Q1030",
  "ETWM 121420Z AUTO 33003KT //// // ////// 14/14 Q1028 ///",
  "ETNH 121420Z AUTO 29009KT 9999 // ////// 16/12 Q1025 ///",
  "ETNT 121420Z AUTO 33008KT 7000 // ////// 15/14 Q1027 ///",
  "EBDT 121425Z AUTO 36005KT //// BKN025/// 16/10 Q1029 BLU",
  "ETSN 121420Z 32005KT 9999 FEW022 OVC028 14/08 Q1027 BLU",
  "EHVL 121429Z AUTO 33013KT 9999 SCT012 OVC014 16/14 Q1030 BLACKGRN",
  "EHSG 162055Z AUTO 26022KT //// // FEW025/// SCT048/// 17/12 Q1018 RE//",
  "ETHC 121420Z AUTO 24006KT 9999 // ////// 14/12 Q1026 ///",
  "EBLB 121425Z AUTO 02005KT //// SCT020/// 12/07 Q1029 WHT",
  "EHSA 121425Z AUTO 36012KT 9999 ///////// 15/13 Q1031 W16/H6",
  "ETHA 121420Z AUTO 08008KT 9999 // ////// 12/05 Q1026 ///",
  "ETHL 121820Z 03003KT 9999 SCT025 09/06 Q1027 BLU+",
  "ETNL 121820Z 30004KT 9999 MIFG 11/10 Q1025 BLU+",
  "EGVA 121855Z AUTO 03003KT 9999 CLR 09/07 A3045 RMK AO2 SLP317 T00900071 $"
]
