KAQV 050447Z AUTO 00000KT 4SM BR CLR 23/23 A3003 RMK AO2 SLP164 T02330228
KPCW 050515Z AUTO 19004KT 10SM FEW060 BKN110 25/22 A3009 RMK AO2
KEVU 050515Z AUTO 16006KT 7SM BKN100 26/24 A2996 RMK AO2 T02600243
KCXO 050531Z AUTO 12005KT 3SM BR FEW110 26/24 A3000 RMK AO2 T02560244
KFWB 050515Z AUTO 16006KT 9SM FEW043 FEW050 25/22 A3005 RMK AO2
KCKV 050531Z AUTO 00000KT 1 3/4SM HZ CLR 24/19 A3007 RMK AO2 T02390194
KSWF 050445Z VRB03KT 10SM SKC 16/15 A3015
KCIR 050515Z AUTO 00000KT 7SM CLR 23/23 A3005 RMK AO2 T02330230
KSIY 050453Z AUTO 35007KT 10SM BKN090 18/05 A3013 RMK AO2 SLP195 T01830050
KOGD 050453Z AUTO 07006KT 10SM CLR 23/08 A3003 RMK AO2 SLP109 T02280078
KEYE 050453Z AUTO 00000KT 6SM BR CLR 23/21 A3011 RMK AO2 SLP189 T02330211 403170200
KGNC 050515Z AUTO 17006KT 10SM CLR 25/23 A3005 RMK AO2 T02480227
KASW 050515Z AUTO 00000KT 5SM BR CLR 21/19 A3012 RMK AO2 T02100195
KHHG 251455Z AUTO 10SM RMK AO2 6//// PWINO PNO TSNO
KABI 050503Z 16008KT 10SM BKN011 25/23 A2998 RMK AO2 T02500228
KMWL 050502Z AUTO 14008KT 3SM -RA BR BKN004 OVC008 23/22 A2997 RMK AO2 CIG 003V006 P0001 T02280222
KPHT 021430Z AUTO 35004KT 10SM CLR 27/21 A3005 RMK A01
KACK 050453Z AUTO 06004KT 10SM CLR 14/14 A3012 RMK AO2 SLP198 T01440139 402500139
KBQX 050515Z AUTO 16018KT 9SM FEW021 SCT060 BKN090 29/26 A3002 RMK A01
KPWG 050456Z AUTO 14004KT 10SM OVC070 24/23 A2998 RMK AO2 SLP147 T02440233
KBFR 050515Z AUTO 10002KT 7SM BR CLR 23/22 A3010 RMK AO2
KCRE 050453Z AUTO 04005KT 9SM CLR 24/22 A3005 RMK AO1 SLP176 T02390222 403060233
KRTN 050453Z AUTO 36005KT 10SM CLR 17/10 A3016 RMK AO2 SLP121 T01720100
KRDU 050451Z 05005KT 10SM FEW250 23/18 A3013 RMK AO2 SLP196 T02330178 403390217 $
KFLP 050456Z AUTO 00000KT 10SM CLR 24/22 A3005 RMK AO2 SLP168 T02440222 403220194
KJLN 050458Z AUTO 18005KT 1 3/4SM HZ SCT100 24/21 A3003 RMK AO2 T02440211
KFQD 050525Z AUTO 01004KT 10SM CLR 22/18 A3014 RMK AO2
KSKA 050455Z AUTO 16005KT 10SM CLR 19/05 A3005 RMK AO2 SLP161 T01870052 $
KBRY 050515Z AUTO 00000KT 5SM BR CLR 22/22 A3009 RMK AO2 T02210221 $
KAGO 050515Z AUTO 00000KT 5SM BR BKN033 OVC039 23/22 A3000 RMK A01
KMGN 050515Z AUTO 00000KT 7SM CLR 20/19 A2998 RMK AO2 T02070196
KFCM 050453Z AUTO 18009KT 10SM CLR 27/20 A2986 RMK AO2 SLP103 T02670200
KMKE 050452Z 21005KT 5SM HZ CLR 26/21 A3003 RMK AO2 SLP163 T02560211
KRTS 050510Z AUTO 35006KT 10SM CLR 15/M04 A3023 RMK AO2
K0R0 050510Z AUTO 00000KT 22/22 A3005 RMK AO2
KOLZ 050515Z AUTO 16008KT 10SM CLR 23/23 A3000 RMK A01
KLOZ 050453Z AUTO 00000KT 5SM BR CLR 22/19 A3013 RMK AO2 SLP189 T02170194 403170183
KF95 231505Z AUTO 03004KT 10SM CLR 31/25 A3021 RMK AO2
KHDE 050515Z AUTO 17007KT 10SM BKN028 SCT036 BKN055 23/22 A2994 RMK AO2 T02250215
KO22 050515Z AUTO 00000KT 10SM CLR 18/05 A3011 RMK A01
KC62 050535Z AUTO 00000KT 7SM CLR 21/20 A3012 RMK AO2 T02130202
KTPH 050456Z AUTO 30010KT 10SM CLR 23/M07 A3012 RMK AO2 WSHFT 0403 SLP119 T02331067
KHEI 050526Z AUTO 01013G20KT 10SM FEW027 21/16 A2996 RMK AO2 T02110161
KCQM 050515Z AUTO 10006KT 8SM -RA FEW075 SCT090 BKN110 19/19 A2980 RMK AO2 LTG DSNT SW
KY70 050515Z AUTO 19007KT 10SM CLR 23/19 A3007 RMK AO2
KDTN 050453Z AUTO 08004KT 4SM BR CLR 26/23 A3002 RMK AO2 SLP162 T02560233
KUIL 050524Z AUTO 31004KT 10SM BKN009 OVC014 13/11 A3021 RMK AO2 CIG 009V012 T01280111 $
K6R6 050451Z AUTO 00000KT 25/23 A3001 RMK AO1 SLP124 T02500233 $
KIND 050454Z 00000KT 10SM CLR 26/20 A3011 RMK AO2 SLP187 T02560200 403220206
K8V7 050515Z AUTO 10012KT 10SM CLR 23/18 A3005 RMK AO2
K10G 050515Z AUTO 07004KT 10SM CLR 23/20 A3017 RMK AO2
KSXU 050515Z AUTO 23005KT 10SM CLR 22/11 A3006 RMK AO2
KPMV 050515Z AUTO 17010KT 10SM CLR 26/21 A2993 RMK AO2 T02590210
KPHL 050454Z VRB03KT 10SM FEW250 23/16 A3014 RMK AO2 SLP205 T02330156 402940200 $
KVLD 050453Z AUTO 00000KT 10SM CLR 27/23 A2999 RMK AO2 SLP160 T02720228 403560233
KBAN 050452Z AUTO 10SM CLR 13/M02 A3027 RMK AO2 SLP157 T01281017 PWINO $
KMDW 050453Z 19007KT 8SM SCT002 28/19 A3005 RMK AO2 SLP165 FU SCT002 T02830189
KPGD 050453Z AUTO 26003KT 10SM CLR 27/24 A2997 RMK AO2 LTG DSNT W AND NW SLP148 T02720244 403220250
KCQC 041453Z AUTO 14010KT 09/09 A3027 RMK AO2 SLP189 6//// T00890089 $
K10U 050515Z AUTO 02010G16KT 10SM CLR 15/05 A3018 RMK AO2
KDKB 050515Z AUTO 00000KT 10SM CLR 22/20 A3008 RMK AO2 T02220203
K4V9 050515Z AUTO 00000KT 10SM SCT003 BKN024 OVC035 21/21 A2991 RMK AO2
KTRI 050453Z 00000KT 10SM CLR 19/18 A3016 RMK AO2 SLP188 T01940178 403170161
KTTA 050525Z AUTO 00000KT 10SM CLR 20/20 A3012 RMK AO2 T02010200
KUES 050515Z AUTO 18003KT 7SM CLR 24/22 A3005 RMK AO2
K1AW 050455Z AUTO 35018KT 10SM BKN130 BKN150 18/10 A3016 RMK AO2 LTG DSNT W SLP146 T01750104
KHUA 031553Z 02005KT 7SM CLR 30/20 A3004
KWST 050453Z AUTO 00000KT 10SM CLR 17/15 A3012 RMK AO2 SLP198 T01670150 402670156
KMLB 050453Z AUTO 22006KT 10SM SCT020 24/23 A2993 RMK AO2 SLP135 T02440228 403220233
KMGG 050515Z AUTO 17006KT 10SM SCT060 27/20 A2986 RMK AO2 T02670195
KMWO 050515Z AUTO 00000KT 5SM BR CLR 22/20 A3014 RMK AO2
KENW 042353Z 21005KT 10SM CLR 30/22 A3002
KFMM 050515Z AUTO 32012KT 10SM FEW110 20/17 A3009 RMK AO2
KAFO 050515Z AUTO 14003KT 10SM SCT110 10/08 A3025 RMK AO2
KJHN 050515Z AUTO 10012G18KT 10SM BKN075 BKN090 BKN110 21/17 A3003 RMK AO2 PRESRR
KBYG 050453Z AUTO 25009KT 10SM CLR 14/09 A3011 RMK AO2 SLP144 T01440094
KASX 050453Z AUTO 19010G20KT 10SM CLR 27/19 A2983 RMK AO2 SLP097 T02670189
KFPY 050515Z AUTO 00000KT 10SM CLR 25/23 A2998 RMK AO2 T02490231
KBVI 032247Z 36005KT 10SM SCT060 SCT075 SCT085 28/14 A3001
KULS 050515Z AUTO 07009KT 10SM FEW019 SCT049 SCT080 A3001 RMK AO2
KHNR 050515Z AUTO 17010KT 10SM CLR 25/22 A2993 RMK A01
K40B 050520Z AUTO VRB03KT 13/11 A3001 RMK AO1 SLP160 T01250114 401870112 52008
KBBD 050515Z AUTO 16006KT 3SM BR OVC003 23/22 A3000 RMK AO2
KMLC 050453Z AUTO VRB03KT 10SM FEW060 FEW090 SCT110 24/23 A3001 RMK AO2 SLP154 T02440228
K33V 231755Z AUTO 00000KT 10SM CLR 17/M01 A3027 RMK AO1
KSOW 050515Z AUTO 18008KT 10SM CLR 19/06 A3036 RMK AO2
KNY0 050515Z AUTO 18004KT 10SM CLR 13/11 A3017 RMK AO2 T01320108
KSGU 050456Z AUTO 19007KT 10SM CLR 31/03 A2999 RMK AO2 SLP113 T03110028
KANJ 050455Z AUTO 00000KT 10SM SCT030 17/13 A2997 RMK AO2 SLP146 T01720128 402500083
KLNN 050515Z AUTO 00000KT 10SM CLR 23/16 A3010 RMK AO1 T02300156
KADT 050515Z AUTO 21004KT 10SM CLR 22/17 A3002 RMK AO2 LTG DSNT N T02200174
KNXF 050527Z AUTO 00000KT 4SM BR SCT010 18/17 A3001 RMK AO2 T01830167
K1EN 050455Z AUTO 01009KT 10SM CLR 18/11 A2971 RMK AO2 SLP056 T01810107 $
KSAC 050453Z AUTO 17005G18KT 10SM CLR 17/06 A3005 RMK AO2 SLP174 T01720056
KBMQ 050453Z AUTO 14005KT 10SM BKN018 OVC042 23/23 A3001 RMK AO2 LTG DSNT SE SLP145 T02330233
KGUR 050455Z AUTO 27008KT 10SM SCT150 18/13 A3011 RMK AO2 LTG DSNT SW RAB0355E0356 SLP169 P0000 T01790126
KSLB 050515Z AUTO 18011KT 10SM BKN070 OVC080 25/22 A2992 RMK AO2
KMKG 050455Z AUTO 19006KT 10SM CLR 25/19 A3004 RMK AO2 SLP170 T02500194 402940183 $
KIXA 050525Z AUTO 00000KT 10SM CLR 18/18 A3013 RMK AO2
KPEA 050515Z AUTO 14006KT 10SM CLR 24/21 A3000 RMK AO2 T02400208
KCJR 050515Z AUTO 00000KT 5SM BR CLR 20/19 A3015 RMK AO2 T01970189
KUTA 050515Z AUTO 00000KT 9SM CLR 24/24 A3002 RMK AO2 T02380238 $
KRCV 050515Z AUTO 25006KT 10SM CLR 16/02 A3036 RMK AO2 T01550015
KOYE 050520Z AUTO 00000KT 10SM FEW019 FEW023 29/25 A3001 RMK A01
KHVS 050515Z AUTO 00000KT 10SM FEW035 BKN043 OVC120 23/20 A3007 RMK AO2
KBLU 050452Z AUTO 12003KT 10SM CLR 12/00 A3025 RMK AO2 SLP184 T01220000 $
KOAK 050453Z 26011KT 10SM FEW015 14/11 A3012 RMK AO2 SLP200 T01390106
KIEN 050530Z AUTO 23003KT 8SM -RA OVC095 17/15 A3006 RMK AO2 PK WND 30026/0454 LTG DSNT S AND SW TSE24 P0005 T01720150
KNJM 050451Z AUTO 04006KT 6SM BR CLR 24/23 A3009 RMK AO2 SLP192 T02440233 403111072 $
KDVT 050453Z AUTO 24004KT 10SM CLR 34/15 A2996 RMK AO2 SLP116 T03440150 $
KSDA 050515Z AUTO 16008KT 10SM CLR 25/23 A2993 RMK AO2
KOXD 050515Z AUTO 00000KT 10SM CLR 24/19 A3014 RMK AO2 T02360194
K2P2 050515Z AUTO 18003KT 10SM SCT120 20/20 A2994 RMK AO2 T01970197
KPWC 050515Z AUTO 08004KT 10SM -RA SCT032 SCT065 BKN085 20/19 A2989 RMK AO2 LTG DSNT NE THRU S
KCCU 131751Z AUTO 28010G21KT 10SM CLR 15/M07 A3053 RMK AO2
KKLS 050456Z AUTO 29008KT 10SM CLR 16/09 A3020 RMK AO2 SLP230 T01610094
KIMT 050454Z AUTO 20006KT 10SM CLR 25/23 A2992 RMK AO2 SLP125 T02500228
KHUM 042347Z 00000KT 7SM CLR 31/25 A3001
KMNI 050515Z AUTO 00000KT 10SM CLR 22/21 A3005 RMK AO2
KDCM 050515Z AUTO 00000KT 10SM CLR 22/20 A3012 RMK AO2 LTG DSNT SE
KVRB 050453Z AUTO 23004KT 10SM CLR 24/23 A2994 RMK AO2 SLP137 T02440233 403110244
KCMR 050535Z AUTO 15006KT 10SM CLR 17/07 A3036 RMK AO2
KMDQ 050515Z AUTO 35003KT 4SM HZ BKN060 23/20 A3008 RMK A02 T02290203
KMGE 050455Z AUTO 02003KT 10SM CLR 26/20 A3007 RMK AO2 SLP169 T02560197 403320228 $
KGTU 050456Z AUTO 14005KT 5SM FEW049 BKN065 OVC080 24/23 A2999 RMK AO2 LTG DSNT SW SLP147 P0002 T02390233
KQAJ 111255Z AUTO VRB01KT CLR 42/M03 A2972 RMK AO2 SLP051 WND DATA ESTMD T04221032 PWINO TSNO $
KAZE 120015Z AUTO 19006KT 10SM SCT028 SCT043 BKN050 29/24 A3008 RMK AO2 LTG DSNT NE THRU S T02870239
KLNS 050453Z AUTO 07004KT 8SM CLR 18/16 A3015 RMK AO2 SLP207 T01830156 402830167
KW40 050525Z AUTO 06005KT 5SM BR CLR 23/22 A3011 RMK AO2 T02270217
KMBY 050515Z AUTO 13004KT 10SM CLR 24/20 A3004 RMK AO2
KCEY 050515Z AUTO 00000KT 10SM CLR 23/23 A3006 RMK A01
KGAI 050456Z AUTO 00000KT 10SM CLR 17/17 A3017 RMK AO2 SLP226 T01720172 PNO $
KC07 050515Z AUTO 00000KT 10SM SCT060 SCT095 10/05 A3055 RMK AO2
K12N 050454Z AUTO 00000KT 15/14 A3017 RMK AO1 SLP211 T01500139 402780139
KPTB 050535Z AUTO 00000KT 4SM BR CLR 18/17 A3015 RMK AO2 T01790172
KJFK 050451Z 01004KT 10SM FEW250 23/16 A3012 RMK AO2 SLP200 T02280156 403060200 $
KT74 050515Z AUTO 13004KT 5SM -RA BR SCT027 BKN046 OVC060 24/23 A2998 RMK AO2 T02450233
KTPA 050521Z COR 35004KT 7SM SCT015 BKN021 OVC150 23/22 A2996 RMK AO2 T02330222
KTAN 050452Z AUTO 00000KT 7SM CLR 13/13 A3013 RMK AO2 SLP200 T01330128 402720128
KTAZ 050524Z AUTO 10SM CLR 23/20 A3008 RMK AO2
KJWY 050415Z AUTO 14006KT 10SM BKN011 24/23 A3000 RMK AO2 T02350228 $
KNCA 030456Z VRB03KT 7SM SCT050 24/24 A2992 RMK AO2 SLP129 T02390239 $
KVNC 212215Z AUTO 16030G40KT 1/2SM +TSRA BKN003 OVC026 23/22 A3007 RMK AO2
KHOT 050453Z AUTO 08005KT 8SM CLR 26/22 A3003 RMK AO2 SLP162 T02560217 $
KTIK 050455Z AUTO 18009KT 10SM CLR 24/22 A2994 RMK AO2 SLP127 T02410220 $
KIOB 050515Z AUTO 00000KT 10SM CLR 21/21 A3016 RMK AO2 PWINO
KBFL 050454Z 35007KT 10SM CLR 27/05 A2998 RMK AO2 SLP147 T02720050
KMMI 050510Z AUTO 00000KT 7SM FEW095 23/22 A3011 RMK A01
KJGG 050515Z AUTO 00000KT 6SM BR CLR 20/20 A3013 RMK AO2 T01970197 $
KMLJ 050515Z AUTO VRB03KT 10SM CLR 26/21 A3003 RMK AO2
K1CM 050455Z AUTO 29008KT 10SM OVC140 14/12 M RMK AO2 RAB0355E11RAB21E28 SLPNO P0001 T01410120 $
KRIC 050454Z 00000KT 7SM CLR 21/18 A3014 RMK AO2 SLP210 T02060178 403060206 $
K2J5 050515Z AUTO 35004KT 10SM CLR 23/21 A3005 RMK AO2 T02270210
KBDN 050515Z AUTO 34006KT 10SM CLR 15/05 A3016 RMK AO2
KSEA 050453Z 22008KT 10SM SCT075 BKN200 17/11 A3014 RMK AO2 SLP213 T01720106 $
KEMP 050453Z AUTO 18011KT 10SM FEW120 26/21 A2998 RMK AO2 SLP139 T02610211
KUZA 050454Z AUTO 00000KT 4SM HZ CLR 23/20 A3011 RMK AO2 SLP182 T02280200 403330217
KFLO 050453Z AUTO 06004KT 10SM CLR 22/21 A3007 RMK AO2 SLP179 T02220211 403440222
KF45 050510Z AUTO 22003KT 10SM BKN026 BKN032 OVC037 24/24 A2996 RMK AO2
KU96 050515Z AUTO 00000KT 10SM CLR 27/01 A3007 RMK AO2 T02700014 $
KBAC 050515Z AUTO 36004KT 9SM BKN120 21/21 A2982 RMK AO2
KBDU 050515Z AUTO 02007G14KT 10SM CLR 22/07 A3015 RMK AO2
KDMA 050455Z 29004KT 10SM SCT095 33/13 A3004 RMK AO2A SLP120 ALSTG/SLP ESTMD $
KSXS 050455Z AUTO 00000KT 10SM CLR 25/23 A3000 RMK AO2 SLP156 T02450227
KSEE 050515Z AUTO 28006KT 10SM CLR 19/15 A3004 RMK AO2
KPDC 050515Z AUTO 00000KT 10SM CLR 25/21 A2999 RMK AO2 T02450210
KY49 050515Z AUTO 10005KT 10SM BKN005 BKN028 OVC110 20/20 A2981 RMK AO2 T01970197
K2R9 050515Z AUTO 16008KT 10SM SCT017 27/24 A2997 RMK AO2 T02670236
K1BM 050455Z AUTO 23006KT 10SM FEW090 BKN150 13/11 M RMK AO2 RAE0355RAB0356E28 SLPNO P0002 T01320114 $
KMMV 050453Z AUTO 01004KT 10SM CLR 17/08 A3017 RMK AO2 SLP216 T01720083
KW75 050535Z AUTO 00000KT 10SM CLR 19/18 A3014 RMK AO1 T01930181
KINL 050454Z AUTO 00000KT 10SM FEW006 OVC100 19/19 A2976 RMK AO2 RAE35 SLP075 P0001 T01940189 $
KFME 050529Z AUTO 00000KT 7SM CLR 16/16 A3017 RMK AO1
KEZS 050515Z AUTO 22003KT 10SM CLR 26/23 A2997 RMK AO2 T02640228
KAJO 050456Z AUTO 30006KT 10SM CLR 21/15 A3003 RMK AO2 SLP164 T02060150
KIWI 050453Z AUTO 27003KT 10SM CLR 18/11 A3009 RMK AO2 SLP188 T01780111 402500156
KFOK 050453Z AUTO 00000KT 6SM BR CLR 15/13 A3014 RMK AO2 SLP206 T01500133 402780122
KCDD 050455Z 15003KT 7SM VCTSRA 19/19 A2984 RMK AO2
KPPQ 050515Z AUTO 00000KT 10SM CLR 23/22 A3007 RMK AO2 T02260223
KACQ 050515Z AUTO 17007KT 10SM CLR 25/21 A2992 RMK AO2
KJNX 050530Z AUTO 00000KT 7SM CLR 21/21 A3011 RMK AO2
KLUL 050515Z AUTO 31003KT 10SM CLR 23/23 A3003 RMK A02 T02330226
KRND 050520Z AUTO 14006KT 10SM OVC013 26/24 A2996 RMK AO2 CIG 012 RWY15R SLP137 $
KU42 231755Z AUTO 15015G20KT 10SM CLR 20/M03 A2987 RMK AO2 10193 20089
KEVM 050515Z AUTO 19005KT 10SM -RA SCT038 SCT055 BKN090 20/19 A2988 RMK AO2 LTG DSNT SW P0001 T01960190
KBGM 050453Z AUTO 10SM CLR 17/10 A3018 RMK AO2 SLP213 T01670100 402330128 $
KOWP 050515Z AUTO 00000KT 7SM SCT028 SCT033 BKN070 26/21 A3003 RMK AO2 T02610212
KSBY 050454Z AUTO 00000KT 10SM CLR 18/16 A3015 RMK AO2 SLP212 T01830161 403060178
KVCT 050451Z AUTO 16009KT 9SM FEW065 27/24 A2996 RMK AO2 SLP144 T02720239
KDZB 050515Z AUTO 00000KT 7SM OVC021 24/24 A2998 RMK AO2 T02430238
KPNE 050454Z 33004KT 10SM CLR 21/14 A3015 RMK AO2 SLP207 T02060139 402940189
KOXV 050515Z AUTO 14006KT 10SM CLR 24/21 A2999 RMK AO2
KOMN 042250Z 07004KT 8SM BKN060 27/27 A2992 RMK LAST
KCLT 050452Z 09005KT 8SM CLR 27/19 A3012 RMK AO2 SLP204 T02670189 403390233
KM21 050515Z AUTO 00000KT 4SM BR CLR 22/22 A3007 RMK AO2 T02180216
KHZR 012215Z AUTO 09008KT 10SM CLR 33/24 A2998 RMK AO2 LTG DSNT N T03290235
KGPC 050515Z AUTO 00000KT 7SM BR CLR 21/21 A3012 RMK AO2 T0210////
KUKI 050456Z AUTO 01008G15KT 10SM CLR 16/07 A3012 RMK AO2 SLP192 T01610072
KFRI 050455Z AUTO 16014G19KT 10SM BKN100 28/21 A2994 RMK AO2 SLP124 T02760214 403290225 $
KMKO 050453Z AUTO 15003KT 8SM CLR 24/21 A3002 RMK AO2 SLP157 T02390211
KMBG 050452Z AUTO 14004KT 9SM -RA FEW060 SCT090 OVC110 21/19 A2982 RMK AO2 PK WND 34028/0356 LTG DSNT ALQDS RAB0356 TSE0355 SLP087 P0036 T02060194
KLUM 050515Z AUTO 17008KT 10SM CLR 27/21 A2991 RMK AO2 T02650205 PWINO
KAUN 050515Z AUTO 12007KT 10SM CLR 20/03 A3009 RMK A01
KIWA 050447Z 00000KT 10SM CLR 35/13 A2996
KBCR 050458Z AUTO 00000KT 10SM CLR 24/23 A3000 RMK AO2 SLP115 T02440233 403500222
KGSB 050455Z AUTO 09006KT 10SM CLR 24/21 A3007 RMK AO2 SLP185 T02420213 403390225 $
KCEZ 050453Z AUTO 07008KT 10SM CLR 17/03 A3022 RMK AO2 SLP156 T01670028
KN03 050515Z AUTO 00000KT 10SM CLR 12/10 A3019 RMK AO2
KHYW 050515Z AUTO 00000KT 7SM CLR 22/21 A3006 RMK AO2
KSPB 050453Z AUTO VRB04KT 10SM CLR 16/08 A3017 RMK AO2 SLP216 T01610083
KSHM 050455Z AUTO 00000KT 10SM BKN110 21/11 A3016 RMK AO2 LTG DSNT SE SLP121 T02120109 $
KFLL 050453Z 21004KT 10SM SCT250 26/24 A2999 RMK AO2 SLP153 T02610239 402940250
KTVC 050453Z AUTO 20005KT 10SM CLR 24/20 A2997 RMK AO2 SLP146 T02440200 403170128
KCVH 050515Z AUTO 27005KT 10SM CLR 16/08 A3014 RMK A01
K3N8 050515Z AUTO 16006KT 10SM BKN110 21/21 A2982 RMK AO2 T02050205
KTCC 050453Z AUTO 21005KT 10SM CLR 21/17 A2998 RMK AO2 SLP091 T02110172
KTKV 050515Z 10SM CLR 24/18 A2997 RMK AO2 T02360177 PWINO
KRGA 050515Z AUTO 11003KT 7SM CLR 21/19 A3014 RMK AO2
KNQI 050456Z AUTO A2995 RMK AO2 SLP140 PWINO TSNO $
KNZY 050452Z AUTO 29007KT 10SM FEW012 19/16 A3003 RMK AO2 SLP169 T01890161 $
KILG 050451Z AUTO 31003KT 9SM CLR 21/16 A3014 RMK AO2 SLP206 T02110156 402940172
KSGJ 041750Z 02007KT 10SM BKN030 29/24 A2998
KFBL 050515Z AUTO 17006KT 10SM SCT070 26/21 A2990 RMK AO2
KRWF 050453Z AUTO 17011KT 10SM SCT050 OVC065 26/21 A2983 RMK AO2 LTG DSNT W AND NW SLP093 T02610211 $
KINW 050456Z AUTO 22009KT 10SM CLR 23/09 A3021 RMK AO2 SLP154 T02280089
KSBN 050532Z AUTO 18003KT 2 1/2SM HZ CLR 24/21 A3010 RMK AO2 T02390206
K6A2 171615Z AUTO 21005KT SCT026 SCT034 28/21 A3011 RMK AO2
KY51 050515Z AUTO 18006KT 10SM CLR 24/21 A3001 RMK AO1 T02420208
KAVX 050451Z AUTO 33006KT 10SM CLR 20/09 A3007 RMK AO2 SLP165 T02000089
KFRH 050515Z AUTO 10SM CLR 22/22 A3010 RMK AO1
KALM 050515Z AUTO 19005KT 10SM CLR 24/11 A3008 RMK AO2
KBUR 050453Z 13006KT 10SM CLR 22/15 A3003 RMK AO2 SLP157 T02170150 $
KNPA 050456Z AUTO 35004KT 9SM CLR 27/23 A2998 RMK AO2 SLP154 T02670228 403390228 $
KINK 291832Z A3000
KJXI 280015Z AUTO 02004KT 10SM CLR 26/17 A3001 RMK AO2 T02550172
KQD3 130455Z 29004KT 9999 CLR 34/24 A2972 RMK AO2A SLP055 WND DATA ESTMD T03430235
KVPC 050515Z AUTO 00000KT CLR 24/22 A3008 RMK AO2 PWINO
KDYB 050515Z AUTO 00000KT 9SM CLR 24/24 A3002 RMK AO2
KVPS 050455Z AUTO 05006KT 10SM CLR 29/23 A2998 RMK AO2 SLP158 T02860230 $
KALN 050515Z AUTO 00000KT 10SM CLR 23/20 A3007 RMK AO2 T02310199
KQEY 050520Z AUTO 26003KT 9999 SCT038 32/21 A2945 RMK A02 TSNO
KQEX 050530Z AUTO 34005KT 9999 CLR 33/22 A2961 RMK A02 TSNO
KBEA 050535Z AUTO 16012G16KT 10SM CLR 26/22 A2994 RMK AO2 T02600223
KPEZ 050515Z AUTO 15008KT 10SM CLR 26/23 A2996 RMK AO2 T02610233
KHYR 050453Z AUTO 19011KT 10SM CLR 26/19 A2989 RMK AO2 SLP115 T02610194
K0E0 050515Z AUTO 02005KT 10SM CLR 16/06 A3025 RMK AO2 T01550056
KCLS 050535Z AUTO 00000KT 10SM CLR 14/11 A3019 RMK AO2
KTEW 050515Z AUTO 17003KT 10SM CLR 22/22 A3009 RMK AO2 T02170217
KMHE 050453Z AUTO 20005KT 10SM CLR 23/21 A2985 RMK AO2 SLP095 T02280206
KVOK 050455Z AUTO 17008KT 10SM CLR 25/21 A2996 RMK AO2 SLP142 T02520206 $
KPRB 050453Z AUTO 30016KT 10SM CLR 18/06 A3009 RMK AO2 SLP183 T01830061 $
K9A5 061615Z AUTO 25003KT 10SM SCT048 SCT055 21/09 RMK AO2 T02050089
KCID 050452Z AUTO 16006KT 9SM CLR 24/21 A3001 RMK AO2 SLP154 T02440211
KSGR 050453Z AUTO 16008KT 7SM FEW120 28/25 A2999 RMK AO2 SLP155 T02780250 TSNO
KLWB 050515Z AUTO 00000KT 7SM CLR 19/18 A3023 RMK AO2 T01860178
KQOS 242055Z 18008KT 7SM FEW190 31/04 A2982 RMK SLP093 T03130044 57018
KGEV 050530Z AUTO 00000KT 10SM CLR 18/15 A3027 RMK AO2 T01770145
KOQU 050515Z AUTO 32007KT 10SM CLR 19/15 A3010 RMK AO2
KBFA 271740Z AUTO 22008G18KT 10SM 25/22 A2983 RMK AO2
KSFO 050456Z 27018G26KT 10SM FEW011 14/10 A3013 RMK AO2 PK WND 27029/0440 SLP201 T01390100
KTRK 050515Z AUTO 00000KT 10SM CLR 12/00 A3028 RMK AO2
K1DN 050455Z AUTO 03012KT 10SM BKN230 20/09 A2990 RMK AO2 SLP121 T02000093 $
KNEW 050453Z AUTO 22004KT 7SM CLR 29/21 A3001 RMK AO2 SLP157 T02890211
KTKI 050522Z AUTO 16004KT 6SM BR BKN020 BKN048 23/22 A2999 RMK AO2 T02330217
KPTW 050454Z AUTO 00000KT 6SM HZ CLR 18/15 A3017 RMK AO2 SLP211 T01780150 402830161
KDWH 050453Z AUTO 14005KT 7SM FEW120 27/24 A2999 RMK AO2 SLP152 T02720239
KLPC 050451Z AUTO 27006KT 10SM CLR 13/11 A3010 RMK AO2 SLP191 T01330111 $
KGYB 050515Z AUTO 16004KT 7SM SCT022 OVC110 27/23 A3002 RMK AO2 T02650230
KFSM 050453Z AUTO 08004KT 7SM CLR 26/24 A3000 RMK AO2 SLP154 T02560239
KOAR 050515Z AUTO 24010KT 10SM CLR 12/08 A3013 RMK AO2
K5A9 050515Z AUTO 00000KT M1/4SM FG VV000 22/21 A3006 RMK AO2 T02200207
KFBG 050455Z AUTO 00000KT 8SM CLR 24/22 A3009 RMK AO2 SLP190 T02430218 403460230 RVRNO $
KHRI 050453Z AUTO 23006KT 10SM FEW110 19/08 A3004 RMK AO2 SLP168 T01890083
KFET 050515Z AUTO 16007KT 10SM SCT075 BKN100 27/21 A2992 RMK AO2 T02650206
KTCS 050453Z AUTO 28007KT 10SM CLR 27/12 A3011 RMK AO2 SLP102 T02670117 $
KIML 050516Z AUTO 03017G23KT 10SM BKN015 BKN110 19/17 A3005 RMK AO2 PK WND 01035/0503 LTG DSNT NE T01940172
KRCM 050535Z AUTO 15003KT 10SM SCT110 23/20 A3001 RMK AO2
KN38 050515Z AUTO 00000KT 10SM 14/13 A3019 RMK AO2
KOAJ 050521Z AUTO 04003KT 2SM BR CLR 21/21 A3010 RMK AO2 $
KBRL 042253Z AUTO 19009KT 10SM CLR 32/21 A3001 RMK AO2 SLP156 T03170211
KORL 050453Z AUTO 00000KT 5SM HZ CLR 26/23 A2994 RMK AO2 SLP141 T02560228 403170233
KCKF 050515Z AUTO 00000KT 10SM CLR A3001 RMK AO2
KOTM 042253Z AUTO 18009KT 10SM SCT055 31/20 A2998 RMK AO2 SLP144 T03060200
KAVQ 050515Z AUTO 31004KT 10SM CLR 32/14 A3000 RMK AO2
KORH 050454Z AUTO 03003KT 10SM CLR 18/09 A3017 RMK AO2 SLP212 T01830094 402440156 TSNO $
KLNA 050515Z AUTO 21003KT 26/24 A2998 RMK AO2 T02630240
KFAY 050453Z 03004KT 10SM CLR 23/21 A3009 RMK AO2 SLP183 T02330211 403390228
KFDR 050523Z AUTO 13010KT 10SM BKN017 24/22 A2993 RMK AO2 T02390217
KBAF 050453Z AUTO 04006KT 10SM CLR 17/13 A3014 RMK AO2 SLP204 T01670128 402830128 $
KTIF 050515Z AUTO 00000KT 10SM SCT095 BKN120 19/16 A2998 RMK AO2 LTG DSNT S T01920164
KSIF 050525Z AUTO 00000KT 3SM BR SCT070 SCT090 20/20 A3015 RMK AO2 T02030198
KLHM 042106Z AUTO 19010G15KT 10SM CLR 30/02 A2999 RMK AO1
KPHG 050515Z AUTO 12008KT 10SM FEW038 24/22 A2991 RMK AO2
KFHU 050455Z AUTO 22006KT 10SM OVC095 26/15 A3023 RMK AO2 SLP160 T02610145
KIXD 042253Z 16015G22KT 10SM FEW048 32/21 A2997 RMK AO2 SLP136 T03220206
KLSF 050455Z AUTO 00000KT 7SM CLR 24/22 A2998 RMK AO2 SLP154 T02350224 403540219 $
KTTD 050453Z AUTO VRB03KT 10SM CLR 18/09 A3017 RMK AO2 SLP215 T01780089
K1GN 050455Z AUTO 01008KT 10SM CLR 16/10 A2993 RMK AO2 SLP132 T01580101 $
KERY 050515Z AUTO 19007KT 10SM CLR 21/20 A2994 RMK AO2 T02050197
KEHY 050515Z AUTO 26011KT 10SM SCT110 16/02 A3029 RMK AO2 PWINO
KFYE 050510Z AUTO 00000KT 3SM BR CLR 22/22 A3003 RMK A01
KSMP 050516Z AUTO VRB04KT 10SM SCT028 10/07 A3018 RMK AO2 T01000072
K1EM 050455Z AUTO 25009KT 10SM OVC085 18/14 A3005 RMK AO2 PRESRR SLP156 T01820137 $
KPQI 050456Z AUTO 00000KT 10SM CLR 13/13 A2998 RMK AO2 SLP176 T01330128 402000133
KEVW 050453Z AUTO 33007G18KT 10SM SCT080 BKN100 BKN120 12/09 A3028 RMK AO2 SLP169 T01170089
K1NW 050455Z AUTO 36006KT 10SM FEW150 20/12 A3007 RMK AO2 LTG DSNT W SLP119 T02020117 $
KRBL 050454Z AUTO 18004KT 10SM CLR 25/08 A3000 RMK AO2 SLP155 T02500083
KFSK 050515Z AUTO 16007KT 10SM SCT090 BKN110 25/21 A3002 RMK AO2 T02470214
KMTC 050455Z AUTO 17003KT 10SM CLR 22/19 A3005 RMK AO2 SLP177 T02210194 402930150 FZRANO $
KDLL 050515Z AUTO 20004KT 10SM CLR 23/21 A3002 RMK AO2 T02300207
KSYI 050510Z AUTO 10004KT 7SM CLR 22/22 A3007 RMK A01
KGDJ 050515Z AUTO 14005KT 2 1/2SM +DZ BKN004 OVC023 23/23 A3000 RMK AO2 P0001 T02300225
KLAR 050508Z AUTO 29012G22KT 9SM -RA BKN070 OVC085 15/07 A3034 RMK AO2 LTG DSNT SW P0002 T01500072
KVES 050510Z AUTO 00000KT 7SM CLR A3014 RMK AO2
KLLJ 050455Z AUTO 00000KT 10SM CLR 12/08 A3014 RMK AO2 SLP171 T01220078
KQEV 050530Z AUTO 27005G15KT 9999 BKN037 32/22 A2968 RMK A02 TSNO
KAPA 050453Z 16006KT 10SM FEW090 FEW110 22/11 A3015 RMK AO2 SLP131 T02170106
KLWC 042252Z AUTO 18009KT 10SM CLR 33/20 A2994 RMK AO1 SLP129 T03330200
KCAK 050451Z 17006KT 5SM HZ FEW075 SCT250 23/18 A3014 RMK AO2 SLP197 T02330178 403060183
KLUK 050453Z AUTO 00000KT 2 1/2SM BR CLR 21/21 A3011 RMK AO2 SLP193 T02110206 403280189
KSCK 050455Z AUTO 27012KT 10SM CLR 17/07 A3006 RMK AO2 SLP178 T01670072 $
KALW 050453Z AUTO 16006KT 10SM CLR 19/10 A3004 RMK AO2 SLP169 T01940100
KTQS 050455Z AUTO 01003KT 9SM CLR 13/11 A3010 RMK AO2 SLP196 T01280105 $
KCVS 050455Z AUTO 07003KT 10SM CLR 22/14 A3001 RMK AO2 SLP093 T02220135 $
KEAT 050455Z AUTO 29017G22KT 10SM CLR 23/07 A2997 RMK AO2 SLP142 T02280072
K1JN 050455Z AUTO 35008KT 10SM CLR 16/10 A2995 RMK AO2 LTG DSNT S SLP138 T01560097 $
KAWG 050515Z AUTO 17005KT 10SM CLR 23/23 A3001 RMK AO2
KPOB 050455Z AUTO 00000KT 10SM CLR 24/22 A3009 RMK AO2 SLP190 T02400219 403410221 $
KSMF 050453Z 14009KT 10SM CLR 18/07 A3002 RMK AO2 SLP165 T01830072
KSNL 050515Z AUTO 17007KT 10SM CLR 24/23 A3000 RMK AO2 T02380226
KDUB 050522Z AUTO 29006KT 10SM CLR 09/06 A3028 RMK AO2
KBHB 050456Z AUTO 24003KT 10SM CLR 16/12 A3003 RMK AO2 SLP172 T01560122
KGRK 050455Z AUTO 15009KT 6SM BR OVC055 24/23 A2998 RMK AO2 LTG DSNT S SLP141 T02410230
K1GW 140055Z AUTO 16018G24KT 10SM TS OVC140 25/19 A2988 RMK AO2 TSE2355TSB16 PRESFR SLP069 T02530192 $
KGVT 050515Z AUTO 13005KT 10SM SCT100 23/ A3000 RMK AO2
KMEI 050458Z AUTO 00000KT 10SM CLR 23/22 A3003 RMK AO2 SLP164 T02330217 $
KPUJ 050515Z AUTO 00000KT 7SM CLR 23/19 A3010 RMK AO2
KGAG 050453Z AUTO 17011KT 10SM CLR 24/20 A2997 RMK AO2 SLP120 T02390200
KHRF 050515Z AUTO 00000KT 10SM SCT046 OVC065 12/11 A3013 RMK AO2
KDVK 050510Z AUTO 00000KT 10SM CLR 20/17 A3014 RMK AO2
KGRR 050453Z AUTO 19007KT 10SM CLR 24/19 A3007 RMK AO2 SLP176 T02390189 403110183 $
KGNT 050535Z AUTO 32005KT 10SM CLR 22/M01 A3032 RMK AO2 T02171012
KFBR 050515Z AUTO 18003KT 10SM BKN100 15/05 A3032 RMK AO2 T01500054
K82C 050515Z AUTO 18007KT 10SM CLR 25/24 A2999 RMK AO2 T02500241
KHYS 050456Z AUTO 16008KT 10SM BKN047 BKN055 24/22 A2995 RMK AO2 LTG DSNT NE TSE11 SLP125 T02390222 402940200 $
KLAN 050453Z 19003KT 7SM CLR 23/19 A3009 RMK AO2 SLP182 T02280194 403060178 $
KP33 050516Z AUTO 33006KT 10SM CLR 26/11 A3018 RMK AO2
KAFP 050535Z AUTO 00000KT 10SM CLR 22/21 A3010 RMK AO2 T02150209
KGYR 050347Z 21007KT 10SM FEW250 36/16 A2991 RMK LAST
KLVS 050453Z AUTO 28008KT 10SM CLR 18/07 A3024 RMK AO2 SLP126 T01780072 $
K4M9 050515Z AUTO 00000KT 10SM FEW060 26/26 A3005 RMK A01
K2V5 050515Z AUTO 36005KT 10SM CLR 18/18 A3001 RMK AO2 LTG DSNT NE
KMTJ 050453Z AUTO 14007KT 10SM CLR 20/07 A3019 RMK AO2 SLP145 T02000067
KEZP 050515Z AUTO 10SM 31/24 A3003 RMK A01
KILM 050453Z AUTO 03005KT 7SM CLR 23/22 A3007 RMK AO2 SLP181 T02280217 403220228
KFAM 050456Z AUTO 00000KT 8SM CLR 23/21 A3009 RMK AO2 SLPNO T02330206 $
K1IW 302255Z 36023G28KT 10SM CLR 18/06 A2979 RMK SLP068
KPNT 050515Z AUTO 15003KT 10SM CLR 22/21 A3008 RMK AO2 T02190205
KHAI 050515Z AUTO 19003KT 4SM BR SCT095 BKN120 23/22 A3010 RMK AO2 T02300218
K4O4 050515Z AUTO 18005KT M1/4SM UP FG OVC042 25/25 A3001 RMK AO2
KPWK 050452Z AUTO 18003KT 9SM CLR 26/20 A3006 RMK AO2 SLP173 T02560200
KPNM 050515Z AUTO 19009KT 10SM CLR 28/20 A2985 RMK AO2
K08D 050535Z AUTO 01008G15KT 10SM CLR 17/08 A3000 RMK AO2
KBYI 050453Z AUTO 26012KT 10SM CLR 18/10 A3008 RMK AO2 SLP150 T01780100
KCBF 050515Z AUTO 18008KT 9SM CLR 25/24 A2992 RMK AO2
KBLV 050455Z 00000KT 10SM CLR 25/21 A3004 RMK AO2A SLP171 T02510212 $
K9D7 220255Z AUTO 10SM BKN065 BKN090 OVC110 11/00 A2979 RMK AO2
KSLC 050454Z 13004KT 10SM FEW100 SCT160 SCT230 22/13 A3001 RMK AO2 SLP108 T02220133 $
KBLM 041207Z 32008KT 10SM CLR 20/17 A3007
KHSD 050510Z AUTO 18010KT 10SM 25/23 A2998 RMK A01
KHGR 050453Z AUTO 00000KT 10SM CLR 22/14 A3016 RMK AO2 SLP216 T02220144 403060189 $
KRAP 050514Z AUTO 28004KT 2 1/2SM HZ BKN110 22/17 A2998 RMK AO2 T02170167
KDAG 050450Z AUTO 27019G28KT 10SM CLR 29/06 A2998 RMK AO2 PK WND 27028/0450 SLP123 T02940056
KETH 050533Z AUTO 00000KT 10SM -RA CLR 21/20 A2983 RMK AO2
KFWC 050515Z AUTO 00000KT 10SM CLR 23/21 A3007 RMK AO2 T02250207
KPVG 050456Z AUTO 00000KT 5SM HZ CLR 18/ A3014 RMK AO2 SLP207 T0178 403280178 $
KP69 121452Z AUTO 00000KT 11/09 A2970 RMK AO1 SLP048 60004 T01060094 58006 $
KCOE 050456Z AUTO 18007KT 10SM BKN075 OVC090 20/06 A3007 RMK AO2 SLP184 T02000061 PNO $
KMFI 050454Z AUTO 20007KT 10SM CLR 25/21 A2998 RMK AO2 SLP142 T02500211
K1EW 050455Z AUTO 35010KT 10SM CLR 18/11 A3013 RMK AO2 PRESRR SLP140 T01750111 $
KK88 050515Z AUTO 18007KT 10SM BKN100 25/24 A2999 RMK AO2
K65S 050515Z AUTO 00000KT 8SM -RA FEW031 SCT060 OVC080 14/13 A3008 RMK AO2
KVUJ 050525Z AUTO 00000KT 10SM CLR 22/21 A3016 RMK AO2 T02170206
KEQY 050453Z AUTO 00000KT 9SM CLR 23/20 A3011 RMK AO2 SLP191 T02280200 403280217
KLXT 050453Z AUTO 17008KT 10SM OVC100 27/21 A3000 RMK AO2 SLP148 T02720206 $
KBKW 050451Z AUTO 00000KT 10SM CLR 19/15 A3023 RMK AO2 SLP201 T01890150 402940156
KJST 050454Z AUTO 25004KT 8SM CLR 18/14 A3022 RMK AO2 SLP219 T01780139 402560139
K4BM 050515Z AUTO 26007KT 10SM CLR 13/00 A3063 RMK AO2
KROS 050515Z AUTO 16005KT 10SM SCT065 25/20 A2986 RMK AO2 LTG DSNT N
KLKU 050515Z AUTO 00000KT 7SM CLR 17/17 A3015 RMK AO2 T01740170
KLBB 050453Z 14011KT 10SM CLR 25/22 A3000 RMK AO2 SLP104 T02500222 $
KOKV 050535Z AUTO 00000KT 5SM BR CLR 18/17 A3014 RMK AO2
KHSP 050515Z AUTO 18007KT 10SM SCT029 19/16 A3030 RMK AO2 T01860162
KCXE 050515Z AUTO 09003KT 10SM OVC080 23/17 A3015 RMK AO1 T02290171
KGLR 050453Z AUTO 20007KT 10SM CLR 23/19 A3003 RMK AO2 SLP162 T02280189 403000117
KCXW 050515Z AUTO 15005KT 8SM OVC080 27/26 A3002 RMK A01
KCNM 050453Z AUTO 19008KT 10SM FEW120 26/19 A3000 RMK AO2 SLP100 T02610189
KMCX 050535Z AUTO 00000KT 10SM CLR 24/19 A3011 RMK AO2 T02400187
KOCF 050509Z AUTO 22003KT 5SM BR SCT002 BKN023 23/23 A2996 RMK AO2
KIOW 050452Z AUTO 15003KT 10SM CLR 23/22 A3003 RMK AO2 SLP161 T02330217
KBHM 050453Z 00000KT 2SM BR FEW060 SCT150 23/22 A3009 RMK AO2 SLP178 T02330217
KHVN 050453Z AUTO 00000KT 2SM HZ CLR 19/16 A3013 RMK AO2 SLP203 T01890156 402830167 $
KJSV 050515Z AUTO 08004KT 5SM BR CLR 25/25 A3000 RMK AO2
K1BW 050455Z AUTO 31012KT 10SM CLR 16/12 A3018 RMK AO2 LTG DSNT SW SLP161 T01580120 $
KRGK 050515Z AUTO 17008KT 10SM CLR 27/19 A2989 RMK AO2
KJZI 050515Z AUTO 02005KT 10SM SCT019 BKN025 BKN030 26/24 A3001 RMK AO2
KNGP 050456Z AUTO 17014G21KT 10SM -RA FEW024 FEW100 28/25 A2996 RMK AO2 PK WND 16027/0420 RAB29 SLP146 P0000 T02780250 $
KACY 050454Z AUTO 00000KT 10SM CLR 17/14 A3014 RMK AO2 SLP206 T01720139 403000167 $
KCMI 050453Z AUTO 14004KT 10SM CLR 23/20 A3009 RMK AO2 SLP181 T02280200
KMOP 050515Z AUTO 22004KT 10SM CLR 23/17 A3005 RMK AO2 T02300172
KAQX 050515Z AUTO 00000KT 10SM CLR 23/22 A3004 RMK AO2 TSNO
KGKY 050453Z AUTO 12007KT 9SM BKN011 OVC095 24/22 A2998 RMK AO2 SLP143 T02440222 $
KHFY 050415Z AUTO 00000KT 7SM CLR 24/20 A3011 RMK AO2 T02370202
KQWX 221255Z AUTO 21003KT 10SM M 09/M02 A2987 RMK AO2 SLP237 T00871023
KATP 050515Z AUTO 00000KT A3002 RMK A01
KJVL 050510Z AUTO 20004KT 2SM BR CLR 23/21 A3004 RMK AO2
KBTV 050454Z AUTO 10003KT 10SM CLR 14/12 A3014 RMK AO2 SLP205 T01440122 402440133
K2G2 050515Z AUTO 14004KT 7SM CLR 20/18 A3015 RMK A01
KIPJ 050525Z AUTO 00000KT 7SM CLR 21/20 A3013 RMK AO2 T02070195
KMHP 050515Z AUTO 00000KT 10SM CLR 24/22 A3001 RMK AO2 T02400222
KE38 050515Z AUTO 22007KT 10SM CLR 24/18 A3019 RMK AO2 T02370175
KBXA 050515Z AUTO 00000KT 10SM CLR 24/22 A3003 RMK AO2 T02390220
KABH 050455Z AUTO 01004KT 10SM BKN120 16/12 A3019 RMK AO2 LTG DSNT N SLP145 T01620124
KGGI 050515Z AUTO 00000KT 10SM CLR 25/21 A3002 RMK AO2 T02460213
KCMD 050515Z AUTO 00000KT 4SM BR CLR 23/23 A3009 RMK AO2
KIPT 050454Z AUTO 31003KT 10SM CLR 17/13 A3015 RMK AO2 SLP206 T01670133 402830133 $
KANB 050524Z AUTO 00000KT 3SM BR CLR 23/22 A3006 RMK AO2 T02330222
KODX 050453Z AUTO 00000KT 10SM BKN023 OVC032 21/21 A2994 RMK AO2 SLP126 T02060206 $
K79S 050515Z AUTO 00000KT 6SM -RA BR FEW055 BKN080 15/15 A3002 RMK AO2 P0003 T01510151 $
KDDC 050524Z AUTO 13008KT 9SM VCTS FEW040 SCT055 SCT070 19/19 A3001 RMK AO2 LTG DSNT NE-SE RAE21 TSE06 P0001 T01890189
KTEB 050451Z 36003KT 10SM CLR 21/12 A3012 RMK AO2 SLP198 T02110122 402940167 $
KMBT 050510Z AUTO 00000KT 5SM HZ SCT002 26/23 A3006 RMK A01
KSUE 050457Z AUTO 21007KT 10SM CLR 24/22 A2997 RMK AO2 SLP140 T02440222
KNAK 050454Z AUTO 00000KT 4SM BR CLR 22/21 A3013 RMK AO2 SLP206 T02220211 402830217
KPWM 050451Z AUTO 28007KT 10SM CLR 16/11 A3010 RMK AO2 SLP193 T01560106 402440139
KCBG 050515Z AUTO 18008KT 10SM CLR 28/19 A2985 RMK AO2
KBZN 050456Z 16005KT 10SM CLR 13/12 A3013 RMK AO2 RAE00 SLP169 P0000 T01330122
KRSW 050453Z AUTO 26003KT 10SM CLR 26/24 A2997 RMK AO1 SLP146 T02610244 403060239
KBBB 050515Z AUTO 14005KT 4SM -RA BR SCT029 SCT060 BKN080 22/22 A2983 RMK AO2
KSHV 050456Z 18004KT 6SM HZ SCT120 27/23 A3002 RMK SLPNO
KBVY 050453Z AUTO 00000KT 10SM CLR 15/12 A3012 RMK AO2 SLP195 T01500117 402500139
KIAH 050453Z 16006KT 7SM FEW120 BKN160 BKN250 28/24 A2999 RMK AO2 SLP154 T02830239
KEND 050455Z AUTO 14010KT 10SM CLR 25/23 A2993 RMK AO2 SLP124 T02500225 $
KSHN 050453Z AUTO 24013G20KT 10SM BKN070 14/09 A3013 RMK AO2 SLP204 T01440094
KQBD 221355Z AUTO VRB02KT 10SM CLR RMK AO2 SLPNO WND DATA ESTMD
KBVN 050515Z AUTO 00000KT 5SM +RA SCT031 BKN045 OVC080 22/21 A2992 RMK AO2 P0004 T02210210
KGVQ 050456Z AUTO 16004KT 10SM CLR 17/13 A3014 RMK AO2 SLP202 T01670128 402440117
KY31 050515Z AUTO 22003KT 10SM SCT050 OVC060 21/21 A3004 RMK AO2 T02130212
KWDR 050515Z AUTO 00000KT 5SM HZ CLR 23/20 A3011 RMK AO2
KLOM 050515Z AUTO 00000KT 4SM BR CLR 16/16 A3016 RMK AO2 T01640159
KDED 050515Z AUTO 00000KT 10SM SCT017 SCT023 BKN028 25/23 A2994 RMK AO2 T02470232
KMNM 050457Z AUTO 22006KT 10SM CLR 26/23 A2995 RMK AO2 SLP137 T02610233 403060189 $
KLFT 050453Z AUTO 00000KT 7SM CLR 26/24 A3002 RMK AO2 SLP163 T02560239 $
KCIC 050050Z 15014KT 10SM CLR 31/03 A2996
KRNP 050515Z AUTO 17003KT 10SM CLR 24/20 A3008 RMK AO2 T02350197
KAWM 050453Z AUTO 00000KT 7SM -RA CLR 24/21 A3002 RMK AO2 RAB51 SLP160 P0000 T02390211 $
KMIA 050453Z 22004KT 10SM FEW020 FEW080 BKN120 BKN250 27/24 A3000 RMK AO2 SLP164 T02670244 403000233 $
KCLL 050453Z AUTO 15010KT 10SM OVC100 28/23 A2998 RMK AO2 SLP147 T02780233
K27K 050515Z AUTO 00000KT 9SM CLR 21/20 A3010 RMK AO2 T02140201
KIKW 050516Z AUTO 27002KT 10SM CLR 22/19 A3004 RMK AO2
KOJC 042253Z 17014G19KT 10SM FEW050 31/21 A2997 RMK AO2 SLP136 T03110211
KLVJ 050453Z AUTO 14005KT 8SM CLR 28/24 A3001 RMK AO2 SLP160 T02830239
KPOC 050347Z 27008KT 10SM CLR 26/14 A3000
KBIE 050515Z AUTO 18008KT 10SM CLR 27/21 A2993 RMK AO2 T02650212
KDFI 050453Z AUTO 00000KT 10SM CLR 22/19 A3011 RMK AO2 SLP190 T02170194 403280178
KS32 251415Z AUTO A3034 RMK AO2 PWINO TSNO
KSNH 050510Z AUTO 00000KT 9SM FEW043 22/22 A3003 RMK A01
KHTH 050515Z AUTO 01007G13KT 10SM CLR 24/M07 A3011 RMK A01
KHWO 050501Z AUTO 23005KT 10SM SCT018 SCT024 28/24 A2999 RMK AO2 T02830239
KCNW 050355Z 12006KT 4SM BR SCT006 OVC100 24/24 A2998
KFNT 050453Z AUTO 19004KT 8SM CLR 24/21 A3009 RMK AO2 SLP182 T02390211 403060150
KOZA 050510Z AUTO 18009KT 10SM OVC013 25/22 A3004 RMK AO2
KOQT 050453Z AUTO 00000KT 8SM SCT080 23/19 A3012 RMK AO2 SLP181 T02330194 403440194
K1KW 050455Z AUTO 32006KT 10SM CLR 18/12 A3009 RMK AO2 LTG DSNT W PRESRR SLP136 T01780118 $
KHRX 050515Z AUTO 11007KT 10SM CLR 23/21 A3004 RMK AO2 T02310207 TSNO
KAVP 050454Z 11005KT 10SM CLR 14/12 A3018 RMK AO2 SLP214 T01440117 402560128 $
KCUH 050515Z AUTO 16005KT 10SM SCT075 OVC080 25/21 A2999 RMK AO2 T02450212
KDWU 050456Z AUTO 00000KT 10SM CLR 22/ A3013 RMK AO2 SLP199 T0217 403330200
KEHO 050525Z AUTO 04003KT 10SM CLR 21/19 A3012 RMK AO2 T02120188
KFSW 050515Z AUTO 15006KT 10SM CLR 24/21 A3004 RMK AO2
KEMT 050145Z 20009KT 10SM CLR 27/16 A2997
KGHB 050520Z AUTO 19007KT 10SM CLR 30/24 A3003 RMK A01
KHRT 050455Z AUTO 04004KT 10SM CLR 27/22 A2997 RMK AO2 SLP147 T02730224 $
KMDS 050515Z AUTO 16006KT 10SM BKN110 22/22 A2986 RMK AO2 TSNO
KDTL 050515Z AUTO 15009KT 10SM FEW007 FEW047 SCT120 21/21 A2982 RMK AO2
KVAY 050454Z AUTO 00000KT 10SM CLR 17/15 A3013 RMK AO2 SLP202 T01720150 402890167 $
KTVR 050453Z AUTO 00000KT 4SM BR CLR 24/23 A3003 RMK AO2 SLP173 T02440233
KBAK 050145Z 00000KT 10SM FEW100 26/21 A3007 RMK LAST
KTVL 050453Z AUTO 15004KT 10SM CLR 12/01 A3027 RMK AO2 SLP204 T01170006
KIGQ 050515Z AUTO 19003KT 10SM CLR 23/20 A3008 RMK AO2 T02290198
KMCB 050453Z AUTO 00000KT 10SM CLR 23/21 A3003 RMK AO2 SLP164 T02330206
KSJT 050451Z 18013G19KT 10SM SCT042 24/22 A2998 RMK AO2 SLP128 T02440222
KVTP 050515Z AUTO 10004KT 10SM CLR 12/M16 A3062 RMK AO2
KHWV 050456Z AUTO 00000KT 1 1/2SM BR CLR 17/16 A3013 RMK AO2 SLP202 T01720161 402780156 $
KSJX 050515Z AUTO 20009G16KT 10SM CLR 24/20 A2995 RMK AO2
KSYF 050515Z AUTO 27007KT 10SM CLR 22/19 A2998 RMK AO2
KOIC 050515Z AUTO 17003KT 8SM CLR 11/10 A3018 RMK AO2
KDLS 050453Z AUTO 30010KT 10SM FEW120 19/07 A3007 RMK AO2 PK WND 29026/0403 SLP181 T01940072 $
KHCD 050515Z AUTO 19008KT 10SM SCT055 BKN065 OVC090 27/20 A2986 RMK AO2 T02670195
KNUC 050456Z AUTO 23007KT 8SM OVC002 16/14 A3006 RMK AO2 SLP177 T01560144 PNO $
KBRO 050453Z AUTO 15007KT 10SM SCT013 OVC018 27/25 A2998 RMK AO2 SLP149 T02720250
KJSO 050515Z AUTO 16006KT 10SM OVC120 24/23 A2999 RMK AO2 T02420227
KLNR 050456Z AUTO VRB03KT 10SM CLR 23/21 A3001 RMK AO2 SLP150 T02330211
KSDM 050453Z AUTO 00000KT 10SM CLR 17/16 RMK AO2 SLPNO T01720156 $
KS52 050515Z AUTO 27006KT 10SM SCT075 SCT085 BKN110 22/08 A2998 RMK AO2 T02230077
KMKS 050515Z AUTO 03003KT 10SM CLR 23/23 A3004 RMK AO2
KAUW 050454Z AUTO 21004KT 10SM CLR 24/21 A2997 RMK AO2 SLP145 T02440206
KMCO 050525Z 20004KT 3SM BR FEW009 OVC230 24/24 A2994 RMK AO2 T02390239 $
KC75 050515Z AUTO 00000KT 10SM CLR 23/19 A3005 RMK AO2 T02320194
KROG 050458Z AUTO 14003KT 10SM FEW090 BKN110 24/21 A3007 RMK AO2 SLP164 T02440211 403220217 TSNO
KIPL 050453Z AUTO 18006KT 10SM 33/14 A2986 RMK AO2 SLP114 T03280144 $
KDIK 050456Z AUTO 04006KT 10SM CLR 18/13 A2996 RMK AO2 SLP130 T01780128
KRHI 050453Z AUTO 22009KT 10SM CLR 25/19 A2997 RMK AO2 SLP137 T02500194
KBIL 050453Z 36004KT 10SM FEW040 SCT110 SCT250 18/12 A3004 RMK AO2 SLP139 T01830122
KJKJ 050515Z AUTO 18004KT 10SM OVC100 22/21 A2982 RMK AO2
KPVU 050456Z AUTO 31011KT 10SM CLR 23/14 A3005 RMK AO2 SLP115 T02330139
KTLH 050453Z AUTO 00000KT 8SM CLR 26/23 A2999 RMK AO2 SLP155 T02560233 403390239
KSEQ 050455Z AUTO 16006KT 10SM OVC015 27/25 A2993 RMK AO2 LTG DSNT N SLP130 T02660246 $
KAFK 050515Z AUTO 19010KT 10SM OVC100 26/21 A2994 RMK AO2 T02560206
KOFF 050455Z 14007KT 10SM OVC200 27/22 A2990 RMK AO2A SLP116 T02690223 $
KPEO 050453Z AUTO 23004KT 8SM CLR 15/13 A3016 RMK AO2 SLP211 T01500133 402440117
KCNB 050515Z AUTO 00000KT 10SM SCT120 25/23 A2983 RMK AO2 T02450231
KMNV 050510Z AUTO 00000KT 10SM CLR 22/22 A3010 RMK A01
KJDN 050448Z AUTO 08010G19KT 23/07 A3000 RMK AO1 SLP142 T02330072
KPBX 050515Z AUTO 00000KT 10SM CLR 24/18 A3016 RMK AO2 T02370183
KEGV 050515Z AUTO 21005KT 10SM CLR 25/18 A2995 RMK AO2 T02460183
KD57 050515Z AUTO 01007KT 10SM BKN046 BKN055 BKN110 20/12 A2994 RMK AO2
KECG 050454Z AUTO 08005KT 10SM CLR 22/20 A3012 RMK AO2 SLP200 T02220200 403110222
KPDT 050453Z AUTO 35003KT 10SM BKN110 16/08 A3006 RMK AO2 SLP169 T01610078 $
KCHA 050517Z 00000KT 2SM HZ CLR 25/22 A3008 RMK AO2 T02500217
KCQF 050515Z AUTO 00000KT 7SM CLR 23/22 A3000 RMK AO2
KFMN 050453Z AUTO 26005KT 10SM CLR 24/00 A3018 RMK AO2 SLP152 T02390000 $
KOXR 050451Z AUTO 00000KT 7SM CLR 16/14 A3001 RMK AO2 SLP160 T01610139
KTOA 050250Z 26011KT 10SM SCT006 18/16 A2999 RMK STRATUS WEST
KDBQ 050453Z AUTO 17005KT 10SM CLR 23/21 A3004 RMK AO2 SLP164 T02330206 $
KWVL 050456Z AUTO 25004KT 10SM CLR 16/12 A3004 RMK AO2 SLP198 T01560117 402280144
KIKT 301605Z AUTO 06012KT 9SM FEW022 FEW027 FEW120 27/21 A3010 RMK A01
KMML 050532Z AUTO 19007KT 10SM -RA BKN020 BKN039 BKN090 23/ A2985 RMK AO2 P0000
KPCD 050535Z AUTO 00000KT 10SM SCT055 24/22 A3005 RMK AO2 T02370219 TSNO
KJCT 050451Z AUTO A3000 RMK AO2 SLPNO PWINO $
KUNU 050450Z AUTO 17005KT 10SM CLR 24/21 A3003 RMK AO2 T02380210 TSNO
KSPG 050453Z AUTO 12006KT 10SM 24/23 A2993 RMK AO2 LTG DSNT SE RAE08 SLP135 P0000 T02440228 402890228
KNEN 050453Z AUTO 35003KT 10SM FEW016 FEW023 25/23 A2996 RMK AO2 SLP206 T02500233 403220211 TSNO $
KHSI 050453Z AUTO 17008KT 10SM CLR 24/22 A2994 RMK AO2 SLP118 T02390217
KCQX 050452Z AUTO 32003KT 10SM CLR 16/15 A3011 RMK AO2 SLP198 T01610150 402440156 PWINO
KHTS 050522Z 00000KT 2 1/2SM BR CLR 23/21 A3013 RMK AO2 T02280206
K46U 050510Z AUTO 13007KT 10SM CLR 13/09 A3022 RMK A01
KLCG 050515Z AUTO 00000KT 10SM BKN080 OVC100 22/21 A2991 RMK AO2 T02170208
KMVH 050515Z AUTO 26010KT 10SM BKN075 BKN085 16/10 A3010 RMK AO2
KJEF 050453Z AUTO 11004KT 10SM CLR 26/21 A3002 RMK AO2 SLP151 T02610211 $
K1IN 050455Z AUTO 35009KT 10SM CLR 16/10 A2994 RMK AO2 SLP134 T01590104 PWINO $
KGEY 050453Z AUTO 10006KT 10SM CLR 17/13 A3006 RMK AO2 SLP144 T01720128
KAAT 050455Z AUTO 25003KT 10SM CLR 14/02 A3017 RMK AO2 SLP184 T01390022
KOKB 050520Z AUTO 00000KT 5SM BR BKN012 16/14 A3004 RMK AO2 T01610144
KFDK 050530Z AUTO 00000KT 18/17 A3016 RMK AO2
KDRM 050455Z AUTO 00000KT 10SM CLR 18/15 A2998 RMK AO2 T01830149
KS33 050515Z AUTO 32007KT 10SM CLR 13/03 A3016 RMK AO2
KMNN 050453Z AUTO 20004KT 10SM FEW120 22/19 A3014 RMK AO2 SLP198 T02220189 403440178 $
KHJO 050453Z AUTO 32011KT 10SM CLR 27/08 A2999 RMK AO2 SLP157 T02670083
K3K7 050515Z AUTO 18013KT 10SM CLR 19/18 A2999 RMK AO2
KCWN 050455Z AUTO 22007KT 10SM BKN100 23/10 A3023 RMK AO2 SLP040 T02330100 $
KGUS 050455Z AUTO 00000KT 10SM M 23/20 A3009 RMK AO2 SLP185 T02290200 403100195 $
KRYY 050450Z AUTO VRB03KT 10SM CLR 26/21 A3011 RMK AO2 SLP193 T02560206 $
K3J1 050515Z AUTO 04007KT 10SM CLR 24/24 A3000 RMK AO2
KGZL 050515Z AUTO 10004KT 10SM CLR 25/24 A2998 RMK AO2
KRWI 050453Z AUTO 00000KT 10SM CLR 22/19 A3012 RMK AO2 SLP199 T02170189 403330211
KRBD 050453Z 16005KT 8SM FEW013 23/22 A2998 RMK AO2 SLP144 T02280217
KVTA 050512Z AUTO 00000KT 2SM BR CLR 21/20 A3014 RMK AO2 T02110200
KRIL 050453Z AUTO 16006KT 10SM CLR 22/05 A3014 RMK AO2 SLP135 T02220050
KSAT 050451Z 12005KT 4SM BR OVC014 26/24 RMK AO2 RAE02 SLPNO P0000 T02560244 $
K4I3 050523Z 21002KT 10SM CLR A3016 RMK AO2
KFHM 050530Z 32002KT 18/16
KHCR 050515Z AUTO 03003KT 10SM SCT120 BKN150 17/10 A3015 RMK AO2 T01670103 $
KDRI 050515Z AUTO 00000KT 9SM CLR 24/24 A3002 RMK AO2 T02420242 $
KNBC 050456Z AUTO 02007KT 10SM CLR 24/23 A3001 RMK AO2 SLP163 T02440228 403220244
KOFP 050454Z AUTO 00000KT 4SM BR CLR 19/18 A3015 RMK AO2 SLP208 T01940178 403060194
K4S2 050515Z AUTO 00000KT 10SM SCT110 17/07 A3011 RMK AO2
KFYM 031945Z AUTO 01009KT 10SM CLR 30/19 A3004 RMK A01
KHEF 050533Z AUTO 00000KT 2 1/2SM CLR 18/18 A3015 RMK AO2
KDLN 050453Z AUTO 20008KT 10SM CLR 11/07 A3013 RMK AO2 SLP167 T01110072
KELA 050515Z AUTO 16004KT 10SM BKN120 25/24 A2998 RMK AO2 T02530241
KLNL 050515Z AUTO 20005KT 10SM CLR 25/19 A2995 RMK AO2 T02470187
KC83 050515Z AUTO 24021G32KT 8SM CLR 15/09 A3005 RMK AO2
KNUQ 050515Z AUTO 33006KT 10SM OVC014 15/08 A3015 RMK AO2
KHIB 050524Z AUTO 19003KT 1 1/4SM VCTS -RA BR BKN030 BKN065 OVC080 18/18 A2989 RMK AO2 LTG DSNT S AND SW TSE05 P0033 T01830183
KLDM 050515Z AUTO 21010KT 10SM CLR 25/20 A3001 RMK AO2
KVVS 050515Z AUTO 07005KT 10SM CLR 18/15 A3018 RMK AO2 T01830149
KOIN 050515Z AUTO 24007KT 10SM CLR 22/21 A2994 RMK AO2 LTG DSNT NW
KERV 050515Z AUTO 15003KT 3SM BR OVC007 24/23 A3000 RMK AO2 T02360231
KSBM 050453Z AUTO 19005KT 9SM CLR 23/22 A3001 RMK AO2 SLP156 T02330217
KLBE 050515Z AUTO 00000KT 6SM BR CLR 18/17 A3018 RMK AO2
KBBW 050453Z AUTO 27005KT 10SM SCT050 20/19 A2997 RMK AO2 SLP127 T02000194
KLVK 050453Z 23005KT 10SM CLR 13/09 A3012 RMK AO2 SLP195 T01330089
KLAX 050453Z 25006KT 5SM BR BKN006 17/15 A3003 RMK AO2 SLP168 T01670150 $
KMTV 050535Z AUTO 00000KT 7SM BKN080 A3019 RMK AO2
KCBM 050455Z AUTO 00000KT 10SM CLR 24/22 A3000 RMK AO2 SLP159 T02380220 $
KIBM 050515Z AUTO 00000KT 10SM CLR 18/12 A3014 RMK AO2 T01770115
KBDL 050451Z 00000KT 10SM CLR 18/12 A3014 RMK AO2 SLP204 T01780122 402720139
KVGN 050455Z AUTO 34009KT 9SM CLR 14/10 A3008 RMK AO2 SLP188 T01440104 $
KN60 050454Z AUTO 36007KT 20/09 A2991 RMK AO1 SLP121 T02000094
KRHP 050525Z AUTO 00000KT 7SM OVC002 18/18 A3018 RMK AO2 T01820175
KEMV 050535Z AUTO 00000KT 10SM CLR 18/18 A3015 RMK AO2 T01840181
KOLY 050510Z 10SM CLR 24/22 A3009 RMK AO2 T02370217
KSUW 050515Z AUTO 31008KT 10SM OVC046 22/18 A2984 RMK AO2 T02210176
KMPR 050515Z AUTO 17010G15KT 10SM SCT095 25/22 A2997 RMK AO2 T02460217
K8A0 301750Z AUTO VRB06G12KT 10SM FEW038 FEW080 28/19 A3013 RMK AO2
KTUP 050453Z AUTO 00000KT 10SM CLR 24/22 A3004 RMK AO2 SLP169 T02440217
KPAO 050347Z 26013KT 10SM SKC 17/09 A3012 RMK LAST
KLGF 050455Z AUTO 19006KT 10SM CLR 34/16 A2990 RMK AO2 SLP121 T03360164 $
KGMU 050453Z AUTO 04004KT 7SM CLR 24/19 A3012 RMK AO2 SLP187 T02440194 403280239
KTBR 050519Z AUTO 07004KT 10SM CLR 24/23 A3001 RMK AO2
KISQ 050515Z AUTO 20007KT 10SM CLR 18/18 A2994 RMK AO2 T01830180
KBWD 050515Z AUTO 00000KT 9SM SCT008 BKN033 BKN044 BKN060 23/23 A2999 RMK AO2 T02290227 $
KAMA 050520Z AUTO 16016KT 10SM OVC014 23/21 A3003 RMK AO2 T02280211
KNYG 050456Z AUTO 30004KT 4SM CLR 21/19 A3014 RMK AO2 SLP207 T02060189 403060200
KBTL 050453Z AUTO 20004KT 10SM OVC090 24/20 A3010 RMK AO2 SLP185 T02390200 402940178 $
K2A0 210110Z AUTO VRB06KT 3SM BR FEW045 SCT060 BKN080 21/21 A2973 RMK A01
KS39 050510Z AUTO 35005KT 10SM CLR 15/02 A3016 RMK AO2
KOKM 050510Z AUTO 00000KT 10SM SCT041 SCT060 25/24 A3000 RMK AO2 T02460235
KGCK 050454Z AUTO 10007KT 10SM FEW095 20/19 A3000 RMK AO2 SLP127 T02000189
KEDE 050530Z AUTO 02004KT 10SM CLR 22/22 A3013 RMK AO2 T02220222
KMMH 050515Z AUTO 00000KT 10SM CLR 12/M02 A3028 RMK AO2
KNOZ 050459Z AUTO 17009KT CLR 31/19 A2992 RMK AO2 SLP079 T03110189
KSLN 050453Z AUTO 16011KT 10SM OVC095 26/22 A2995 RMK AO2 SLP125 T02610217
KE57 050515Z AUTO 17008KT 9SM CLR 25/22 A3002 RMK AO2
K3AU 050515Z AUTO 16009KT 10SM CLR 24/20 A2999 RMK AO2
KVPZ 050456Z AUTO 15003KT 10SM CLR 23/20 A3009 RMK AO2 SLP183 T02330200
KAAF 050453Z AUTO 06005KT 10SM CLR 25/24 A2998 RMK AO2 SLP151 T02500239 403280239 TSNO
KBTN 050515Z AUTO 31006KT 10SM SCT016 BKN035 OVC080 21/21 A2981 RMK AO2
KI74 050515Z AUTO 00000KT 7SM CLR 20/20 A3015 RMK AO2
KQTZ 050455Z 27004KT 9999 SKC 28/04 A2963 RMK SLP037
KHSE 050451Z AUTO 06004KT 10SM CLR 25/24 A3010 RMK AO2 SLP190 T02500239 403110244 $
KFYG 050515Z AUTO 00000KT 9SM CLR 23/22 A3005 RMK AO2
KQFV 050530Z AUTO 33002KT 9999 BKN028 28/22 A2977 RMK A02 TSNO
KRRT 050455Z AUTO 19003KT 7SM SCT007 21/18 A2979 RMK AO2
KCGE 050525Z AUTO 00000KT 10SM CLR 19/18 A3014 RMK A01
KPPF 050452Z AUTO 18005KT 10SM BKN100 26/21 A3000 RMK AO2 SLP149 T02560211
KZER 050515Z AUTO 00000KT 10SM CLR 19/11 A3020 RMK AO2
KGRF 050455Z AUTO 17007KT 10SM FEW150 SCT170 SCT200 17/09 A3013 RMK AO2 SLP206 T01660090 $
KQEP 050530Z AUTO 20001KT 9999 BKN044 33/23 A2973 RMK A02 TSNO
KBUU 050515Z AUTO 00000KT 3SM CLR 21/21 A3005 RMK AO2 T02130210 PWINO
K19S 050515Z AUTO 00000KT 10SM BKN026 21/20 A3003 RMK AO2 T02070201
KNMM 050456Z AUTO 00000KT 10SM CLR 23/22 A3003 RMK AO2 SLP175 T02330217 $
KMJX 050456Z AUTO 00000KT 10SM CLR 16/14 A3015 RMK AO2 SLP211 T01610144 402940161
KEEN 050456Z AUTO 00000KT 6SM BR CLR 13/12 A3017 RMK AO2 SLP217 T01280122 402500122 $
K1LW 010155Z 33015G20KT 10SM SCT095 BKN110 OVC130 10/04 A2992 RMK SLP106
KFCI 050456Z AUTO 00000KT 4SM BR CLR 20/19 A3015 RMK AO2 SLP217 T02000189 403170200
KCAE 050456Z 10004KT 8SM BKN150 24/20 A3005 RMK AO2 SLP174 T02440200 403500233 $
KPGV 050530Z AUTO 00000KT 10SM CLR 22/22 A3012 RMK AO2
KCVX 050515Z AUTO 19008KT 10SM CLR 24/20 A2996 RMK AO2
KSTP 050453Z AUTO 17008KT 10SM SCT070 27/21 A2988 RMK AO2 SLP108 T02720206
KHNZ 050525Z AUTO 00000KT 10SM CLR 19/18 A3014 RMK AO2 T01900183
KDAN 050453Z AUTO 05003KT 10SM SCT070 BKN095 22/20 A3014 RMK AO2 SLP195 T02220200 403170189
KRVL 050515Z AUTO 00000KT 10SM CLR 16/15 A3016 RMK AO2
KS12 050515Z AUTO 32006KT 10SM CLR 17/08 A3017 RMK AO2
KGYI 050515Z AUTO 13006KT 8SM CLR 23/22 A3001 RMK AO2 T02320219
KDTA 050515Z AUTO 19018G23KT 10SM CLR 25/M02 A3007 RMK AO1
KMRC 050510Z AUTO 00000KT 9SM CLR 23/23 A3005 RMK A01
KTDF 050530Z AUTO 00000KT 7SM 18/18 A3016 RMK AO2
KABY 050453Z AUTO 00000KT 10SM CLR 26/22 A3001 RMK AO2 SLP160 T02560222 403500244
K1MW 050455Z AUTO 35003KT 10SM CLR 19/16 A3005 RMK AO2 LTG DSNT W SLP127 T01880162 $
KQEW 050530Z AUTO 26003KT 9999 // CLR 32/22 A2969 RMK A02 TSNO
KONL 050515Z AUTO 20003KT 10SM SCT100 21/20 A2992 RMK AO2 T02070200
KLCH 050453Z 00000KT 3SM BR CLR 25/24 A3002 RMK AO2 SLP171 T02500239
KBVO 050453Z AUTO 00000KT 8SM CLR 24/22 A3000 RMK AO2 SLP147 T02390222
KUCY 251745Z AUTO VRB03KT 10SM CLR 35/24 A3015 RMK A01
KIDA 050453Z 19004KT 10SM CLR 18/10 A3010 RMK AO2 SLP161 T01780100
KRAL 050453Z AUTO 28004KT 10SM CLR 22/14 A3003 RMK AO2 SLP153 T02220139
KO86 050515Z AUTO 28006KT 9SM CLR 17/08 A3010 RMK A01
KOMA 050452Z 16010KT 10SM BKN210 27/22 A2990 RMK AO2 SLP114 T02720222 $
KIFP 042347Z 19016KT 10SM CLR 40/10 A2981
KO05 050515Z AUTO 00000KT 10SM CLR 13/M03 A3021 RMK A01
KMWM 050515Z AUTO 16008KT 10SM SCT060 BKN090 26/21 A2987 RMK AO2
KDNV 050515Z 00000KT 22/21 A3010 RMK AO2 T02150205
K1B9 050515Z AUTO 00000KT 10SM CLR 15/14 A3013 RMK AO2 P0100 T01470140 $
KI16 050515Z AUTO 10SM CLR 21/21 A3024 RMK AO2 T02060206
KLIC 050455Z AUTO 04005KT 10SM CLR 14/12 A3012 RMK AO2 SLP129 T01440122
KILE 050456Z AUTO 16007KT 10SM FEW021 OVC060 24/24 A2999 RMK AO2 SLP144 T02440239 PNO $
KSYR 050454Z 12005KT 10SM FEW180 FEW250 14/11 A3015 RMK AO2 SLP204 T01440111 402440139
KHQM 050453Z AUTO 31008KT 10SM CLR 14/12 A3020 RMK AO2 SLP231 T01390117
KACZ 050525Z AUTO 00000KT 1 3/4SM BR VV007 21/21 A3009 RMK AO2 T02080207
KTWM 301915Z AUTO 24014G18KT 10SM CLR 27/17 A2978 RMK AO2 LTG DSNT SE
KEBA 050515Z AUTO 00000KT 10SM CLR 23/21 A3008 RMK AO2 T02330210
KINF 050515Z AUTO 00000KT 5SM BR 21/21 A2997 RMK AO2
KEOE 050515Z AUTO 00000KT 10SM CLR 23/18 A3012 RMK AO2
KP58 050455Z AUTO VRB04KT 23/19 A3003 RMK AO1 SLP161 T02330189 402500117 PNO
K1DW 301855Z 33024G29KT 10SM FEW041 17/05 A2988 RMK SLP091
KRKP 050453Z AUTO 17012G26KT 7SM FEW095 FEW120 28/24 A2994 RMK AO2 PK WND 16026/0443 RAB02E12 SLP141 P0000 T02830239
KICT 050453Z 16010KT 10SM SCT085 24/22 A2997 RMK AO2 SLP134 T02440217 $
KUYF 050535Z AUTO 10SM CLR 21/19 A3016 RMK AO2
KCKB 050453Z AUTO 00000KT 6SM BR CLR 19/17 A3018 RMK AO2 SLP204 T01940172 403110172
KHCO 050455Z AUTO 19005KT 10SM BKN015 BKN110 23/20 A2978 RMK AO2
KOLF 050453Z AUTO 05007KT 10SM FEW120 19/07 A3001 RMK AO2 SLP153 T01890072
KOSA 050510Z AUTO 06003KT 10SM CLR 23/20 A3001 RMK AO2 T02260205
KLNP 050515Z AUTO 00000KT 10SM CLR 20/15 A3024 RMK AO2
KPHP 050455Z AUTO 31007KT 10SM CLR 22/17 A2990 RMK AO2 SLP104 T02220172
KOEO 050515Z AUTO 16008KT 10SM CLR 26/20 A2991 RMK AO2 T02570195 PWINO
KSFZ 050456Z AUTO 00000KT 6SM HZ CLR 14/ A3015 RMK AO2 SLP208 T0144 402560139 $
KINJ 050515Z AUTO 12008KT 10SM OVC070 24/24 A2998 RMK AO2 T02370237
KMCN 050453Z AUTO 00000KT 10SM CLR 22/21 A3003 RMK AO2 SLP165 T02220211 403390222
K9MN 050515Z AUTO 15009KT 10SM CLR 25/20 A2994 RMK AO1 T02540198
KPTD 050515Z AUTO 00000KT 10SM FEW055 14/12 A3014 RMK AO2 PNO
KCIN 050515Z AUTO 16004KT 9SM SCT060 23/23 A2993 RMK AO2
KPHF 030054Z 22005KT 10SM FEW002 23/22 A2990 RMK AO2 SLP124 T02330222
KHIO 050453Z AUTO 34005KT 10SM CLR 16/08 A3018 RMK AO2 SLP219 T01560083
KMKT 050456Z AUTO 17007KT 10SM BKN070 26/21 A2989 RMK AO2 SLP114 T02560211 PNO $
KMQI 050525Z AUTO 08008KT 10SM CLR 24/20 A3011 RMK AO2 T02410200
KN24 050515Z AUTO 00000KT 10SM BKN095 19/02 A3036 RMK AO2 T01900015
KCHK 050515Z AUTO 16009KT 10SM 24/22 A2996 RMK AO2 T02350219
KMFD 050452Z AUTO 17003KT 9SM OVC110 23/19 A3015 RMK AO2 SLP200 T02330194 403110178
KVIH 050453Z AUTO 16005KT 10SM CLR 23/20 A3007 RMK AO2 SLP170 T02330200
KLGA 050451Z 33006KT 10SM FEW250 24/11 A3011 RMK AO2 SLP197 T02390111 402890206
KSLH 050515Z AUTO 18004KT 10SM CLR 20/18 A2996 RMK AO2
KCPT 050515Z AUTO 12006KT 10SM BKN006 OVC060 23/23 A2994 RMK AO2 BKN V SCT T02330233 $
KGPI 050455Z 28004KT 5SM -RA BR SCT055 OVC080 14/13 A3006 RMK AO2 SLP171 P0001 T01440133 $
KBLF 050452Z AUTO 10003KT 10SM CLR 21/16 A3026 RMK AO2 SLP207 T02110156 402780167
KPJC 050515Z AUTO 00000KT 3/4SM VV005 13/13 A3015 RMK AO2
KOVE 050453Z AUTO 15013KT 10SM CLR 23/08 A3002 RMK AO2 SLP166 T02330083
KI69 050516Z AUTO 00000KT 4SM CLR 23/23 A3014 RMK AO1 T02280225
KTKC 050515Z AUTO 22011KT 9SM -RA FEW044 BKN080 OVC110 24/23 A2986 RMK AO2
KFFA 050530Z AUTO 07003KT 10SM CLR 24/20 A3010 RMK AO2 T02360204
KWMC 050456Z AUTO 31007KT 10SM CLR 21/01 A3010 RMK AO2 SLP146 T02060011 TSNO $
KATL 050452Z 04006KT 10SM CLR 28/18 A3008 RMK AO2 SLP172 T02780183 403390250 $
KLQK 050515Z AUTO 06003KT 7SM CLR 21/20 A3011 RMK AO2 T02080197
KILN 050454Z AUTO 16003KT 10SM CLR 23/20 A3014 RMK AO2 SLP192 T02280200 403170189
KM25 050515Z AUTO 00000KT 9SM CLR 24/23 A3004 RMK AO2 T02370228 $
K05U 050515Z AUTO 16006KT 10SM CLR 14/M06 A3019 RMK A01
KBIS 050452Z AUTO 01006G15KT 10SM BKN042 24/14 A2988 RMK AO2 SLP106 T02390139 $
KAXV 050515Z AUTO 00000KT 10SM CLR 21/18 A3013 RMK AO2
K3T5 050515Z AUTO 15006KT 9SM OVC110 27/26 A2995 RMK AO2 T02680256 $
KOPF 050502Z AUTO 24005KT 10SM FEW019 SCT025 SCT030 27/24 A2999 RMK AO2 T02720239
KMKN 050515Z AUTO 16005KT 10SM SCT023 SCT032 OVC060 23/23 A3000 RMK AO2 T02330226
KSXT 050456Z AUTO 35006KT 10SM CLR 11/06 A3020 RMK AO2 SLP214 T01060061
KCOM 050515Z AUTO 18006KT 10SM BKN008 24/22 A2999 RMK AO2 T02350218 PWINO
KICR 050453Z AUTO 21013G21KT 10SM SCT050 23/19 A2987 RMK AO2 SLP093 T02330189
KHAF 050515Z AUTO 32007KT 8SM OVC015 13/12 A3016 RMK AO2
KLUF 050455Z AUTO 00000KT 10SM CLR 36/12 A2991 RMK AO2 SLP111 T03620124 $
KAPF 050453Z AUTO 26005KT 10SM FEW019 28/24 A2997 RMK AO2 SLP146 T02830239 403170244
KCLW 050515Z AUTO 00000KT 7SM CLR 22/21 A2996 RMK AO2
KWWD 050456Z AUTO 22003KT 10SM CLR 21/18 A3015 RMK AO2 SLP211 T02110183 402830178 $
KSAV 050453Z AUTO 02009KT 10SM CLR 24/23 A3000 RMK AO2 SLP157 T02440228 403280239
KEPH 050453Z AUTO 17012KT 10SM CLR 20/09 A2996 RMK AO2 SLP137 T02000094
KONX 050530Z AUTO 00000KT 10SM CLR 23/19 A3013 RMK AO2 T02340186
KOEB 050516Z AUTO 16003KT 6SM BR CLR 22/21 A3010 RMK AO2
KPKV 050515Z AUTO 16011KT 10SM SCT001 29/25 A2997 RMK AO2 T02870252
KCIU 050456Z AUTO 14006KT 10SM CLR 17/14 A2997 RMK AO2 SLP147 T01720139 402610078 PNO $
KBMG 050453Z AUTO 00000KT 5SM BR CLR 22/21 A3011 RMK AO2 SLP185 T02220206 403220194
KMYP 050515Z AUTO 32019KT 10SM CLR 10/00 A3075 RMK AO2
KGCY 050515Z AUTO 00000KT 10SM CLR 22/16 A3015 RMK A01
KHYI 050456Z AUTO 15005KT 10SM OVC018 26/26 A2998 RMK AO2 LTG DSNT N SLP145 T02560256
KPIR 050453Z AUTO 30005KT 10SM FEW045 22/21 A2981 RMK AO2 SLP077 T02220211
KXWA 050451Z AUTO 36010KT 10SM CLR 17/08 A3001 RMK AO2 SLP160 T01670083
KPIM 260635Z AUTO 13007G17KT 1SM RA BR 21/21 A3023 RMK AO2 PK WND 06045/55 PRESFR VIS 1/4V1 1/2
KGGF 050515Z AUTO 05005G13KT 10SM VCTS FEW090 FEW120 17/17 A3002 RMK AO2 LTG DSNT NE AND E
K2C8 050455Z AUTO 31005KT 10SM FEW040 FEW065 BKN095 22/22 A2979 RMK AO2
KNTD 050528Z AUTO 23003KT 2SM BR CLR 14/14 A3002 RMK AO2 T01440144 $
KNJW 050457Z AUTO 00000KT 10SM CLR 22/21 A3007 RMK AO2 SLP096 T02170206
KCFS 050519Z AUTO 21001KT 7SM 20/20 A3006 RMK AO2 PWINO
KI68 050515Z AUTO 00000KT 8SM CLR 25/24 A3012 RMK AO2
KLYH 050454Z AUTO 00000KT 10SM FEW070 SCT085 22/18 A3017 RMK AO2 SLP205 T02170178 403000200
K1M5 050515Z AUTO 00000KT 3SM BR BKN080 23/23 A3007 RMK A01
K8A3 050515Z AUTO 00000KT 10SM CLR 24/18 A3010 RMK A01
KFST 050453Z AUTO 16008KT 10SM CLR 27/21 A3001 RMK AO2 SLP108 T02670206 $
KMKC 050454Z 18006KT 10SM BKN100 28/21 A2997 RMK AO2 SLPNO T02830206
KRBG 050453Z AUTO 33007KT 10SM CLR 18/08 A3017 RMK AO2 SLP217 T01780083
KHLC 050453Z AUTO 19009G22KT 10SM CLR 24/22 A2989 RMK AO2 PK WND 16030/0437 RAE31 SLP094 P0001 T02440217
KCZL 050515Z AUTO 00000KT 8SM CLR 24/24 A3007 RMK AO2
KQBL 291055Z AUTO VRB02KT 6SM RA BR FEW006 SCT100 BKN120 22/21 A3011 RMK AO2 LTG DSNT SE RAB0900 SLP196 WND DATA ESTMD P0013 T02150213
KDAA 050455Z AUTO 00000KT 6SM BR CLR 18/16 A3011 RMK AO2 SLP199 T01760159 403170173 $
KDYS 050455Z AUTO 18008KT 10SM CLR 24/22 A2994 RMK AO2 SLP117 T02430223
KLBX 050453Z AUTO 16010KT 10SM CLR 28/24 A2999 RMK AO2 SLP155 T02830239
KBUF 050454Z 14004KT 8SM FEW200 SCT280 17/13 A3013 RMK AO2 SLP201 T01720133 402610128 $
KNGU 050459Z 00000KT 7SM FEW250 21/19 A3014 RMK AO2 SLP206 T02060194 403000206
KLHZ 050525Z AUTO 00000KT 5SM BR CLR 18/18 A3015 RMK AO2
KVBG 050455Z AUTO 33008KT 10SM CLR 11/09 A3009 RMK AO2 SLP193 T01090085 TSNO $
KEZM 050535Z AUTO 08005KT 10SM CLR 23/20 A3005 RMK AO2
KLSB 050515Z AUTO 28010G16KT 10SM CLR 26/06 A3016 RMK AO2
KPNC 050453Z AUTO 16008KT 10SM CLR 26/22 A2997 RMK AO2 SLP136 T02560222
KSRE 291840Z AUTO 32010G15KT 3SM HZ SCT027 BKN032 OVC043 24/17 A3007 RMK AO2
KOGS 050455Z AUTO 19003KT 10SM CLR 14/13 A3011 RMK AO2
KJCA 050515Z AUTO 06004KT 10SM CLR 23/20 A3010 RMK AO2 T02340198
KD73 050515Z AUTO 10SM CLR 23/21 A3009 RMK AO2 T02290206
KCLE 050451Z 17006KT 10SM FEW070 BKN100 26/18 A3010 RMK AO2 SLP199 T02610178 403060183
KELK 050515Z AUTO 17009KT 10SM CLR 23/23 A2998 RMK AO2 T02320232 $
KUTS 050453Z AUTO 17006KT 7SM CLR 26/26 A3000 RMK AO2 SLP153 T02610256
KGNG 050515Z AUTO 25009KT 10SM CLR 16/12 A3010 RMK AO2
KFZY 050454Z AUTO 00000KT 10SM CLR 14/12 A3014 RMK AO2 SLP206 T01390117 402280111 $
KWHP 050155Z 10007G20KT 10SM SKC 27/12 A3000
KTBX 050515Z AUTO 14019KT 10SM CLR 14/06 A3035 RMK AO2
KPUC 050453Z AUTO 04008KT 10SM BKN110 22/05 A3015 RMK AO2 SLP125 T02220050
KFYV 050453Z AUTO 16003KT 7SM OVC110 24/22 A3005 RMK AO2 SLP159 T02390217
KFSD 050456Z 20006KT 10SM -RA SCT022 BKN120 OVC140 22/22 A2987 RMK AO2 SLP104 P0015 T02220217 $
KVEL 050505Z AUTO VRB03KT 10SM FEW110 19/11 A3014 RMK AO2 LTG DSNT NE AND SE AND SW T01940106
KC08 050515Z AUTO 13009KT 10SM FEW046 14/06 A3038 RMK AO2
KPDX 050453Z COR 35005KT 10SM SCT160 BKN200 17/09 A3017 RMK AO2 SLP217 T01720089
K42A 050515Z AUTO 00000KT 8SM OVC060 22/22 A3005 RMK AO2
KLKP 050515Z AUTO 22002KT 10SM CLR 11/10 A3019 RMK AO2
KBAM 050515Z AUTO 34008KT 10SM CLR 21/M01 A3010 RMK AO1
KRST 050454Z AUTO 18009KT 10SM CLR 24/21 A2995 RMK AO2 SLP131 T02440206
KADS 050515Z AUTO 17005KT 9SM BKN016 BKN030 BKN038 25/22 A2999 RMK AO2
KBIH 040456Z AUTO 02003KT 10SM CLR 23/04 A2991 RMK AO2 SLP081 T02330039
KSMQ 050453Z AUTO 00000KT 6SM BR CLR 16/16 A3012 RMK AO2 SLP200 T01560156 402940133
K35A 050515Z AUTO 00000KT 10SM CLR 23/20 A3013 RMK A02 T02300201
KZZV 050453Z AUTO 00000KT 10SM CLR 21/20 A3014 RMK AO2 SLP199 T02110200 403110183
K81R 050515Z AUTO 00000KT 10SM OVC010 24/23 A3000 RMK AO2 PWINO T02360229
KMHT 050453Z 00000KT 10SM CLR 14/11 A3013 RMK AO2 SLP213 T01440106 402610144
KDTO 050453Z AUTO 12006KT 10SM OVC019 24/22 A2999 RMK AO2 SLP144 T02440222
KTAD 050454Z AUTO 30004KT 10SM CLR 18/12 A3016 RMK AO2 SLP125 T01780117
KAHN 050451Z AUTO 09003KT 10SM CLR 23/19 A3008 RMK AO2 SLP178 T02330194 403390233
KEYF 050530Z AUTO 04003KT 10SM CLR 22/22 A3009 RMK AO2 T02200215
KCFV 050452Z AUTO 16005KT 10SM CLR 25/21 A2999 RMK AO2 SLP148 T02500211
KVVV 050441Z 00000KT 10SM SCT085 22/22 A2981 RMK AO2
KSLI 050523Z AUTO 00000KT 4SM HZ BKN005 18/15 A3000 RMK AO2 BKN V FEW SLP162 $
KM54 050505Z AUTO 00000KT 7SM BKN070 BKN080 OVC090 25/22 A3005 RMK A01
KFSE 050515Z AUTO 17008G14KT 10SM SCT110 21/19 A2980 RMK AO2
KLOR 050455Z AUTO 00000KT 10SM CLR 24/23 A2999 RMK AO2 SLP136 T02440230
KDPG 022155Z 31007KT 30SM BKN120 35/03 A2993 RMK CB SW MOV N SLP071 T03490028 LAST
KMRF 050501Z AUTO 00000KT 10SM CLR 23/17 A3019 RMK AO2 SLP151 T02280172
KGGE 050515Z AUTO 06003KT 10SM CLR 23/22 A3004 RMK AO2
K0S9 050515Z AUTO VRB06KT 10SM OVC070 15/08 A3014 RMK AO2
KTVF 050456Z AUTO 32003KT 10SM CLR 21/20 A2981 RMK AO2 SLP090 T02060200
KSDB 050451Z AUTO 31013KT 10SM CLR 19/02 A3020 RMK AO2 SLP177 T01890017
K63S 050510Z AUTO 11007KT 10SM FEW047 FEW055 OVC070 20/06 A3001 RMK A01
KGVE 050515Z AUTO 00000KT 10SM CLR 19/18 A3015 RMK AO1 T01920182
KFWS 050515Z AUTO 13006KT 10SM FEW009 OVC070 23/23 A3003 RMK AO2 T02330226 $
KMLS 050453Z AUTO 05008KT 10SM -RA BKN110 21/14 A2996 RMK AO2 RAB04 SLP125 P0001 T02110144
KI23 050515Z AUTO 00000KT 10SM CLR 21/20 A3014 RMK AO1
KPTK 050453Z AUTO 19003KT 4SM HZ CLR 23/20 A3010 RMK AO2 SLP186 T02280200 403060156
K33N 050515Z AUTO 22004KT 10SM 19/18 A3013 RMK A01
KLCK 050455Z AUTO 00000KT 10SM CLR 24/20 A3013 RMK AO2 T02410200
KBWI 050454Z 00000KT 6SM HZ FEW007 20/16 A3014 RMK AO2 SLP204 FU FEW007 E-SE T02000161 403000172
KGVW 050515Z AUTO 14013G18KT 10SM SCT025 SCT031 SCT110 30/24 A3001 RMK A01
KPLD 050535Z AUTO 00000KT 7SM SCT100 23/17 A3013 RMK AO2 T02260168
KEKO 050456Z AUTO 00000KT 10SM CLR 21/M06 A3009 RMK AO2 SLP139 T02111056
KHPT 050515Z AUTO 18009KT 10SM SCT075 23/21 A2996 RMK AO2
KLUA 050515Z AUTO 00000KT 7SM CLR 20/18 A3017 RMK AO2
KCPC 050525Z AUTO 00000KT 7SM CLR 23/21 A3008 RMK AO2 T02260207
KLWS 050456Z 09005KT 10SM CLR 21/11 A3003 RMK AO2 SLP162 T02110106 $
KFLD 050453Z AUTO 17006KT 10SM CLR 23/21 A3001 RMK AO2 SLP155 T02330211
KDTS 050453Z AUTO 05004KT 10SM CLR 29/24 A2998 RMK AO2 SLP153 T02940244 $
KTYR 050453Z AUTO 15007KT 10SM OVC110 24/21 A3001 RMK AO2 SLP153 T02440206
KGFK 050453Z AUTO 28004KT 10SM CLR 22/19 A2978 RMK AO2 SLP080 T02170194
KIAD 050452Z 00000KT 8SM CLR 18/16 A3014 RMK AO2 SLP204 T01830156 403000178 $
KOZR 050455Z AUTO 00000KT 10SM CLR 25/22 A2993 RMK AO2 SLP133 T02470222
KSLK 050451Z AUTO 04003KT 8SM CLR 08/07 A3017 RMK AO2 SLP217 T00780067 402110050
KOBE 050515Z AUTO 00000KT 2 1/2SM BR FEW021 24/24 A2994 RMK AO2 LTG DSNT W
KCSG 050451Z AUTO 00000KT 10SM CLR 27/21 A3002 RMK AO2 SLP159 T02720211 403440239 $
KHEG 050515Z AUTO 04006KT 10SM OVC017 26/24 A2996 RMK AO2 TSNO
KFOT 050510Z AUTO 29005KT 10SM OVC021 12/12 A3021 RMK AO1
KCOU 050454Z AUTO 16006KT 10SM CLR 24/21 A3005 RMK AO2 SLP164 T02390211
KFOD 050456Z AUTO 17009KT 10SM FEW065 OVC080 27/22 A2994 RMK AO2 SLP141 T02670217 403220233 $
KMHV 050500Z AUTO 27018G24KT 10SM FEW033 BKN043 BKN050 24/02 A3007 RMK AO2
KEFD 050454Z 13007KT 8SM BKN031 28/24 A2998
KMAI 050453Z AUTO 05005KT 10SM FEW060 26/24 A2998 RMK AO2 SLP151 T02610239
KMAF 050453Z AUTO 20012KT 10SM CLR 27/23 A2999 RMK AO2 SLP105 T02720228 TSNO $
KUWL 050515Z AUTO 00000KT 10SM CLR 22/21 A3013 RMK A01
KPAM 050455Z 00000KT 10SM CLR 26/22 A2997 RMK AO2A SLP152 T02560221
KGRN 050515Z AUTO 30018G29KT 2 1/2SM +RA SCT025 BKN044 OVC060 17/15 A3009 RMK AO2 LTG DSNT NW P0004 T01720149
K2DP 262255Z AUTO 18008KT 10SM CLR 31/25 A2999 RMK AO2 SLP162 T03090254 $
KCDA 050515Z AUTO 00000KT 10SM CLR 12/10 A3018 RMK AO2 T01150103
KGRD 041556Z AUTO 06008G15KT 10SM CLR 32/19 A3010 RMK AO2 SLP185 T03170194
KQCG 191555Z VRB01KT 7SM SCT080 SCT200 06/05 A3002 RMK AO2A WND DATA ESTMD ALSTG ESTMD
KL18 050535Z AUTO 00000KT 7SM CLR 17/16 A3006 RMK AO2
KJAC 050356Z AUTO 26007KT 10SM CLR 14/07 A3020 RMK AO2 SLP187 T01390072
KCGZ 050456Z AUTO 31007KT 10SM CLR 34/16 A2997 RMK AO2 SLP131 T03390156 $
KCEW 050453Z AUTO 00000KT 9SM CLR 24/23 A3002 RMK AO2 SLP162 T02440233
KAUS 050520Z 15008KT 7SM -RA BKN020 OVC060 26/24 A2996 RMK AO2 LTG DSNT NW OCNL LTG DSNT NW P0000 T02560239
KAUG 050453Z AUTO 27004KT 10SM CLR 17/11 A3008 RMK AO2 SLP185 T01720111 402390167 PWINO
KPUW 050453Z AUTO 00000KT 10SM OVC110 16/07 A3010 RMK AO2 SLP184 T01610067
KIAG 050453Z AUTO 00000KT 7SM CLR 17/11 A3012 RMK AO2 SLP196 T01720111 402610128
KSRB 050510Z AUTO 06003KT 10SM FEW090 21/21 A3010 RMK A01
K6A1 050515Z AUTO 00000KT 10SM CLR 25/21 A3004 RMK AO2 T02470205
KPMD 050453Z 25012KT 10SM CLR 24/06 A3008 RMK AO2 SLP157 T02390061 $
K18H 050515Z AUTO 16005KT 10SM CLR 31/23 A3002 RMK A01
KNUI 050453Z AUTO 00000KT 9SM CLR 20/19 A3013 RMK AO2 SLP202 T02000189 403000194 $
KPOF 050453Z AUTO 00000KT 5SM BR CLR 24/23 A3004 RMK AO2 SLP167 T02390228
KPNA 050515Z AUTO 16004KT 10SM SCT120 11/09 A3029 RMK AO2
KINT 050454Z 00000KT 9SM CLR 23/18 A3016 RMK AO2 SLP199 T02330178 403220211
KPAH 050531Z AUTO 00000KT 2SM BR CLR 22/22 A3005 RMK AO2 T02220222 $
KQEJ 050530Z AUTO 21003KT 9999 OVC029 27/22 A2972 RMK A02 TSNO
KCTJ 050515Z AUTO 00000KT 10SM CLR 22/20 A3013 RMK AO2 T02240195
KBVX 050456Z AUTO 00000KT 10SM CLR 24/22 A3005 RMK AO2 SLP173 T02390217
KDVP 050533Z AUTO 19007KT 5SM RA SCT035 BKN048 OVC075 22/18 A2991 RMK AO2 LTG DSNT S P0008 T02170180
KGHG 050515Z AUTO 00000KT 10SM FEW055 14/13 A3012 RMK AO2
KCBK 050515Z AUTO 22010KT 10SM CLR 20/17 A3000 RMK AO2 T02000165
KTDZ 050453Z AUTO 00000KT 9SM CLR 24/21 A3011 RMK AO2 SLP190 T02440206 403280189
KMER 041455Z 32005KT 8SM SKC 20/11 A2982
KQFT 050530Z AUTO 20003KT 9999 BKN035 31/24 A2969 RMK A02 TSNO
KOJA 050515Z AUTO 17011G18KT 10SM CLR 24/21 A2999 RMK AO2 T02380210
KOWD 050453Z AUTO 00000KT 10SM CLR 15/12 A3014 RMK AO2 SLP206 T01500117 402830122
KGPT 050453Z AUTO 00000KT 10SM CLR 26/22 A3000 RMK AO2 SLP157 T02560222
KWBF 230645Z AUTO 13005KT 4SM BR BKN024 26/26 A3000 RMK A01
KLCQ 050515Z AUTO 00000KT 10SM CLR 23/23 A2997 RMK AO2
KSGF 050452Z 17007KT 6SM HZ CLR 25/21 A3004 RMK AO2 SLP157 T02500206
KTXW 050515Z AUTO 17009KT 10SM SCT011 27/24 A2997 RMK AO2 T02660244
KSRR 050515Z AUTO 25009KT 10SM CLR 19/07 A3031 RMK AO2
KIZA 050515Z AUTO 24004KT 10SM OVC060 14/11 A3007 RMK AO2
K6L4 050535Z AUTO 00000KT 10SM CLR 21/19 A3018 RMK AO2
KQBR 050455Z AUTO VRB05KT 10SM FEW160 RMK AO2 SLPNO WND DATA ESTMD
KGNV 050453Z AUTO 02006KT 10SM CLR 26/24 A2997 RMK AO2 SLP145 T02560239 403500228 TSNO $
KSZL 050455Z AUTO 18007KT 10SM FEW070 25/21 A3001 RMK AO2 SLP156 T02520206 VISNO RWY01 $
KARA 050453Z AUTO 00000KT 9SM CLR 24/23 A3002 RMK AO2 SLP163 T02440233
KCFD 050515Z AUTO 18009KT 10SM OVC110 27/23 A3000 RMK AO2 T02700228
KBJI 050515Z AUTO 13007KT 10SM SCT100 BKN120 20/20 A2980 RMK AO2 T01970197
KAIK 050515Z AUTO 06009KT 10SM CLR 23/19 A3008 RMK AO2 T02300188
KHRL 050452Z AUTO 16012KT 10SM FEW016 27/25 A2997 RMK AO2 SLP146 T02670250
K04W 050515Z AUTO 18006KT 10SM CLR 26/20 A2985 RMK AO2
KMPZ 050510Z AUTO 17006KT 10SM CLR 22/20 A3003 RMK AO2
KBEC 050515Z AUTO 16008KT 10SM CLR 24/23 A2999 RMK AO2 T02370228
KBPK 050453Z AUTO 15004KT 10SM CLR 24/21 A3005 RMK AO2 SLP166 T02390206
KAIG 050515Z AUTO 21007KT 10SM CLR 23/20 A2999 RMK AO2 T02310201
KMZJ 050515Z AUTO 29004KT 10SM SCT100 31/13 A3002 RMK AO2
KVIS 050456Z AUTO 31010KT 10SM CLR 26/12 A2999 RMK AO2 SLP153 T02560117 $
KRCA 050455Z AUTO 29004KT 10SM CLR 22/17 A2994 RMK AO2 SLP113 T02230170 PWINO $
KPAE 050453Z AUTO 01010G18KT 10SM OVC075 14/08 A3015 RMK AO2 SLP209 T01390078
K5A6 050515Z AUTO 00000KT 5SM BR CLR 22/21 A3004 RMK AO2 T02200213
KGCM 050515Z AUTO 12004KT 10SM CLR 24/24 A3000 RMK AO2
KLOU 050453Z AUTO 00000KT 6SM HZ CLR 24/21 A3009 RMK AO2 SLP183 T02390206 403390200
KP53 050456Z AUTO 21006KT 23/21 A2989 RMK AO1 SLP118 T02330206 $
KMPE 050355Z AUTO 00000KT 3SM CLR A3002 RMK AO2
KGTB 050455Z AUTO 15006KT 10SM CLR 16/11 A3012 RMK AO2 SLP198 T01570107 402430110 $
KNXP 050454Z AUTO 22013KT 10SM CLR 31/01 A3004 RMK AO2 SLP130 T03110006
KSQL 050515Z AUTO 28006KT 10SM CLR 14/09 A3015 RMK AO2
KRMN 050515Z AUTO 00000KT 2 1/2SM BR CLR 19/17 A3013 RMK AO2 T01880167 TSNO
KHEQ 050515Z AUTO 00000KT 10SM CLR 18/17 A3004 RMK AO2 LTG DSNT E
KHVE 050510Z AUTO 25008KT 10SM CLR 27/00 A3007 RMK AO2
K1OW 050455Z AUTO 02014KT 10SM CLR 18/11 A3027 RMK AO2 LTG DSNT W PRESRR SLP186 T01750106 $
KRXE 050453Z AUTO 15003KT 9SM CLR 17/09 A3010 RMK AO2 SLP162 T01720094
KDZJ 050515Z AUTO 00000KT 1SM BR OVC003 18/ A3017 RMK AO2 T0180////
KITH 050456Z AUTO 07005KT 10SM CLR 13/12 A3018 RMK AO2 SLP215 T01330117 402390106
KCPW 050515Z AUTO 21007KT 10SM CLR 08/00 A3070 RMK AO2 LTG DSNT N
KQGE 172110Z AUTO 30003KT 10SM -RA SCT027 BKN036 24/23 A3007 RMK AO2 LTG DSNT E RAB2055E2056RAB07 TSE10 SLP190
KCNI 050515Z AUTO 00000KT 10SM CLR 24/20 A3011 RMK AO2 T02360196
KEVV 050454Z 02004KT 4SM HZ CLR 23/20 A3007 RMK AO2 SLP178 T02330200 $
KTRL 050453Z AUTO 13006KT 10SM FEW029 SCT110 23/21 A3000 RMK AO2 SLP151 T02280206
KTQV 050515Z AUTO 07006KT 10SM CLR 24/19 A3013 RMK A01
KBFD 050453Z AUTO 11003KT 8SM CLR 12/12 A3020 RMK AO2 SLP217 T01220117 402440072
K5SM 050515Z AUTO 10SM CLR 09/02 A3059 RMK AO2
K42J 050515Z AUTO 05006KT 7SM FEW036 FEW042 SCT047 A2994 RMK A01
KLWD 050453Z AUTO 10SM CLR 24/21 A2999 RMK AO2 SLP144 T02440211
KJAU 162000Z AUTO VRB03KT 8SM FEW021 27/23 A3003 RMK A01
KCXU 050515Z AUTO 09001KT 10SM CLR 24/23 A2999 RMK AO2
KLRD 050456Z AUTO 15014KT 10SM CLR 29/24 A2991 RMK AO2 SLP124 T02940239 403560256
KDWA 012200Z AUTO 16008KT 10SM CLR 36/13 A2977 RMK AO2
KDXX 050515Z AUTO 18003KT 10SM -RA SCT044 24/24 A2983 RMK AO2
KAZO 050453Z AUTO 16003KT 6SM HZ SCT090 24/21 A3009 RMK AO2 SLP184 T02440211 403060172
KX21 050515Z AUTO 00000KT 2 1/2SM BR BKN002 OVC006 25/25 A2992 RMK AO2
KDCY 050515Z AUTO 00000KT 7SM CLR 22/22 A3010 RMK AO2 T02230220
KAXS 050516Z AUTO 14009KT 10SM CLR 24/22 A2996 RMK AO2
KFOM 050515Z AUTO 19009KT 10SM CLR 25/M03 A3011 RMK AO2
KRKR 050515Z AUTO 00000KT 10SM CLR 24/22 A3001 RMK AO2
KS34 050515Z AUTO 00000KT 8SM BKN003 OVC060 15/15 A3009 RMK AO2
KRSP 050454Z AUTO 14005KT 10SM CLR 21/12 A3021 RMK AO2 SLP318 T02060117 402670156 PWINO $
KHSG 050515Z AUTO 15005KT 10SM CLR 17/10 A3012 RMK AO2 T01650102
K3R7 022055Z AUTO 16003KT 10SM SCT048 30/20 A2996 RMK AO2 T03030202
K6S0 050510Z AUTO 27019KT 10SM FEW037 SCT055 OVC070 16/11 A3015 RMK A01
KHMP 050515Z AUTO 06004KT 10SM CLR 23/20 A3010 RMK AO2 T02310197
KPSF 050454Z AUTO 00000KT 10SM CLR 13/11 A3017 RMK AO2 SLP196 T01330106 402440133
KSLG 050456Z AUTO 13005KT 10SM CLR 23/22 A3005 RMK AO2 SLP164 T02280222
KDNN 050515Z AUTO 00000KT 4SM BR CLR 23/23 A3006 RMK AO2 T02350235
KCRW 050454Z 03003KT 10SM CLR 22/20 A3014 RMK AO2 SLP198 VLY FG T02170200 403220189 $
KLAM 050515Z AUTO 25008KT 10SM CLR 21/03 A3030 RMK AO2 T02120029 $
KWRB 050455Z AUTO 00000KT 6SM BR CLR 23/22 A3001 RMK AO2 SLP162 T02330217 403510231
KCCR 050453Z 19016G22KT 10SM CLR 15/11 A3008 RMK AO2 SLP172 T01500106
KLFI 050455Z AUTO 00000KT 10SM CLR 21/17 A3012 RMK AO2 SLP206 T02060174 403110201
KBDE 050453Z AUTO 00000KT 10SM FEW005 21/19 A2978 RMK AO2 SLP080 T02110194
KHHR 050525Z 26003KT 5SM BR SCT007 18/16 A3004 RMK AO2 T01780156
KMDZ 050515Z AUTO 19009KT 10SM CLR 24/20 A2997 RMK AO2 T02440195 PWINO
KBMT 050515Z AUTO 18005KT 10SM -RA SCT075 OVC120 25/21 A3001 RMK AO2 T02500208
KMMT 050455Z AUTO 07003KT 10SM CLR 23/21 A3003 RMK AO2 SLP169 T02330206 403330224 $
KOLV 050515Z AUTO 00000KT 3SM BR CLR 24/ A3003 RMK A01
KLNC 050515Z AUTO 12003KT 10SM CLR 22/21 A3000 RMK AO2 T02200208
KSZY 191035Z AUTO 26006KT 4SM BR FEW003 BKN033 OVC046 20/19 A3006 RMK A01
KCOQ 050515Z AUTO 33004KT 10SM -RA BKN041 OVC046 21/17 A2986 RMK AO2 TSNO
KESF 050453Z AUTO 00000KT 3SM BR CLR 24/24 A3001 RMK AO2 SLP159 T02390239
KDNL 050453Z AUTO 00000KT 9SM CLR 24/21 A3006 RMK AO2 SLP172 T02390211 403440228
KWJF 050456Z AUTO 22009KT 10SM CLR 23/09 A3007 RMK AO2 SLP162 T02330094
K46D 050515Z AUTO 24004KT 10SM FEW033 FEW046 SCT065 22/22 A2984 RMK A01
KMVY 050453Z AUTO 00000KT 10SM CLR 12/11 A3011 RMK AO2 SLP196 T01220106 402560111
KHWY 050515Z AUTO 00000KT 3SM BR CLR 18/16 A3015 RMK AO2 T01780163
KD25 050515Z AUTO 21009KT 10SM CLR 24/19 A2993 RMK AO2 T02410194
KGXY 050456Z 35012KT 10SM BKN110 23/11 A3011 RMK AO2 WSHFT 0356 SLP148 T02330111
KGUP 050453Z AUTO 00000KT 10SM CLR 18/M01 A3030 RMK AO2 SLP093 T01831006
KGSO 050454Z 09004KT 10SM FEW250 23/18 A3014 RMK AO2 SLP194 T02330178 403170206 $
KBTR 050453Z 00000KT 6SM BR CLR 26/25 A3001 RMK AO2 SLP160 T02610250
KJFZ 050515Z AUTO 00000KT 10SM CLR 21/16 A3024 RMK AO2 T02070155
KPSC 050453Z AUTO 20010KT 10SM FEW100 21/10 A3001 RMK AO2 SLP159 T02060100
KDPA 050452Z AUTO 18004KT 10SM CLR 25/19 A3005 RMK AO2 SLP170 T02500194
KW29 050530Z AUTO 13003KT 10SM CLR 22/21 A3014 RMK AO2 T02160208
KCXP 050515Z AUTO 34009G23KT 10SM CLR 19/M00 A3019 RMK AO2
K3W7 050515Z AUTO 15009G14KT 10SM CLR 21/09 A2999 RMK AO2
KLRO 050515Z AUTO 00000KT 10SM FEW020 SCT027 BKN043 25/23 A3002 RMK AO2
K18A 050515Z AUTO 06003KT 10SM CLR 23/20 A3010 RMK AO2 T02260198
K74V 050515Z AUTO 00000KT 10SM FEW120 19/11 A3012 RMK AO2
KNKX 050455Z AUTO 26004KT 10SM CLR 17/15 A3004 RMK AO2 SLP169 T01670150
KAQO 031715Z AUTO 15008KT 10SM SCT022 SCT028 BKN060 29/23 A3001 RMK AO2
KGCD 050515Z AUTO 00000KT 10SM SCT070 BKN080 11/10 A3016 RMK AO2 T01110097
KEHR 050456Z AUTO 00000KT 10SM FEW003 21/20 A3007 RMK AO2 SLP178 T02110200 403330194
K1V4 050454Z AUTO 13/11 A3015 RMK AO1 SLP203 T01280111 402280122
KBKV 050453Z AUTO 00000KT 9SM CLR 22/22 A2996 RMK AO2 SLP143 T02220222 403170217 $
KXNA 050453Z AUTO 15004KT 10SM BKN110 24/20 A3005 RMK AO2 SLP158 T02440200
KBBP 050515Z AUTO 00000KT 7SM CLR 22/22 A3008 RMK AO2
KBWG 050508Z AUTO 00000KT 4SM HZ CLR 24/21 A3008 RMK AO2 T02390206
KL08 050515Z AUTO 33015G22KT 10SM SCT070 33/04 A2990 RMK AO2
KSFM 050456Z AUTO 30004KT 10SM CLR 14/11 A3013 RMK AO2 SLP204 T01440106 402500106
KHON 050455Z AUTO 17007KT 10SM SCT090 SCT110 23/22 A2981 RMK AO2 RAE14B33E51 SLP083 P0000 T02280217
KDAW 050451Z AUTO 00000KT 10SM CLR 14/11 A3012 RMK AO2 SLP197 T01440106 402390133 $
KDEQ 050453Z AUTO 00000KT 10SM CLR 23/23 A3000 RMK AO2 SLP152 T02330228
KJVY 050515Z AUTO 01004KT 1 1/4SM BR OVC003 23/23 A3008 RMK AO2
KCSQ 050515Z AUTO 16007KT 10SM CLR 24/22 A2998 RMK AO2
KEKQ 050456Z AUTO 00000KT 4SM HZ CLR 20/ A3014 RMK AO2 SLP191 T0200
KPWA 050453Z AUTO 17008G18KT 10SM FEW014 24/22 A2998 RMK AO2 SLP137 T02440222
KAFW 050453Z 14007KT 10SM BKN015 BKN046 BKN055 24/22 A2998 RMK AO2 RAE01 SLP137 P0000 T02440217
KSBX 050515Z AUTO 07011KT 10SM BKN070 OVC080 17/14 A3008 RMK AO2
KT78 050515Z AUTO 15003KT 6SM BR CLR 26/26 A2999 RMK AO2
KCHS 050456Z 02008KT 10SM FEW020 FEW250 24/22 A3003 RMK AO2 SLP168 T02390222 403220239
KELY 050453Z AUTO 18012KT CLR 19/M08 A3016 RMK AO2 SLP105 T01891078 $
KW78 050515Z AUTO 04003KT 10SM OVC065 21/18 A3014 RMK AO1 T02120180
KMBO 042015Z AUTO 00000KT 10SM CLR 33/19 A3004 RMK AO2
K1LN 050455Z AUTO 33007KT 10SM CLR 15/10 A2997 RMK AO2 SLP147 T01470097 $
KMFR 050453Z AUTO 32007KT 10SM CLR 19/07 A3012 RMK AO2 RAE01 SLP192 P0000 T01890072
KRAC 050453Z AUTO 00000KT 2 1/2SM HZ CLR 24/21 A3006 RMK AO2 SLP172 T02440206
KAJR 050515Z AUTO 05005KT 10SM SCT060 23/19 A3012 RMK AO2 T02300186
KRDK 050515Z AUTO 17005KT 10SM CLR 25/23 A2994 RMK AO2
KNQX 050453Z AUTO 23011KT 10SM FEW022 29/26 A3000 RMK AO2 TSE01 SLP156 T02940256 403170256
KD09 050455Z AUTO 36015G23KT 10SM BKN065 OVC075 21/08 A2989 RMK AO2
KGKT 050515Z AUTO 00000KT 10SM CLR 22/21 A3011 RMK A01
KFAR 050526Z 17006KT 8SM BKN013 22/21 A2979 RMK AO2 T02220211
KJKL 050453Z AUTO 00000KT 10SM CLR 23/18 A3015 RMK AO2 SLP193 T02330178 403060194
KHMT 050515Z AUTO 24009KT 10SM CLR 20/09 A3007 RMK AO2 PWINO
KBIJ 050515Z AUTO 00000KT 10SM CLR 23/21 A3000 RMK AO2
K5R8 050515Z AUTO 00000KT 3SM BR CLR 24/24 A3001 RMK AO2 T02400235
KOMH 050515Z AUTO 00000KT 10SM CLR 18/18 A3014 RMK AO2
KEZZ 050515Z AUTO 17006KT 10SM SCT110 25/21 A3000 RMK AO2 T02470214
KADH 050515Z AUTO 14005KT 10SM FEW019 FEW040 23/23 A3001 RMK AO2
KRKS 050454Z AUTO 00000KT 10SM CLR 13/09 A3029 RMK AO2 SLP183 T01280094
KQEI 050530Z AUTO 26003KT 9999 OVC033 28/23 A2973 RMK A02 TSNO
KGAF 050535Z AUTO 25004KT 10SM FEW025 SCT035 21/21 A2981 RMK AO2
KMCF 050512Z AUTO 35007KT 10SM FEW010 SCT170 24/22 A2995 RMK AO2 SLP145 $
KSAA 050515Z AUTO 18011KT 10SM OVC100 13/12 A3034 RMK AO2
KLRY 050515Z AUTO 19005KT 10SM BKN110 26/21 A3003 RMK AO2
KMWT 050453Z AUTO 00000KT 10SM CLR 24/22 A3002 RMK AO2 SLP151 T02440222 $
KTXK 050453Z AUTO 17007KT 10SM CLR 28/23 A3002 RMK AO2 SLP158 T02780233 $
KTOP 050453Z AUTO 17007KT 10SM OVC100 28/21 A2996 RMK AO2 SLP134 T02780206
KTOC 050515Z AUTO 00000KT 10SM SCT060 SCT070 23/20 A3011 RMK AO2 T02320197
KFOA 050515Z AUTO 00000KT 10SM CLR 24/21 A3008 RMK AO2
KBKS 050515Z AUTO 15010KT 10SM CLR 27/25 A2994 RMK AO2 T02680248 $
KCWC 050515Z AUTO 14015G19KT 120V180 10SM BKN015 24/22 A2997 RMK AO2 T02430215
KPRN 050500Z AUTO 01003KT 10SM CLR 23/21 A3002 RMK AO2 SLP112 T02330211 402330233
KTSP 050515Z AUTO 29008KT 10SM OVC042 18/03 A3018 RMK AO2
K6P9 050515Z AUTO 18007KT 10SM OVC010 23/22 A3000 RMK AO2 T02290216
KPOV 050515Z AUTO 00000KT 7SM SCT060 20/18 A3015 RMK AO2 T02030175 PWINO
KZPH 050515Z AUTO 29005KT 7SM CLR 22/22 A2998 RMK A02 T02220221
K1S5 151955Z AUTO 23003KT 10SM CLR 19/02 A3001 RMK AO2 T01860019
KANQ 050535Z AUTO 00000KT 1 3/4SM BR CLR 21/21 A3012 RMK AO2
KTEX 050515Z AUTO 12005KT 10SM CLR 12/03 A3049 RMK AO2
KBKF 050458Z 18007KT 10SM FEW090 FEW140 20/09 A3012 RMK AO2A SLP115 T02020091
KHFJ 050515Z AUTO 14004KT 10SM SCT080 23/21 A3005 RMK AO2
KTYQ 050515Z AUTO 00000KT 10SM CLR 21/19 A3013 RMK AO2 T02070192
KOVL 050515Z AUTO 31004KT 10SM -RA SCT011 SCT031 BKN038 23/21 A2985 RMK AO2 LTG DSNT W P0002
K28J 050515Z AUTO VRB03KT 8SM FEW015 SCT044 BKN050 25/24 A2994 RMK AO2
KC99 050520Z AUTO 28009G17KT 10SM CLR 11/02 A3058 RMK AO2
KJZP 050515Z AUTO 10SM CLR 26/17 A3013 RMK AO2 T02570172
KFKN 050515Z AUTO 00000KT 10SM CLR 18/16 A3014 RMK AO2 T01810160
KSRC 050505Z AUTO 00000KT 4SM BR CLR 23/23 A3004 RMK AO2
KCVN 050456Z AUTO 13007KT 8SM CLR 20/18 A3004 RMK AO2 SLP129 T02000178 $
KAQW 050452Z AUTO 00000KT 10SM CLR 12/11 A3017 RMK AO2 SLP218 T01220111 402440111
KBED 050351Z AUTO 00000KT 10SM CLR 15/12 A3012 RMK AO2 SLP207 T01500122 PWINO $
KIYA 050515Z AUTO 00000KT 10SM CLR 25/24 A3000 RMK AO2 T02450239 $
KI95 050515Z AUTO 20004KT 6SM HZ 24/20 RMK A01
KASN 050515Z AUTO 03001KT 10SM SCT070 24/24 A3004 RMK AO2
KELD 050453Z AUTO 00000KT 7SM CLR 24/24 A3003 RMK AO2 SLP164 T02440239
KMIV 050454Z AUTO 00000KT 10SM CLR 16/15 A3014 RMK AO2 SLP204 T01610150 402940150
KHBV 050515Z AUTO 16010KT 10SM CLR 27/25 A2994 RMK AO2 T02660254
KCVO 050456Z AUTO 32011KT 10SM CLR 15/08 A3018 RMK AO2 SLP224 T01500078
KNFW 050504Z AUTO 13006KT 5SM HZ FEW012 BKN070 OVC100 24/22 A2998 RMK AO2 T02440217 $
KSFF 050453Z AUTO 20008KT 10SM OVC110 22/06 A3005 RMK AO2 SLP161 T02170056
K1D1 050515Z AUTO 15009KT 10SM BKN055 BKN065 OVC085 22/22 A2981 RMK AO2
KGLX 050510Z AUTO 10SM CLR A3001 RMK A01
KGNR 050456Z AUTO 00000KT 14/11 A3004 RMK AO1 SLP173 T01440111 401780122
KSUU 050455Z AUTO 23023G27KT 10SM CLR 16/09 A3001 RMK AO2 PK WND 22027/50 SLP168 T01570091 $
K48A 050515Z AUTO 06006KT 10SM CLR 24/20 A3004 RMK AO2 T02410199
KAEX 050453Z 00000KT 5SM BR CLR 26/24 A3001 RMK AO2 SLP165 T02560244
KMPV 050451Z AUTO 00000KT 10SM CLR 11/08 A3020 RMK AO2 SLP229 T01060083 402110106
KAPC 050454Z AUTO 23010KT 10SM CLR 14/10 A3008 RMK AO2 RAE0356 SLP178 P0000 T01390100
KAQP 050456Z 00000KT 10SM SCT010 SCT017 SCT915 23/21 A2982 RMK AO2
KU68 050515Z AUTO 04006KT 10SM CLR 16/11 A3008 RMK AO2
KMVE 050515Z AUTO 19004KT 10SM -RA SCT016 SCT034 22/21 A2984 RMK AO2 LTG DSNT NE AND E
K4M3 050515Z AUTO 00000KT 10SM FEW028 FEW034 SCT042 26/23 A3000 RMK A01
KHLN 050453Z AUTO 24005KT 10SM CLR 13/12 A3008 RMK AO2 SLP178 T01330117
KBGE 050515Z AUTO 00000KT 10SM CLR 26/24 A2999 RMK AO2 T02590236
KMRT 050515Z AUTO 00000KT 10SM CLR 21/19 A3015 RMK AO2 T02140190
KPHN 050515Z AUTO 00000KT 10SM CLR 19/17 A3010 RMK AO2
KRFD 050454Z 00000KT 9SM CLR 23/20 A3007 RMK AO2 SLP177 T02280200 $
KMLU 050453Z AUTO 00000KT 6SM BR CLR 26/24 A3003 RMK AO2 SLP166 T02560239
KITR 050453Z AUTO 16008KT 10SM CLR 19/16 A3003 RMK AO2 SLP119 T01890161 $
KCDJ 050451Z AUTO 16003KT 24/22 A3000 RMK AO1 SLP144 T02440217
KBCB 050515Z AUTO 00000KT 10SM CLR 21/19 A3025 RMK AO2 T02050185 PWINO
KSNY 050453Z AUTO 10SM CLR 16/14 A3008 RMK AO2 PRESRR SLP146 T01610139
KADG 050453Z AUTO 00000KT 10SM CLR 22/20 A3011 RMK AO2 SLP192 T02220200 403280178
KSUA 050515Z AUTO 22007KT 10SM CLR 26/24 A2994 RMK AO2 LTG DSNT NE AND E AND W
KPCM 050515Z AUTO 32005KT 7SM -RA SCT120 23/22 A2998 RMK AO2
K2J9 050515Z AUTO 00000KT 8SM SCT060 26/26 A3001 RMK AO2
KCVC 050515Z AUTO 07006KT 10SM CLR 25/20 A3006 RMK AO2
KOLU 050528Z AUTO 15006KT 4SM BR FEW031 OVC065 24/23 A2992 RMK AO2
KGTR 050456Z AUTO 13006KT 10SM CLR 26/22 A3005 RMK AO2 SLP174 T02560217
KAKQ 050454Z AUTO 00000KT 4SM BR CLR 18/18 A3014 RMK AO2 SLP205 T01830178 403110178
KJMR 050515Z AUTO 18007KT 10SM 26/20 A2988 RMK AO2
KVYS 050515Z AUTO 20004KT 10SM CLR 23/20 A3006 RMK AO2 T02310203
KPBI 050453Z 23004KT 10SM SCT200 SCT250 24/23 A2998 RMK AO2 SLP152 T02390228 403280239 $
KCOT 050453Z AUTO 12007KT 10SM CLR 29/24 A2992 RMK AO2 SLP123 T02890244
KTME 191815Z AUTO 20008KT 6SM HZ CLR 34/26 A3010 RMK AO2
KRID 050455Z AUTO 00000KT 10SM CLR 21/19 A3015 RMK AO2
KVAF 050510Z 13014KT 7SM BKN021 BKN027 28/25 A3002 RMK A01 WINDS UN-RELIABLE 350 TO 45 DEGREES
KPVJ 050515Z AUTO 15004KT 10SM CLR 23/23 A3003 RMK AO2 T02270225
K4F2 050515Z AUTO 00000KT 10SM CLR 23/21 A3001 RMK AO2 T02280214
KJPX 050515Z AUTO 00000KT 10SM CLR 15/13 A3013 RMK AO2 T01450130
KNID 050456Z AUTO A2997 RMK AO2 SLPNO PWINO $
KCWV 050515Z AUTO 08005KT 10SM CLR 24/24 A3001 RMK AO2
KM19 050456Z AUTO 00000KT 10SM CLR 24/22 A3004 RMK AO2 SLP183 T02390222 $
KLXN 050515Z AUTO 36003KT 3SM BR SCT034 SCT040 20/20 A2997 RMK AO2 LTG DSNT W T02030195
KDUC 050515Z AUTO 15008KT 10SM SCT014 23/22 A2999 RMK AO2
K2IS 050515Z AUTO 19006KT 7SM HZ OVC120 24/ A2998 RMK AO2 LTG DSNT NW T0241////
KSGH 050456Z AUTO 10003KT 10SM CLR 22/20 A3015 RMK AO2 SLP201 T02170200
KPOE 050455Z AUTO 00000KT 10SM CLR 25/24 A3001 RMK AO2 SLP161 T02510240
KGKJ 050453Z AUTO 19004KT 10SM CLR 21/15 A3015 RMK AO2 SLP201 T02110150 402780133 $
KFHB 050515Z AUTO 03007KT 10SM CLR 26/23 A2994 RMK AO2
KMYV 050453Z AUTO 15012KT 10SM CLR 20/08 A3001 RMK AO2 SLP167 T02000078
KAKH 050454Z AUTO 00000KT 6SM HZ CLR 22/19 A3012 RMK AO2 SLP189 T02220189 403330217
KONT 050453Z 23007KT 7SM CLR 23/16 A3003 RMK AO2 SLP156 FU ALF T02280156 $
KMYJ 050515Z AUTO 16003KT 10SM CLR 22/21 A3005 RMK AO2
KDWX 201655Z AUTO 17020G33KT CLR 30/M07 A2992 RMK AO2 T02971075 PWINO
KMOT 050454Z AUTO 33009KT 10SM SCT050 19/10 A2993 RMK AO2 SLP125 T01940100
KLHQ 050453Z AUTO 00000KT 6SM BR CLR 22/21 A3014 RMK AO2 SLP198 T02170206 403220189
KAAO 050454Z AUTO 17009KT 9SM CLR 24/22 A2998 RMK AO2 SLP137 T02440217
KCPF 050535Z AUTO 00000KT 7SM CLR 20/18 A3016 RMK AO2
KHMZ 050515Z AUTO 00000KT 7SM CLR 16/15 A3019 RMK AO2 T01560146
KJWG 050515Z AUTO 16008KT 10SM CLR 24/22 A3001 RMK AO2 T02410224
KFKR 050515Z AUTO 00000KT 10SM FEW050 FEW055 20/20 A3011 RMK AO2
KJXN 050456Z AUTO 00000KT 6SM CLR 21/19 A3011 RMK AO2 SLP191 T02060189 403060156
KMAE 050453Z AUTO 31009KT 10SM CLR 23/06 A3002 RMK AO2 SLP164 T02330061
KBXM 050515Z AUTO 25006KT 10SM CLR 16/11 A3011 RMK AO2
KPSO 050515Z AUTO VRB02KT 10SM CLR 14/02 A3037 RMK AO2
KEDJ 050527Z 10SM CLR 22/21 A3016 RMK AO1
KGYY 050515Z AUTO VRB03KT 3SM HZ OVC002 25/23 A3006 RMK AO2
KTUS 050453Z 32004KT 10SM BKN100 33/14 A3006 RMK AO2 SLP124 T03330139
KLJF 050515Z AUTO 25003KT 10SM BKN046 26/19 A2985 RMK AO2
KVER 050515Z AUTO 14004KT 10SM CLR A3003 RMK AO2
KSTF 050515Z AUTO 00000KT 6SM BR CLR 23/23 A3002 RMK AO2
K5C1 050515Z AUTO 15003KT 4SM OVC007 A3000 RMK AO1
KBVU 050535Z AUTO 19010KT 10SM CLR 31/05 A2993 RMK AO2
KO69 050510Z AUTO 00000KT 10SM OVC020 11/10 A3010 RMK A01
KNYL 050457Z AUTO 19009KT 10SM CLR 31/21 A2989 RMK AO2 SLP118 T03110211
KFNL 050456Z 03011KT 10SM CLR 23/08 A3013 RMK AO2 SLP128 T02280083
KAST 050455Z AUTO 26003KT 10SM SCT021 13/11 A3022 RMK AO2 SLP232 T01280106
KPMP 050453Z AUTO 22005KT 10SM CLR 27/25 A2998 RMK AO2 SLP154 T02720250 403110261
KIRK 050455Z AUTO 16006KT 10SM CLR 23/21 A3003 RMK AO2 SLP164 T02280211
KMLP 050453Z AUTO 00000KT 9SM -RA OVC043 08/08 A3018 RMK AO2 RAE08B36 SLP145 P0001 T00830078
KWRI 050455Z 00000KT 10SM CLR 18/16 A3012 RMK AO2A SLP198 T01800158 402860178 $
KHDC 050515Z AUTO 00000KT 5SM BR CLR 24/24 A3001 RMK AO2 T02430240
KDEH 050515Z AUTO 18006G11KT 10SM FEW044 FEW055 24/22 A2997 RMK AO2
K13K 050515Z AUTO 16009KT 10SM CLR 24/22 A3001 RMK AO2 T02450216
KLGC 020035Z AUTO 27014G26KT 4SM +RA 21/19 A3001 RMK AO2 P0020 T02130194
KDNA 050515Z AUTO 24008KT 10SM CLR 28/10 A3011 RMK AO2
KOWB 050456Z AUTO 00000KT 7SM CLR 26/22 A3007 RMK AO2 SLP180 T02560217
KMQS 050515Z AUTO 00000KT 10SM CLR 18/18 A3017 RMK AO2
KELZ 050456Z AUTO 00000KT 10SM CLR 15/09 A3021 RMK AO2 SLP223 T01500094 402440094 $
KW96 041655Z AUTO 32004KT 10SM CLR 29/14 A3011 RMK AO1 T02890141
KSMX 050451Z AUTO 29010KT 9SM CLR 13/10 A3008 RMK AO2 SLP188 T01330100 $
KQFW 050520Z AUTO 18002KT 9999 OVC041 29/23 A2957 RMK A02 TSNO
KFRR 050455Z AUTO 00000KT 4SM CLR 18/18 A3015 RMK AO1
KISW 050454Z AUTO 19006KT 10SM CLR 25/21 A2999 RMK AO2 SLP149 T02500206
KCDN 050515Z AUTO 05003KT 10SM CLR 24/22 A3008 RMK AO2
KROC 050454Z 20003KT 10SM FEW250 17/12 A3014 RMK AO2 SLP206 T01720122 402560122
KHDO 050531Z AUTO 10006KT 8SM OVC014 26/24 A2995 RMK AO2 T02560244
KJAS 050515Z AUTO 00000KT 3SM BR FEW016 FEW024 SCT110 24/24 A3001 RMK AO2
KHRO 050453Z AUTO 15003KT 9SM CLR 24/21 A3007 RMK AO2 SLP166 T02390206
KVJI 050515Z AUTO 34002KT 9SM CLR 20/17 A3020 RMK AO2
KF70 050515Z AUTO 00000KT 10SM 19/11 A3007 RMK AO2
K0R4 050515Z AUTO 00000KT CLR 24/21 A3005 RMK AO2 T02430209 PWINO
KDLH 050455Z 28009KT 6SM -RA BKN050 OVC060 21/19 A2987 RMK AO2 WSHFT 0409 RAB40 SLP109 P0003 T02060189 $
KRWV 152135Z AUTO 22/21 RMK AO2 P0001 PWINO TSNO
KJKA 050515Z AUTO 33003KT 10SM BKN050 BKN055 A2999 RMK AO2
KHBG 050453Z AUTO 00000KT 5SM BR CLR 24/22 A3003 RMK AO2 SLP165 T02440222
KONZ 050455Z AUTO 19005KT 10SM BKN100 OVC120 23/22 A3008 RMK AO2
KAZC 050515Z AUTO 00000KT 10SM CLR 21/00 A3020 RMK AO2
KPMH 050522Z 01003KT 4SM BR CLR 22/21 A3013 RMK AO2
KMKJ 050515Z AUTO 00000KT 10SM CLR 17/15 A3027 RMK AO2 T01670152
KROW 050451Z AUTO 25011KT 10SM CLR 26/17 A2999 RMK AO2 SLP084 T02560172 $
KDMH 050453Z AUTO 25/14 A3014 RMK AO1 SLP207 T02500144 403330233
KVWU 050515Z AUTO 26004KT 10SM SCT012 22/21 A2982 RMK AO2
KMSN 050453Z AUTO 18007KT 10SM CLR 26/21 A3002 RMK AO2 SLP157 T02610211
KBCE 050453Z AUTO 00000KT 10SM CLR 11/M02 A3036 RMK AO2 SLP169 T01111022
KBPG 050515Z AUTO 19012KT 10SM CLR 26/23 A2998 RMK AO2 T02580231
K54A 050515Z AUTO 00000KT 10SM FEW019 FEW029 27/25 A2992 RMK AO2
KDUJ 050453Z AUTO 11004KT 10SM CLR 17/14 A3019 RMK AO2 SLP211 T01670144 402610106 $
KEUG 050454Z 27006KT 10SM FEW200 16/08 A3017 RMK AO2 SLP217 T01560078
KMMU 050515Z AUTO 00000KT 5SM BR CLR 15/14 A3014 RMK AO2
KCHD 050515Z AUTO 25003KT 9SM SCT310 35/14 A2995 RMK AO2 T03490136
KPZZ 050515Z AUTO 20003KT 10SM FEW031 SCT039 SCT120 30/24 A3003 RMK A01
KIKK 050515Z AUTO 00000KT 10SM CLR 23/20 A3009 RMK AO2 T02260195
KRVS 050453Z 19005KT 9SM SCT033 BKN041 26/23 A2999 RMK AO2 SLP158 T02610228
KMUI 050527Z AUTO 00000KT 2 1/4SM BR CLR 16/15 A3013 RMK AO2 VIS 2 1/4V6 SLP203
KOCH 050456Z AUTO 12003KT OVC110 23/22 A3002 RMK AO2 SLP167 T02330222 403000228 PWINO RVRNO $
KEQA 050515Z AUTO 17011KT 10SM CLR 25/25 A2999 RMK AO2
K9S9 050510Z AUTO 20004KT 10SM FEW033 SCT040 BKN120 17/05 A3012 RMK AO2
KCPP 050515Z AUTO 05003KT 10SM CLR 24/21 A3004 RMK AO2
KUKF 050530Z AUTO 00000KT 7SM CLR 18/17 A3022 RMK AO2
K1YT 050455Z AUTO 33008KT 10SM OVC160 21/07 A2998 RMK AO2 SLP149 T02070073 TSNO $
K1A5 262050Z AUTO 32021KT A3018 RMK AO2 P0007 6//// PWINO
KJYG 050515Z AUTO 18009KT 10SM BKN075 26/23 A2986 RMK AO2
K1F0 050515Z AUTO 14005KT 10SM CLR 23/22 A2999 RMK AO2 T02320218
KCBE 050525Z AUTO 01007KT 10SM CLR 20/17 A3021 RMK AO2 T01980166
KO32 050515Z AUTO 32004KT 10SM CLR 25/04 A2997 RMK AO2 T02450036 $
KECP 050453Z AUTO 15004KT 10SM CLR 26/25 A2998 RMK AO2 SLP161 T02560250
KAKO 050453Z AUTO 18004KT 10SM CLR 19/14 A3006 RMK AO2 SLP126 T01890144
KCOD 050456Z AUTO 00000KT 10SM CLR 16/11 A3013 RMK AO2 SLP153 T01610111
KBMI 050456Z AUTO 16005KT 10SM CLR 23/21 A3010 RMK AO2 SLP183 T02330206
KJAN 050454Z AUTO 00000KT 10SM CLR 24/22 A3004 RMK AO2 SLP167 T02390222
KOKK 050456Z AUTO 00000KT 10SM CLR 23/22 RMK AO2 SLPNO T02280217 403220183 $
K2I0 050515Z AUTO 00000KT 10SM CLR 23/21 A3007 RMK AO2 T02250211
KAUO 050456Z AUTO 05004KT 10SM CLR 26/22 A3006 RMK AO2 SLP164 T02610217 403330233 $
KAND 050456Z AUTO 00000KT 10SM CLR 25/18 A3009 RMK AO2 SLP178 T02500183 403440228
KF44 251930Z AUTO 20004KT 10SM SCT035 SCT046 30/22 A3008 RMK AO2 LTG DSNT E THRU S
KBAD 050455Z AUTO 08004KT 10SM CLR 24/22 A3001 RMK AO2 SLP165 T02400220 $
KHOB 050515Z AUTO 20007KT 10SM CLR 23/19 A3002 RMK AO2
KOWX 050515Z AUTO 18001KT 10SM CLR 22/22 A3013 RMK AO2
KGPM 050515Z AUTO 13005KT 5SM BR OVC010 24/24 A3000 RMK AO2 T02400240
KPDK 050453Z 00000KT 6SM HZ CLR 26/19 A3008 RMK AO2 SLP165 T02560189 403330217
KEAR 050456Z AUTO 18005KT 10SM BKN045 BKN055 OVC090 23/22 A2995 RMK AO2 SLP121 T02280217
KMRY 050454Z AUTO VRB04KT 10SM CLR 14/08 A3016 RMK AO2 SLP224 T01390083
K4B8 050515Z AUTO 00000KT 9SM CLR 16/14 A3014 RMK AO2 T01600143
KOZW 050515Z AUTO 18003KT 7SM CLR 22/20 A3010 RMK AO2 T02150199
KOSC 050515Z AUTO 25004KT 10SM CLR 20/18 A3002 RMK AO2
KNRS 050453Z AUTO 20003KT 10SM CLR 17/16 A3005 RMK AO2 SLP175 T01670156 $
KIMM 282255Z AUTO 01015KT 10SM TS 29/24 A3011 RMK AO2
KSAZ 050515Z AUTO 00000KT 10SM DZ SCT060 SCT075 SCT100 22/21 A2985 RMK AO2 P0001
KRBW 050515Z AUTO 03005KT 10SM CLR 23/22 A3005 RMK AO2
KMLE 050515Z AUTO 16006KT 10SM CLR 27/21 A2992 RMK AO2 T02680211
KAUH 050515Z AUTO 19006KT 10SM SCT075 SCT110 24/23 A2993 RMK AO2 T02410225
KRDD 050453Z AUTO 20004KT 10SM CLR 27/07 A2998 RMK AO2 SLP147 T02720072 $
KPRG 181815Z AUTO 18012KT 5SM TSRA SCT026 BKN046 OVC070 26/23 A2977 RMK AO2 LTG DSNT ALQS P0001 T02600233
KFRG 050527Z AUTO 00000KT 2SM HZ CLR 19/16 A3013 RMK AO2 T01890161
K6I2 050515Z AUTO 00000KT 10SM CLR 23/19 A3012 RMK AO2
KTMK 050515Z AUTO 00000KT 10SM CLR 13/11 A3023 RMK AO2
K8D4 050515Z AUTO 23002KT 7SM CLR 22/19 A3006 RMK AO2
K11R 041115Z AUTO OVC003 RMK AO2 PWINO PNO TSNO
KVBT 050456Z AUTO 15005KT 9SM OVC110 24/22 A3007 RMK AO2 SLP169 T02440217
KPVW 050510Z AUTO 15010KT 10SM OVC011 23/21 A3002 RMK AO2 T02250210
KYKN 050456Z AUTO 19004KT 10SM BKN065 BKN120 23/21 A2988 RMK AO2 SLP119 T02280211
KGXF 050455Z AUTO 23009KT 10SM CLR 35/17 A2993 RMK AO2 SLP119 T03500168 FZRANO $
KW22 050515Z AUTO 00000KT 10SM CLR 19/17 A3020 RMK AO2
KJYO 050535Z AUTO 00000KT 7SM CLR 20/18 A3016 RMK AO2
KD60 050515Z AUTO 03004KT 7SM CLR 16/07 A3001 RMK AO2
KAVK 050515Z AUTO 16009KT 10SM CLR A2996 RMK A01
KSUT 050525Z AUTO 36003KT 10SM FEW014 FEW021 24/23 A3004 RMK AO2
KSVE 050515Z AUTO 24004KT 10SM CLR 15/01 A3020 RMK A01 P000
KLBF 042300Z AUTO 11008KT 10SM FEW011 FEW017 SCT042 23/21 A2991 RMK AO2 RAE2257 P0000 T02280206
KTQK 050515Z AUTO 21006KT 10SM CLR 19/17 A2999 RMK AO2 P0805 T01920173
KARB 050523Z AUTO 24003KT 1/4SM FG CLR 18/18 A3010 RMK AO2 T01830183
KBPC 050515Z AUTO 16011G18KT 10SM CLR 23/19 A3000 RMK AO2 PNO
KMNZ 050515Z AUTO 16010KT 6SM BR SCT022 BKN038 OVC060 23/23 A2999 RMK AO2
KTOL 050452Z 00000KT 10SM CLR 23/20 A3010 RMK AO2 SLP187 T02280200 403330183
KSJS 050515Z AUTO 09003KT 10SM CLR 21/21 A3016 RMK AO2 T02110207
KIUA 050515Z AUTO 14003KT 10SM CLR 15/11 A3015 RMK AO2 T01500111
KT20 050515Z AUTO 15008KT 10SM BKN021 27/24 A2997 RMK AO2 T02710242
KRPD 050515Z AUTO 17007KT 10SM SCT100 25/19 A2992 RMK AO2 T02500190
KCKN 050515Z AUTO 00000KT 10SM CLR 21/19 A2980 RMK AO2
KPWD 050510Z AUTO 02009KT 10SM CLR 14/07 A3003 RMK AO2
KFWN 050453Z AUTO 00000KT 3SM BR CLR 14/14 A3016 RMK AO2 SLP212 T01440139 402780133 PNO $
KPBF 050453Z AUTO 27003KT 10SM CLR 26/23 A3003 RMK AO2 SLP166 T02610228
KQOA 031715Z VRB06KT 9999 SCT060 BKN150 29/19 A3056 RMK AO2A SLP133 WND DATA/ALSTG DATA ESTMD T02890172 10240 20200 57012 LAST $
KHKS 050526Z AUTO 00000KT 4SM CLR 25/23 A3004 RMK AO2 T02500228 $
KMDD 050515Z AUTO 19012G16KT 10SM CLR 26/22 A3000 RMK AO2 T02650221
KDKR 050515Z AUTO 00000KT 9SM BKN130 BKN150 24/24 A3000 RMK AO2
KTOR 041753Z AUTO 10SM CLR 28/11 A2996 RMK AO2 SLP088 60000 T02780111 10283 20189 50000 $
KRIW 050521Z AUTO 28016G22KT 10SM SCT110 16/11 A3021 RMK AO2 WSHFT 0501 RAE05 P0000 T01610106
KASD 050453Z AUTO 00000KT 5SM BR CLR 24/22 A3001 RMK AO2 SLP161 T02440222
K1NN 050455Z AUTO 34007KT 10SM CLR 15/10 A2995 RMK AO2 SLP143 T01540097 $
KSPD 050456Z AUTO 02005KT 22/16 A3004 RMK AO1 SLP098 T02170161
KCNY 050453Z AUTO 21009KT 10SM CLR 28/03 A3003 RMK AO2 SLP102 T02780028
KDMN 050453Z AUTO 26007KT 10SM CLR 28/09 A3012 RMK AO2 SLP114 T02780094
KDAB 050453Z 28004KT 10SM FEW016 BKN022 25/23 A2993 RMK AO2 SLP134 T02500233 403060233 $
KUGN 050451Z AUTO 00000KT 1 1/2SM BR CLR 23/21 A3004 RMK AO2 SLP160 T02280206
KRYN 050245Z 28008KT 10SM CLR 35/11 A2999
K2W6 050530Z AUTO 00000KT 7SM CLR 17/17 A3016 RMK AO1
KMWK 050525Z AUTO 00000KT 10SM SCT085 20/18 A3019 RMK AO2 T02020181
KVQQ 050515Z AUTO 03003KT 10SM SCT018 BKN023 25/24 A2994 RMK AO2
KPRS 050515Z AUTO 04003KT 10SM CLR 29/19 A3003 RMK AO2 T02920191
KMSP 050453Z 18008KT 10SM SCT120 SCT250 28/20 A2987 RMK AO2 SLP108 T02830200 $
KPIA 050454Z 00000KT 9SM CLR 25/21 A3006 RMK AO2 SLP173 T02500211
KSEF 050515Z AUTO 26010KT 10SM VCTS SCT100 BKN120 25/24 A2995 RMK AO2 T02460236
KIIB 050515Z AUTO 14008KT 10SM CLR 22/21 A3002 RMK AO2 T02190206
KCRX 050515Z AUTO 00000KT 6SM BR CLR 23/23 A3005 RMK AO2
KLTS 050455Z AUTO 14010KT 10SM CLR 25/22 A2993 RMK AO2 SLP118 T02450216 TSNO $
KCKI 050515Z AUTO 00000KT 10SM CLR 22/20 A3005 RMK AO2
KCVG 050452Z 00000KT 6SM HZ CLR 25/19 A3012 RMK AO2 SLP188 T02500189 403170200 $
KQEN 050530Z AUTO 9999 BKN015 BKN075 25/21 A2983 RMK A02 TSNO
KARV 050515Z AUTO 21010G15KT 10SM CLR 25/20 A2995 RMK AO2 T02450198
KDHT 050453Z AUTO 16012KT 10SM CLR 24/20 A3001 RMK AO2 SLP099 T02390200 $
KPBG 050453Z AUTO 00000KT 10SM CLR 14/11 A3012 RMK AO2 SLP199 T01440111 402440128
KRMY 050515Z AUTO 00000KT 10SM SCT075 OVC085 21/20 A3010 RMK AO2 T02140204
KSGT 050456Z AUTO 15003KT 10SM CLR 27/23 A3004 RMK AO2 SLP169 T02720233
KLXV 050453Z AUTO 07006KT 10SM CLR 10/03 A3052 RMK AO2 SLP173 T01000033
K1KN 111755Z AUTO 05008KT 8SM CLR 18/03 A3009 RMK AO2 SLP192 60000 T01840031 10185 20108 58002 $
KMKQ 050515Z AUTO 19004KT 10SM CLR 29/26 A3002 RMK A01
KSCD 050515Z AUTO 00000KT 7SM SCT075 BKN095 BKN120 22/21 A3007 RMK AO2 T02160213
KFFM 050515Z AUTO 16006KT 10SM FEW012 SCT025 BKN120 22/22 A2984 RMK AO2 TSNO
KESC 050456Z AUTO 20007KT 10SM CLR 23/23 A2993 RMK AO2 SLP134 T02280228 402500117
KSUO 050515Z AUTO 22004KT 10SM FEW080 22/18 A2989 RMK AO2
KIJX 050510Z AUTO 17003KT 10SM CLR 25/19 A3006 RMK AO2 T02450191
KCVB 050515Z AUTO 12005KT 7SM OVC014 26/25 A2995 RMK AO2
KFVE 050526Z AUTO 28003KT 1 1/4SM BR FEW002 13/13 A2997 RMK AO2 T01330128
KSFB 050453Z AUTO 29004KT 7SM SCT006 24/24 A2994 RMK AO1 SLP137 T02440239 403220239
KLAL 050445Z 19007KT 6SM OVC150 23/23 A2996
KMJQ 050515Z AUTO 17011KT 10SM SCT060 OVC075 25/20 A2989 RMK AO2
KEWK 050456Z AUTO 16010KT 9SM CLR 24/24 A2999 RMK AO2 SLP139 T02440239 402940200 $
KMTH 050453Z AUTO 23004KT 10SM CLR 28/25 A2999 RMK AO2 LTG DSNT E SLP156 T02830250 403000261 $
KBIV 050453Z AUTO 17005KT 10SM CLR 22/20 A3006 RMK AO2 SLP174 T02220200 403060172 $
KMRN 050530Z AUTO 00000KT 10SM CLR 22/20 A3019 RMK AO2 T02200197
KLXL 050515Z AUTO 25005KT 2 1/2SM TSRA SCT008 BKN047 OVC060 22/21 A2985 RMK AO2 VIS 3/4V5 P0030 LTG DSNT ALQS
KHST 050455Z AUTO 22004KT 10SM BKN140 26/24 A2997 RMK AO2 LTG DSNT SW SLP152 T02620242 403050250
KRUG 050515Z AUTO 34009KT 10SM OVC040 20/09 A2990 RMK AO2
KOCQ 050515Z AUTO 21004KT 10SM CLR 25/24 A2994 RMK AO1 T02540235
KM40 050515Z AUTO 00000KT 4SM BR CLR 23/23 A3006 RMK AO2
KDUH 050515Z AUTO 00000KT 1 1/4SM BR VV007 22/22 A3010 RMK AO2 T02190217
KMOB 050456Z AUTO 30003KT 6SM BR FEW065 24/22 A3002 RMK AO2 SLP160 T02390217
KGNA 050456Z AUTO VRB03KT 13/12 A2980 RMK AO1 SLP092 T01330117 $
KLOL 050453Z AUTO 31013G20KT 10SM CLR 22/M02 A3010 RMK AO2 SLP153 T02221017
KJSL 050520Z AUTO 10004KT 10SM CLR 29/23 A3003 RMK A01
KSBO 050515Z AUTO 03003KT 10SM CLR 22/20 A3004 RMK AO2
KGLW 050515Z AUTO 00000KT 5SM BR CLR 21/21 A3010 RMK AO2 T02110211
KAYS 050515Z AUTO 06003KT 10SM CLR A2998 RMK AO2
KFCH 050510Z AUTO 32012KT 10SM CLR 26/06 A3002 RMK A01
KLMT 050453Z AUTO 28008KT 10SM OVC080 17/M01 A3016 RMK AO2 SLP180 T01721006
KOLM 050454Z AUTO 21008KT 10SM CLR 14/09 A3016 RMK AO2 SLP212 T01440094
KAOH 050453Z AUTO 00000KT 10SM CLR 22/19 A3013 RMK AO2 SLP195 T02170189 403170183 $
KORF 050451Z 00000KT 9SM CLR 23/20 A3013 RMK AO2 SLP202 T02280200 403000222 $
KVOA 050515Z AUTO 32009KT 10SM CLR A3000 RMK A01
K3S8 050515Z AUTO 32006KT 10SM CLR 18/07 A3018 RMK AO2
KMPO 050453Z AUTO 00000KT 10SM CLR 12/10 A3021 RMK AO2 SLP223 T01220100 402390106
KSNC 050515Z AUTO 00000KT 10SM CLR 18/12 A3014 RMK AO2
KSLO 050515Z AUTO 00000KT 10SM CLR 23/21 A3007 RMK AO2 T02320212
KOXI 050515Z AUTO 17003KT 10SM CLR 21/19 A3009 RMK AO1 PNO
KEMM 050515Z AUTO 31007KT 10SM 11/08 A3032 RMK AO2
KFCS 050455Z AUTO 32005KT 10SM FEW110 19/10 A3016 RMK AO2 SLP142 T01910101 $
KTYS 050453Z 30004KT 10SM FEW003 SCT070 26/20 A3010 RMK AO2 SLP178 FU FEW003 T02560200 403390206
KENL 050515Z AUTO 00000KT 7SM CLR 23/22 A3007 RMK AO2 T02310224
KJES 050510Z AUTO 00000KT 10SM CLR 25/22 A3001 RMK AO2
KSMN 050456Z AUTO 12004KT 10SM CLR 14/09 A3012 RMK AO2 SLP182 T01440094
KAPG 031952Z 25009KT 220V280 10SM SCT040 32/17 A2985 RMK LAST
KDEW 050453Z AUTO 20005KT 10SM BKN100 OVC120 19/07 A3005 RMK AO2 SLP166 T01890072
KLOT 050515Z AUTO 18006KT 9SM FEW060 25/21 A3008 RMK AO2
K17J 050515Z AUTO 00000KT 10SM CLR 25/22 A3001 RMK AO2
KU64 050515Z AUTO 19003KT 10SM CLR 19/00 A3032 RMK AO2 T01900001 $
KAVL 050454Z AUTO 00000KT 6SM BR CLR 20/18 A3020 RMK AO2 SLP197 T02000178 403060183
KAEJ 050515Z AUTO 26006KT 10SM CLR 15/01 A3037 RMK AO2 T01520009
KUOX 050515Z AUTO 00000KT 22/22 A3007 RMK AO2 PWINO
KMTW 050456Z AUTO 20005KT 10SM CLR 26/22 A3000 RMK AO2 SLP154 T02560222 403000178
KFLG 050457Z AUTO VRB03KT 10SM CLR 17/06 A3037 RMK AO2 SLP184 T01720061 $
KDKK 050453Z AUTO 00000KT 8SM CLR 16/14 A3012 RMK AO2 SLP198 T01610144 402500106 $
KCEF 050455Z AUTO 05006KT 10SM CLR 15/13 A3011 RMK AO2 SLP199 T01490131 402750122
K49B 050515Z AUTO 33007KT 10SM CLR 20/15 A2998 RMK AO2
KLGD 050148Z 21003KT 10SM FEW080 17/13 A3007
KOTH 050456Z AUTO 31005KT 10SM CLR 13/12 A3024 RMK AO2 SLP240 T01330117
KTFP 050515Z AUTO 20018G24KT 5SM CLR 29/25 A2993 RMK AO1 T02870246
KTYL 050515Z AUTO 23011G15KT 10SM CLR 20/06 A3031 RMK AO2
KEDN 050515Z AUTO 36005KT 10SM CLR 24/22 A3000 RMK AO1 T02350223
K6S2 050515Z AUTO 31004KT 10SM CLR 12/10 A3021 RMK AO2
KDFW 050453Z 16005KT 7SM OVC013 24/22 A2998 RMK AO2 SLP142 T02440217 $
KPPA 050515Z AUTO 16014G24KT 10SM OVC019 24/21 A3002 RMK AO2 T02350208
KANW 050515Z AUTO 23008KT 10SM CLR 22/19 A2992 RMK AO2 T02150188
KXMR 050520Z AUTO 25007KT 10SM BKN010 25/24 A2989 RMK AO2 BKN V FEW CIG 008 RWY31 SLP125 $
KLFK 030653Z AUTO 00000KT 10SM CLR 26/24 A3000 RMK AO2 SLP152 T02610244 $
KFFC 050453Z AUTO 00000KT 4SM BR CLR 22/21 A3007 RMK AO2 SLP174 T02220211 403330206
KDVN 050452Z AUTO 16005KT 6SM HZ CLR 23/21 A3005 RMK AO2 SLP167 T02330206
KEKE 050515Z AUTO 00000KT 10SM CLR A2995 RMK A01
KQEQ 050530Z AUTO 24004G12KT 9999 FEW032 30/24 A2974 RMK A02 TSNO
KETN 050510Z AUTO 16006KT 10SM OVC010 23/21 A2999 RMK AO2 T02310214
KSDY 050456Z AUTO 01009KT 10SM CLR 19/08 A3000 RMK AO2 SLP152 T01940078
KRPH 050515Z AUTO VRB06KT 10SM OVC012 24/23 A2995 RMK AO2 CIG 010V014 T02390225
KPVB 050515Z AUTO 16007KT 10SM CLR 24/22 A3004 RMK AO1 T02380215
KGMJ 050515Z AUTO 16004KT 7SM SCT110 24/22 A3001 RMK AO2 TSNO
KLSE 050453Z AUTO 19010KT 10SM CLR 27/21 A2995 RMK AO2 SLP128 T02670211
KGEG 050453Z 19006KT 10SM BKN110 OVC140 19/05 A3006 RMK AO2 SLP167 T01940050 $
KOEL 050515Z AUTO 27005KT 10SM CLR 19/16 A2997 RMK AO1 T01940162
KEZF 050515Z AUTO 00000KT 7SM CLR 19/17 A3012 RMK AO2 T01900170
KCLM 050453Z AUTO 28010KT 10SM CLR 13/08 A3016 RMK AO2 SLP213 T01280083
KO26 050515Z AUTO 18008KT 10SM CLR 24/M04 A3005 RMK A01
KT41 050515Z AUTO 18011G16KT 10SM SCT028 SCT034 29/24 A3000 RMK AO2 TSNO T02890237
KI75 050515Z AUTO 14005KT 7SM CLR 24/21 A3000 RMK AO2 T02360207
KCFJ 050535Z AUTO 00000KT 10SM CLR 19/18 A3012 RMK AO2 T01930177
KAIA 050453Z AUTO 05003KT 9SM FEW065 SCT085 SCT110 18/17 A3008 RMK AO2 LTG DSNT NW SLP150 T01780172
KSZT 050515Z AUTO 00000KT 7SM -RA SCT060 SCT070 OVC080 15/13 A3009 RMK AO2
KROA 050454Z 00000KT 10SM FEW090 24/18 A3019 RMK AO2 SLP210 T02440183 403060189 $
KONP 050515Z AUTO 00000KT 10SM CLR 10/09 A3025 RMK AO2
KQRD 172111Z AUTO 30003KT 8SM -RA SCT028 BKN033 25/24 A3005 RMK AO2 LTG DSNT NE RAB2055E2058RAB2058E2058RAB11 TSE10 SLP180
KESN 050525Z AUTO 11003KT 10SM CLR 19/17 A3014 RMK AO2 T01870173
KTZR 050515Z AUTO 00000KT 10SM CLR 23/19 A3015 RMK AO2 T02270190
KSGS 050515Z AUTO 16005KT 10SM CLR 27/20 A2987 RMK AO2 T02700197
KKY8 050515Z AUTO 00000KT 7SM CLR 22/21 A3008 RMK A01
KEFK 050515Z AUTO 18004KT 10SM CLR 14/10 A3016 RMK AO2 T01370100
KOZS 050515Z AUTO 15005KT 10SM CLR 23/20 A3006 RMK AO2
K1HM 050455Z AUTO 12004KT 10SM OVC030 16/14 A3003 RMK AO2 SLP153 T01570141 $
KT82 050515Z AUTO 16003KT 7SM OVC007 24/23 A3000 RMK AO2 LTG DSNT E T02350228
KUXL 050515Z AUTO 00000KT 10SM CLR 25/24 A3002 RMK AO2 T02460235
KETC 050525Z AUTO 00000KT 7SM BR CLR 20/20 A3012 RMK AO2 T02030198
KGYF 050515Z AUTO 15018KT 10SM SCT017 BKN023 29/24 A3000 RMK AO2 PWINO T02940239
K9V9 042135Z AUTO 21009KT 10SM SCT070 BKN110 21/08 A3008 RMK AO2 T02070076
KMVL 050454Z AUTO 00000KT 7SM CLR 11/09 A3016 RMK AO2 SLP215 T01110089 402280100
K20U 050535Z AUTO 01007KT 10SM 17/13 A3002 RMK AO2 TSNO
KQFX 050530Z AUTO 27001KT 9999 BKN046 33/22 A2969 RMK A02 TSNO
KFGN 050515Z AUTO 00000KT 10SM SCT009 A2978 RMK AO2
KARW 050515Z AUTO 02010KT 10SM CLR 25/23 A3000 RMK AO2
KUKL 050515Z AUTO 19009KT 10SM CLR 25/21 A3001 RMK AO2 T02450208
KETB 050515Z AUTO 20004KT 7SM CLR 25/23 A3003 RMK AO2
KEIK 050515Z AUTO 35006KT 10SM CLR 23/09 A3012 RMK AO2 PRESRR T02320091
KYKM 050453Z 30006KT 10SM BKN100 21/07 A3002 RMK AO2 SLP160 T02060072 $
KP59 050451Z AUTO VRB03KT 24/20 A2983 RMK AO1 SLP091 T02390200 402890161
KNEL 050500Z AUTO 00000KT 10SM CLR 17/16 A3013 RMK AO2 SLP199 T01720161 401720172 $
KMQJ 050515Z AUTO 00000KT 8SM CLR 20/20 A3012 RMK AO2 T02020202
KHFD 050453Z AUTO 00000KT 10SM CLR 18/15 A3013 RMK AO2 SLP203 T01780150 402720156
KORE 050452Z AUTO 00000KT 7SM CLR 14/12 A3017 RMK AO2 SLP216 T01390117 402670122
KSDL 050453Z AUTO 25003KT 10SM CLR 36/14 A2996 RMK AO2 SLP116 T03560139
KSOA 050515Z AUTO 19005KT 10SM BKN012 24/23 A3006 RMK AO2
KGPH 050535Z AUTO 14003KT 10SM CLR 25/20 A2999 RMK AO2
KSDF 050456Z 00000KT 3SM FU FEW000 FEW003 27/21 A3009 RMK AO2 SLP182 FU FEW000 FU FEW003 DRFT S T02670206 403440228
KLWV 050453Z AUTO 00000KT 10SM CLR 24/22 A3008 RMK AO2 SLP181 T02390217
KLNK 050454Z 16010KT 10SM CLR 26/21 A2990 RMK AO2 SLP113 T02610211
KCRQ 050453Z 23003KT 10SM CLR 19/15 A3004 RMK AO2 SLP168 T01890150
K04V 050507Z AUTO 32007KT 10SM CLR 15/00 A3037 RMK AO2 PWINO
KLHX 050453Z AUTO 09007KT 10SM FEW055 FEW070 SCT110 24/16 A3003 RMK AO2 SLP101 T02390156
KSPF 050515Z AUTO 00000KT 10SM CLR 18/15 A3003 RMK AO2
KMUT 050515Z AUTO 00000KT 10SM CLR 23/21 A3003 RMK AO2
KC35 050515Z AUTO 18007KT 10SM CLR 25/21 A3000 RMK AO2 T02500210 PWINO
KJVW 050515Z AUTO 00000KT 3SM BR CLR 23/23 A3004 RMK AO2
KGPZ 050456Z AUTO 19005KT 6SM +RA BR FEW006 BKN031 OVC042 20/19 A2991 RMK AO2 LTG DSNT NE-S SLP119 P0027 T02000194 403330172
KLAA 050353Z AUTO 00000KT 7SM CLR 22/18 A2998 RMK AO2 SLP100 T02170183
KGGW 240653Z AUTO 15008KT 10SM CLR 12/09 A3007 RMK AO2 SLP187 T01170094 402000061
KT70 050455Z AUTO 11003KT 9SM CLR 25/25 A2993 RMK AO2 SLP122 T02540245 $
K1KM 050455Z AUTO 35009KT 10SM FEW095 BKN130 14/13 A3008 RMK AO2 RAB0355E11 SLP155 P0000 T01430127 $
KASE 050453Z AUTO 22008KT 10SM FEW090 13/06 A3033 RMK AO2 SLP167 T01330056
KSBD 050520Z AUTO 25006KT 10SM CLR 24/10 A3004 RMK AO2 T02350096
KSUS 050454Z AUTO 00000KT 6SM BR CLR 23/21 A3004 RMK AO2 SLP162 T02280206
KAIB 141455Z AUTO 21010G23KT 10SM SCT110 14/M12 A2987 RMK AO2 T01431121
KGEU 050249Z 21008KT 10SM CLR 37/13 A2986 RMK LAST
KMFE 050516Z AUTO 16012KT 10SM BKN013 BKN023 27/24 A2996 RMK AO2 T02720244
KHRJ 050530Z AUTO 04003KT 10SM CLR 23/22 A3012 RMK AO2 T02330216
KRSN 050515Z AUTO 00000KT 8SM CLR 24/24 A3002 RMK AO2 T02400240 $
KMWH 050452Z AUTO 18011KT 10SM CLR 21/11 A2998 RMK AO2 SLP145 T02060106
KMHR 050515Z AUTO 17008KT 10SM CLR 17/09 A3004 RMK AO2
KMGC 050515Z AUTO 00000KT 5SM BR CLR 22/20 A3009 RMK AO2
KIDP 050515Z AUTO 15006KT 10SM CLR 24/22 A2999 RMK AO2
KGZS 050510Z AUTO 00000KT 5SM BR FEW055 FEW065 22/22 A3007 RMK A01
K4MR 050255Z AUTO 17006KT 10SM CLR 24/14 A2995 RMK AO2 SLP055 T02440139 52007
KWRL 050453Z AUTO 14003KT 10SM CLR 14/13 A3008 RMK AO2 SLP152 T01440133
KNBG 050455Z AUTO 00000KT 10SM CLR 23/23 A3000 RMK AO2 SLP159 T02330228 $
KOLS 050454Z AUTO 17004KT 10SM SCT070 BKN100 26/17 A3019 RMK AO2 SLP149 T02610167
KOQN 050515Z AUTO 00000KT 7SM CLR 18/15 A3016 RMK AO2
K1A6 050515Z AUTO 00000KT 7SM CLR 20/19 A3015 RMK AO2 T02010187
KDCA 050452Z 15003KT 5SM FU FEW005 FEW250 23/18 A3013 RMK AO2 SLP204 FU FEW005 T02330178 403060217 $
KRSL 050453Z AUTO 17015KT 10SM FEW050 SCT070 SCT120 26/21 A2992 RMK AO2 SLP113 T02560211
KPYM 050452Z AUTO 00000KT 5SM BR CLR 15/13 A3012 RMK AO2 SLP202 T01500128 402670139
KCDR 050509Z AUTO 12007KT 080V160 10SM -RA OVC100 18/16 A3002 RMK AO2 LTG DSNT N-SE P0000 T01780156
KBHC 021550Z AUTO 22004KT 29/17 A3009 RMK AO2 PWINO PNO
KTKX 050515Z AUTO 00000KT 10SM FEW060 25/24 A3003 RMK AO2
KFYJ 050515Z AUTO 00000KT 7SM CLR 18/18 A3015 RMK AO1 T01830178
KLMS 050515Z AUTO 00000KT 8SM CLR 22/21 A3008 RMK AO2
KREO 050452Z AUTO 02009KT 16/06 A3014 RMK AO1 SLP180 T01560061
KCKZ 050515Z AUTO 00000KT 5SM BR CLR 15/15 A3016 RMK AO2
KISO 050525Z AUTO 00000KT 10SM CLR 23/20 A3012 RMK AO2 T02250203
KLWA 050515Z AUTO 18004KT 10SM CLR 24/20 A3006 RMK AO2
KCGC 050515Z AUTO 00000KT 7SM SCT120 A2997 RMK AO2
KELM 050453Z AUTO 00000KT 10SM CLR 12/11 A3017 RMK AO2 SLP214 T01170106 402560094
KRZN 050515Z AUTO 19008KT 10SM CLR 26/19 A2987 RMK AO2 T02620192
KDYA 050535Z AUTO 00000KT 5SM BR CLR 23/23 A3002 RMK AO2 T02310230
KHIE 050452Z AUTO 00000KT 10SM CLR 10/09 A3018 RMK AO2 SLP221 T01000089 402110094
KCGI 050528Z AUTO 00000KT 2SM BR CLR 22/22 A3005 RMK AO2 T02220217
KPVC 050456Z AUTO 22004KT 10SM CLR 16/16 A3013 RMK AO2 SLP202 T01610161 402390144 PNO $
KGAD 050456Z AUTO 24004KT 8SM CLR 23/23 A3007 RMK AO2 SLP181 T02280228 $
KTMB 050453Z AUTO 21004KT 10SM CLR 27/25 A3000 RMK AO2 SLP157 T02670250 403110233 $
K4S1 050515Z AUTO VRB01KT 2 1/2SM BR CLR 12/10 A3021 RMK AO2 VIS 1 1/2V4
K6B9 050515Z AUTO 00000KT 10SM CLR 15/13 A3016 RMK AO2
KFUL 050453Z AUTO 27003KT 4SM HZ CLR 20/16 A3002 RMK AO2 SLP165 T02000156
KGSP 050453Z AUTO 05004KT 10SM CLR 23/18 A3012 RMK AO2 SLP185 T02280183 403280211 $
KU14 050515Z AUTO 18007KT 10SM CLR 19/02 A3010 RMK AO2
K4V0 050515Z AUTO 06020G26KT 10SM VCTS BKN110 22/08 A3016 RMK AO2 LTG DSNT W T02160079
KCEU 050454Z AUTO 00000KT 10SM CLR 25/19 A3011 RMK AO2 SLP182 T02500194 403280228
KNLC 050456Z AUTO 32017KT 10SM CLR 27/08 A3001 RMK AO2 SLP160 T02670078 $
KCDW 050453Z AUTO 19004KT 10SM CLR 19/15 A3014 RMK AO2 SLP212 T01890150 402890161
KACV 050453Z AUTO 04003KT 10SM OVC024 13/10 A3020 RMK AO2 SLP234 T01330100
KJFX 050515Z AUTO 00000KT 3SM BR FEW060 21/21 A3007 RMK AO2 LTG DSNT S
K40U 050515Z AUTO 00000KT 10SM CLR 12/10 A3028 RMK AO2 T01160100
KUDG 050456Z AUTO 04003KT 10SM CLR 23/22 A3008 RMK AO2 SLP185 T02330217 $
KMTK 050515Z AUTO 28006KT CLR 29/25 A3000 RMK A01
KXER 132005Z AUTO 24011KT 9SM 27/22 A2993 RMK A01
KAGC 050453Z 17005KT 7SM CLR 22/16 A3016 RMK AO2 SLP208 T02220161 402890178
KFDY 050453Z AUTO 00000KT 10SM CLR 24/19 A3011 RMK AO2 SLP185 T02390189 403280178
KGWB 050515Z AUTO 19001KT 6SM BR CLR 22/20 A3010 RMK AO2
K3F3 050515Z AUTO 15007KT 10SM CLR 24/22 A3005 RMK AO2 T02400223
KINS 050455Z AUTO 16007KT 10SM CLR 30/M05 A2996 RMK AO2 SLP085 T03031047 $
KBOI 050453Z AUTO 25006KT 7SM CLR 17/12 A3008 RMK AO2 PRESRR SLP166 T01720122
KRFI 050515Z AUTO 00000KT 10SM BKN090 25/23 A3003 RMK AO2 T02450227 PWINO
KBGR 050453Z 21004KT 10SM CLR 14/12 A3003 RMK AO2 SLP168 T01440122 402280139
KCFO 050515Z AUTO 19008KT 10SM CLR 21/10 A3014 RMK AO2 T02060102
KMBL 050456Z AUTO 00000KT 10SM CLR 23/20 A3001 RMK AO2 SLP157 T02280200
KCRP 050451Z 17012G18KT 10SM -RA FEW021 SCT095 SCT120 BKN150 OVC250 27/24 A2996 RMK AO2 RAE01B41 SLP143 P0000 T02720244
KVSF 050454Z AUTO 00000KT 10SM CLR 13/11 A3017 RMK AO2 SLP217 T01280111 402500122
KTTF 050515Z AUTO 27002KT 2SM BR CLR 21/20 A3009 RMK AO2
KBNO 050453Z AUTO 31003KT 10SM CLR 10/07 A3016 RMK AO2 SLP204 T01000072 $
KIAB 050455Z AUTO 18008KT 10SM CLR 26/22 A2996 RMK AO2 SLP131 T02570224 $
KRCR 050515Z AUTO 10003KT 10SM OVC090 22/22 A3011 RMK AO2
KF05 050515Z AUTO 14006KT 10SM CLR 24/23 A2996 RMK AO2 T02400227
KRKW 050510Z AUTO 00000KT 10SM CLR 20/17 A3014 RMK A01
KRNC 050510Z AUTO 06003KT 1 3/4SM BR BKN065 22/22 A3009 RMK A01
K0J4 050458Z AUTO 00000KT 10SM CLR 25/21 A3002 RMK AO2 SLP160 T02500211 403560233
KSNA 050526Z 20005KT 2SM HZ OVC005 19/16 A3004 RMK AO2 FU OVC005 T01890156
K15M 050515Z AUTO 00000KT 9SM CLR 23/23 RMK AO2 T02250225 $
K0F2 050515Z AUTO 18008G14KT 10SM 24/22 A3000 RMK AO2 T02350216
K1U7 050515Z AUTO 05006KT 10SM BKN110 16/13 A3018 RMK A01
KFIN 050515Z AUTO 34004KT 10SM BKN011 BKN014 25/24 A2993 RMK AO2 T02500241
KEET 050513Z AUTO 00000KT 2SM BR CLR 22/22 A3005 RMK AO2 T02220217
KRUE 050453Z AUTO 00000KT 7SM CLR 25/22 A3001 RMK AO2 SLP155 T02500222
KDLZ 050515Z AUTO 18002KT 10SM CLR 23/20 A3014 RMK AO2
KMIO 050515Z AUTO 15005KT 10SM CLR A3001 RMK A01
KMGY 050453Z AUTO 00000KT 8SM CLR 26/18 A3013 RMK AO2 SLP192 T02560183 403220206
K57C 050515Z AUTO 00000KT 10SM CLR 24/20 A3004 RMK AO2 T02410203
K1GM 050455Z AUTO 11005KT 10SM SCT019 BKN037 OVC180 14/12 A3002 RMK AO2 SLP153 T01370119 $
KTUL 050453Z 15008KT 6SM HZ FEW100 SCT200 27/22 A2999 RMK AO2 SLP148 T02670217
KGBK 032235Z AUTO 16005KT 10SM FEW025 29/25 A2999 RMK A01
KSIK 050515Z AUTO 00000KT CLR 24/22 A3004 RMK AO2 T02380220 PWINO $
KCZT 080010Z AUTO 3/4SM -RA VV005 37/18 A2976 RMK AO2
KRZL 050515Z AUTO 00000KT 10SM CLR 22/21 A3010 RMK AO2
K24J 050515Z AUTO 00000KT 25/25 A2996 RMK A01
KDLF 050455Z AUTO 12003KT 9SM CLR 25/24 A2992 RMK AO2 SLP120 T02540240 $
KARR 050452Z AUTO 00000KT 6SM HZ CLR 23/19 A3005 RMK AO2 SLP172 T02280194
K1BN 020255Z AUTO 34009G15KT 10SM CLR 23/08 A2973 RMK AO2 SLP063 T02290082 52024 $
KSCR 050525Z AUTO 00000KT 10SM CLR 20/19 A3013 RMK AO2 T01950186
KWAL 050454Z AUTO 00000KT 10SM CLR 21/18 A3014 RMK AO2 SLP205 T02060183 402890206
KREG 050515Z AUTO 25003KT 10SM CLR 26/25 A3000 RMK AO2 T02610250
KDAY 050456Z 00000KT 9SM FEW250 26/18 A3014 RMK AO2 SLP196 T02610183 403390211
KPIH 050453Z AUTO 00000KT 10SM CLR 17/12 A3006 RMK AO2 SLP144 T01670122
KWWR 050515Z AUTO 17006KT 10SM CLR 23/20 A3002 RMK AO2
KMBS 050453Z AUTO 21004KT 10SM CLR 24/19 A3006 RMK AO2 SLP174 T02390194 403110156
KHQZ 050515Z AUTO 04004KT 5SM CLR 23/21 A2999 RMK AO1 T02250205
KTBN 050455Z AUTO 14005KT 10SM CLR 24/23 A3004 RMK AO2 SLP163 T02440226
KIDI 050515Z AUTO 09003KT 7SM CLR 16/15 A3018 RMK A01
KE77 050515Z AUTO 24006KT 10SM CLR 28/12 A3017 RMK AO2
KC29 050515Z AUTO 22005KT 10SM CLR 26/21 A3003 RMK AO1 T02550210
K1H2 050515Z AUTO 00000KT 10SM CLR 23/22 A3010 RMK AO2 T02250221
KRMG 050453Z AUTO 35003KT 10SM CLR 23/22 A3007 RMK AO2 SLP171 T02330217 403390189 $
KTVI 050515Z AUTO 00000KT 10SM CLR 23/22 A2999 RMK AO2
KFLY 050515Z AUTO 00000KT 5SM HZ SCT110 17/12 A3028 RMK AO2 T01660118
KCFE 050515Z AUTO 17007KT 10SM FEW028 SCT049 BKN055 26/21 A2985 RMK AO2
KAJZ 050515Z AUTO 05004KT 10SM CLR 21/08 A3014 RMK AO2 T02100080 PWINO
KSMD 050515Z AUTO 00000KT 3SM HZ BKN003 23/21 A3013 RMK A01
KSOP 050456Z AUTO 00000KT 10SM CLR 22/21 A3012 RMK AO2 SLP201 T02220211 $
KONA 050515Z AUTO 19008KT 161V221 10SM CLR 27/20 A2992 RMK AO2 TSNO
KHZD 050510Z AUTO 00000KT 10SM CLR 23/23 A3004 RMK A01
KMEH 101956Z AUTO VRB05KT 10SM 29/04 A3000 RMK AO2 SLP126 T02890039
KVAD 050455Z AUTO 04004KT 10SM CLR 25/23 A2996 RMK AO2 SLP145 T02510226 403390230 $
KY19 050535Z AUTO 35013G19KT 10SM CLR 22/15 A2992 RMK AO2
KPO1 050520Z AUTO 08008KT 10SM CLR 18/09 A3001 RMK AO2 TSNO
K7W4 042215Z AUTO 09003KT 10SM CLR 29/18 A3011 RMK AO1 T02900178
KRCZ 050525Z AUTO 00000KT 10SM CLR 23/21 A3010 RMK AO2 T02310205
KLUG 042015Z AUTO 36004KT 10SM CLR 33/20 A3006 RMK A01
KSUN 050515Z AUTO 30008KT 10SM CLR 13/08 A3016 RMK AO2
KCMA 050455Z AUTO 29003KT 10SM CLR 16/14 A3001 RMK AO2 SLP169 T01610144
KSNS 050453Z 26009KT 10SM CLR 15/08 A3014 RMK AO2 SLP213 T01500083 $
KRCX 050515Z AUTO 19008KT 10SM CLR 24/20 A2995 RMK AO2 T02410200
KASJ 050525Z AUTO 00000KT 10SM CLR 19/19 A3013 RMK AO2 T01850185
KFHR 050453Z AUTO 25007G19KT 10SM CLR 13/07 A3012 RMK AO2 SLP198 T01330072 $
KMTN 050145Z 33003KT 10SM CLR A3014 RMK LAST
KCAV 050515Z AUTO 17010KT 10SM FEW046 FEW050 BKN085 26/26 A2995 RMK A01
KFKL 050456Z AUTO 19003KT 10SM CLR 19/16 A3017 RMK AO2 SLP209 T01940156 402780122
KBKL 050453Z AUTO 17007KT 9SM SCT075 SCT090 BKN120 26/17 A3010 RMK AO2 SLP187 T02610172 402890194 $
KSLR 050515Z AUTO 15004KT 10SM OVC100 24/21 A3002 RMK AO2 T02440213 PWINO
KFMH 050445Z 00000KT 10SM CLR 15/14 A3013
KLVM 050453Z AUTO 26006KT 6SM -RA BR SCT035 BKN048 OVC055 14/13 A3018 RMK AO2 RAB13 SLP182 P0004 T01440128
KMLI 050452Z AUTO 15005KT 8SM CLR 23/21 A3003 RMK AO2 SLP163 T02280206
KANR 300640Z AUTO 14016KT 10SM CLR 29/23 A3016 RMK A01
KLYV 050515Z AUTO 19005KT 7SM RA SCT024 BKN037 OVC045 22/21 A2990 RMK AO2 LTG DSNT SE P0005
KK83 050515Z AUTO 19010KT 10SM BKN090 BKN110 25/19 A2998 RMK AO2 T02510194
KMNH 050515Z AUTO 19007KT 10SM CLR 16/09 A3028 RMK AO2
KFTN 261335Z AUTO 13007KT 100V160 A3004 RMK A01
K4A9 050515Z AUTO 03003KT 7SM CLR 21/20 A3008 RMK AO2 T02110205
KSVH 050525Z AUTO 05003KT 7SM CLR 22/20 A3014 RMK AO2 T02150201
KBNW 050515Z AUTO 15006KT 9SM BKN080 24/24 A2995 RMK AO2
KMAW 050535Z AUTO 00000KT 10SM CLR 25/22 A3005 RMK AO1
KDSV 050454Z AUTO 00000KT 10SM CLR 17/12 A3017 RMK AO2 SLP221 T01670122 402670117
KCMX 050453Z AUTO 22006KT 10SM CLR 27/20 A2985 RMK AO2 SLP102 T02720200 402890144
KVTN 050452Z AUTO 19008KT 10SM CLR 22/19 A2989 RMK AO2 PRESFR SLP096 T02220189
K1ON 050455Z AUTO 33007KT 10SM CLR 15/12 A2994 RMK AO2 SLP138 T01480118 $
KFFO 050455Z AUTO 01003KT 10SM CLR 23/20 A3012 RMK AO2 SLP194 T02340201 403270203
KLWM 050454Z AUTO 00000KT 10SM CLR 16/11 A3015 RMK AO2 SLP209 T01610111 402560144
KAKR 050454Z AUTO VRB03KT 6SM HZ CLR 23/18 A3013 RMK AO2 SLP194 T02330178 403110167 $
KMCD 050516Z AUTO 18008KT 10SM CLR 20/18 A2996 RMK AO2
KALX 050515Z AUTO 00000KT 5SM BR CLR 23/23 A3005 RMK AO2 T02280228
KDYL 050454Z AUTO 00000KT 10SM CLR 17/14 A3014 RMK AO2 SLP203 T01720144 402890172
KCHO 050453Z AUTO 00000KT 6SM BR CLR 21/19 A3016 RMK AO2 SLP205 T02060194 403060178
KBEH 050453Z AUTO 13003KT 9SM CLR 23/21 A3007 RMK AO2 SLP179 T02280206 403060178 $
KASG 050148Z 18007KT 10SM FEW075 OVC090 27/26 A3005
KTNB 050515Z AUTO 00000KT 4SM BR CLR 16/16 A3028 RMK AO2 T01570157
KAAS 050515Z AUTO 09003KT 10SM CLR 21/20 A3011 RMK AO1
KTTS 050455Z AUTO 30003KT 10SM BKN220 25/24 A2991 RMK AO2 SLP133 T02500239 403080243 $
KGFL 050453Z AUTO 00000KT 9SM CLR 13/12 A3015 RMK AO2 SLP210 T01280122 402560117
KDRP 050515Z AUTO 00000KT 3SM BR CLR 17/16 A3003 RMK AO2
KPLU 050515Z AUTO VRB05KT 10SM OVC050 17/10 A3017 RMK AO2
KGWW 050535Z AUTO 00000KT 10SM CLR 23/20 A3012 RMK AO2 T02250203
KVHN 050515Z AUTO 22005KT 10SM CLR 25/15 A3013 RMK AO2 T02490150
KHVC 050515Z AUTO 00000KT 7SM CLR 22/21 A3006 RMK AO2
KDVO 050515Z AUTO 10007KT 10SM CLR 14/10 A3008 RMK AO2
KCWI 050456Z AUTO 16004KT 10SM CLR 24/21 A3005 RMK AO2 SLP174 T02390206
KM75 050510Z AUTO 06010KT 10SM FEW049 BKN070 BKN080 22/04 A3001 RMK A01
KCSB 050515Z AUTO 04005KT 10SM SCT024 23/23 A2994 RMK AO2 LTG DSNT N AND NW
KAUM 050516Z AUTO 18009KT 10SM CLR 26/21 A2995 RMK AO2
KBDG 050515Z AUTO 26004KT 10SM CLR 21/M00 A3021 RMK AO2 T02141000
KSYN 050515Z AUTO 18007KT 10SM SCT070 26/21 A2990 RMK AO2 T02570213
K06C 050515Z AUTO 00000KT 10SM CLR 25/20 A3006 RMK AO2 T02530196
KY50 050456Z AUTO 18004KT 10SM CLR 25/21 A3000 RMK AO2 SLP151 T02500211 $
KI35 050515Z AUTO 00000KT 2SM CLR 21/21 A3017 RMK AO2 T02100210
KSHD 050515Z AUTO 00000KT 7SM CLR 19/19 A3020 RMK AO2 T01860186
KOPL 251935Z AUTO 13007KT 10SM CLR A3011 RMK AO2 LTG DSNT SW
KVUO 050453Z AUTO VRB04KT 10SM CLR 17/09 A3019 RMK AO2 SLP223 T01720089
KJMS 050456Z AUTO 00000KT 8SM CLR 22/21 A2983 RMK AO2 SLP090 T02170211
KW99 050515Z AUTO 00000KT 7SM CLR 19/19 A3016 RMK AO2 T01910191 $
KBOW 050535Z AUTO 00000KT 23/23 A2994 RMK AO2 PWINO
KLKR 050515Z AUTO 02003KT 10SM CLR 24/20 A3009 RMK AO2
KI40 050515Z AUTO 00000KT 2 1/2SM BR CLR A3017 RMK AO2
K3D2 050515Z AUTO 22004KT 10SM CLR 25/22 A2995 RMK AO2 T02500220
KEUF 050458Z AUTO 00000KT 8SM BKN070 24/23 A3001 RMK AO1 SLP158 T02390228
KP28 050456Z AUTO 15007KT 26/22 RMK AO1 SLPNO T02560217 $
KBLH 050452Z AUTO 20017G26KT 10SM CLR 35/13 A2988 RMK AO2 PK WND 20026/0449 SLP110 T03500133 $
KD55 050455Z AUTO 32007KT 10SM FEW022 FEW031 OVC060 21/21 A2986 RMK AO2
KRWL 050453Z AUTO 22008KT 10SM FEW080 OVC095 17/06 A3027 RMK AO2 PK WND 26028/0356 SLP160 T01720061
KGVL 050453Z AUTO 06006KT 10SM CLR 26/18 A3013 RMK AO2 SLP183 T02560183 403280233 $
KTHA 050515Z AUTO 00000KT 5SM BR BKN065 22/21 A3008 RMK A01
KT69 050515Z AUTO 08010G16KT 8SM OVC001 27/26 A2995 RMK A01
K49A 050515Z AUTO 04004KT 8SM CLR 22/22 A3013 RMK AO2
K2WX 050456Z AUTO 34006KT 21/16 A2994 RMK AO1 SLP116 T02110161
KHTL 050453Z AUTO 20005KT 10SM CLR 23/19 A3006 RMK AO2 SLP172 T02280194 402940083
KDET 050453Z 15003KT 7SM CLR 23/20 A3009 RMK AO2 SLP185 T02280200 403000178
KLAW 050453Z AUTO 14007KT 10SM BKN019 24/22 A2998 RMK AO2 SLP140 T02390217
KSSI 050515Z AUTO 04007G14KT 10SM FEW020 SCT026 27/25 A2993 RMK AO2
KDAL 050453Z 15007KT 10SM FEW000 FEW015 SCT050 SCT150 24/21 A2998 RMK AO2 SLP145 FU FEW000 SW-NW TCU DSNT NW T02390206
KLAS 050456Z 24014G23KT 10SM CLR 34/M06 A2993 RMK AO2 SLP103 T03391061
KADW 050455Z AUTO 00000KT 10SM CLR 20/17 A3012 RMK AO2 SLP204 T02000170 402990185 $
KSKX 081556Z AUTO VRB04KT 10SM FEW021 08/04 A3035 RMK AO2 SLP258 T00830039
KUIN 050454Z AUTO 16005KT 10SM CLR 25/20 A3005 RMK AO2 SLP165 T02500200
KC09 050515Z AUTO 00000KT 10SM CLR 25/21 A3006 RMK AO2 T02450210
KLZU 050456Z AUTO 04004KT 10SM CLR 24/20 A3010 RMK AO2 SLP190 T02440200 403390222
KHLR 050455Z AUTO 17007KT 10SM OVC060 25/23 A2997 RMK AO2 LTG DSNT S SLP139 T02450227 $
K1JW 050455Z AUTO 31011G22KT 10SM CLR 19/16 A3008 RMK AO2 LTG DSNT W PRESRR SLP137 T01860160 $
KFMY 050453Z AUTO 10SM FEW028 27/23 A2996 RMK AO2 LTG DSNT NW SLP147 T02720233 403170244 $
KNOW 050510Z AUTO 28013G19KT 10SM CLR A3016 RMK AO2
KCKP 050515Z AUTO 18011G16KT 10SM FEW046 BKN060 OVC080 26/22 A2988 RMK AO2
KAIO 050515Z AUTO 18008KT 10SM CLR 25/23 A2993 RMK AO2
KLSV 050455Z AUTO 19007KT 10SM CLR 34/M03 A2986 RMK AO2 SLP080 T03441031 $
KTVK 181735Z AUTO 00000KT 2 1/2SM RA BR 22/22 A2981 RMK AO2
K1R7 050515Z AUTO 00000KT 8SM CLR 22/22 A3006 RMK A01 TSNO
KAFJ 050456Z AUTO 00000KT 8SM CLR 18/18 A3020 RMK AO2 SLP218 T01830178 $
K82V 050515Z AUTO 34007KT 10SM 16/10 A3017 RMK AO2
KTHV 050453Z AUTO 00000KT 3SM BR CLR 16/16 A3016 RMK AO2 SLP212 T01610156 402780144
KLWT 050454Z AUTO 23010KT 10SM -RA FEW060 SCT090 BKN110 15/13 A3010 RMK AO2 PK WND 23031/0420 WSHFT 0415 RAB47 SLP164 P0000 T01500128
KLRJ 050515Z AUTO 24008G16KT 3SM -RA SCT004 BKN026 OVC039 23/23 A2989 RMK AO2
KHOU 050453Z 16007KT 10SM FEW025 SCT120 BKN150 BKN250 28/24 A2999 RMK AO2 SLP159 T02830244
KOGA 252150Z AUTO 12011KT -TSRA 21/20 A3001 RMK AO2 LTG DSNT ALQS P0008 T02070204
KSTK 050515Z AUTO 32013KT 10SM CLR 18/17 A3008 RMK AO2 LTG DSNT E
KTNU 050515Z AUTO 15007KT 10SM CLR 23/22 A2998 RMK A01
KGRI 050453Z AUTO 18005KT 10SM BKN042 BKN090 23/22 A2994 RMK AO2 SLP124 T02330217 $
KPPO 050515Z AUTO 16002KT 4SM BR CLR 23/23 A3009 RMK AO2
KCYD 181632Z AUTO 14015KT 7SM HZ BKN016 BKN022 24/20 A3018 RMK A02 T02370199
KGZN 041825Z AUTO 12006KT 2SM BR SCT006 SCT014 24/24 A2998 RMK AO2
KPSP 050453Z AUTO 32013KT 10SM CLR 34/06 A2989 RMK AO2 PK WND 32026/0400 SLP117 T03440061
K1DM 050455Z AUTO 26018G24KT 10SM -RA OVC090 15/14 A3005 RMK AO2 PK WND 24033/20 RAE0355RAB16 SLP166 P0000 T01530135 $
KCDC 050453Z AUTO 21007KT 10SM CLR 19/00 A3019 RMK AO2 SLP146 T01940000
KDMO 042253Z AUTO 16009KT 10SM CLR 31/21 A3001 RMK AO2 SLP153 T03110211
KLEE 050531Z AUTO 00000KT 5SM BR SCT026 OVC036 23/23 A2996 RMK AO2 T02330228
KMCK 050453Z AUTO 00000KT 10SM CLR 22/21 A2994 RMK AO2 SLP114 T02220211
KAJG 050515Z AUTO 10SM CLR 24/23 A3009 RMK AO2 T02380225
KFFZ 050454Z 00000KT 10SM CLR 35/13 A2994 RMK AO2 SLP111 T03500128
KEHA 050515Z AUTO 15017KT 10SM CLR 23/19 A3004 RMK AO2 T02320193
KDCU 050453Z AUTO 00000KT 6SM BR CLR 23/21 A3007 RMK AO2 SLP173 T02280211 $
KBFM 050453Z AUTO 29003KT 3SM BR CLR 24/23 A3001 RMK AO2 SLP163 T02440233
KGIC 050515Z AUTO 08004KT 7SM SCT055 OVC090 13/12 A3012 RMK AO1
KBKT 050455Z AUTO 00000KT 10SM CLR 21/20 A3014 RMK AO2 LTG DSNT S SLP206 T02070195 403110204
KCOS 050454Z 01004KT 10SM BKN110 19/11 A3021 RMK AO2 SLP137 T01890106 $
KOLG 050515Z AUTO 20008KT 10SM CLR 26/18 A2985 RMK AO1
KJYM 050515Z AUTO 16002KT 8SM BKN100 OVC120 20/19 A3012 RMK AO2
KPNS 050453Z AUTO 00000KT 10SM CLR 28/23 A2999 RMK AO2 SLP155 T02780228
KODO 050453Z AUTO 19014KT 10SM CLR 26/23 A3000 RMK AO2 SLP111 T02610228 PNO $
KUKT 050515Z AUTO 00000KT 7SM CLR 16/16 A3016 RMK AO2
KHAE 050515Z AUTO 17003KT 10SM BKN080 25/20 A3006 RMK AO2
KTWF 050453Z AUTO 24013KT 10SM CLR 16/09 A3011 RMK AO2 SLP151 T01610094
KGDA 050515Z AUTO 00000KT 10SM CLR 23/21 A3007 RMK AO2 T02300207
KPTN 050456Z AUTO 22004KT 10SM CLR 24/23 A3002 RMK AO2 SLP167 T02440233 403170244 $
K06D 050455Z AUTO 34015KT 10SM OVC041 19/08 A2991 RMK AO2
KADC 050515Z AUTO 14004KT 10SM BKN003 21/20 A2984 RMK AO2
KAAA 050515Z AUTO 00000KT 10SM CLR 22/20 A3007 RMK AO2 T02240203
K66R 050515Z AUTO 16006KT 10SM SCT110 27/24 A2999 RMK AO2 T02670244
KAGS 050453Z 00000KT 10SM CLR 22/20 A3004 RMK AO2 SLP170 T02170200 403560217
KSAF 050453Z AUTO 34005KT 10SM CLR 21/06 A3024 RMK AO2 SLP130 T02060056
KFSI 032104Z 15009KT 10SM SCT032 BKN060 BKN070 29/22 A2994 RMK AO2 DZB2055E04 SLP127 FZRANO $
KCWA 050515Z AUTO 21008KT 10SM CLR 24/21 A2998 RMK AO2
KAMW 050453Z AUTO 15006KT 8SM CLR 24/21 A2996 RMK AO2 SLP133 T02390211
KORD 050451Z 18004KT 7SM FEW002 FEW060 FEW250 28/19 A3005 RMK AO2 SLP170 FU FEW002 T02780194
KSMS 050510Z AUTO 00000KT 4SM BR CLR 22/22 A3006 RMK AO2
KOXC 050456Z AUTO 33003KT 10SM CLR 16/15 A3017 RMK AO2 SLP223 T01560150 402560139 $
KOSH 050453Z AUTO 20006KT 10SM CLR 24/22 A2999 RMK AO2 SLP141 T02440217
KNRA 050446Z AUTO 10SM CLR 12/08 A3015 RMK AO2 SLP153 T01220083 TSNO PNO $
KJYL 050515Z AUTO 00000KT 10SM CLR 24/24 A3004 RMK AO2 T02400237
KDKX 050510Z AUTO 00000KT 4SM BR BKN003 21/21 A3010 RMK A01
KFFX 050516Z AUTO 19003KT 9SM CLR 22/19 A3005 RMK AO2
KLRU 050515Z AUTO 26011KT 10SM CLR 27/07 A3012 RMK AO2 T02670068
KHHW 050515Z AUTO 00000KT 10SM CLR 23/22 A3000 RMK AO2
K9Y1 050515Z AUTO 04007KT 10SM FEW075 20/12 A2998 RMK AO2
KBOK 050510Z AUTO 00000KT 10SM BKN008 12/11 RMK AO2 PNO $
KGED 050454Z AUTO 00000KT 10SM CLR 20/16 A3015 RMK AO2 SLP208 T02000156 403000183 $
KLUV 050515Z AUTO 15007KT 10SM CLR 24/22 A3001 RMK AO2
KDUA 050515Z AUTO 15004KT 5SM BR CLR 23/23 A3002 RMK AO2
KADU 050515Z AUTO 17004KT 10SM SCT039 SCT060 BKN090 24/22 A2995 RMK AO2 PWINO
K1M4 050456Z AUTO 00000KT 5SM BR CLR 22/22 A3010 RMK AO2 SLP949 T02220217 403220189 $
KFWA 050454Z 00000KT 10SM FEW090 FEW120 23/20 A3012 RMK AO2 SLP192 T02280200 403220189
KCGF 050515Z AUTO 16004KT 10SM OVC065 25/16 A3013 RMK AO2 T02520163
KVCV 050515Z AUTO 20006KT 10SM CLR 24/M02 A3011 RMK AO2
KLHB 050515Z AUTO 15006KT 7SM HZ FEW049 SCT075 OVC095 27/24 A2997 RMK AO2
KJRO 050515Z AUTO 04001KT 1 1/4SM BR CLR 20/20 A3014 RMK AO2 VIS 3/4V4
KBQK 050515Z AUTO 03004KT 10SM SCT021 25/23 A2996 RMK AO2 T02520234
KMCW 050453Z AUTO 17008KT 10SM FEW049 SCT060 23/22 A2994 RMK AO2 SLP125 T02330217
KGIF 050453Z AUTO 17004KT 10SM CLR 23/22 A2996 RMK AO1 SLP142 T02280222 403110228
KMXO 050515Z AUTO 14005KT 10SM CLR 23/23 A3001 RMK AO2
K7L2 050515Z AUTO 35004KT 4SM BR SCT037 BKN047 OVC120 22/22 A2987 RMK AO2
KMLF 050452Z AUTO 18009KT 10SM CLR 22/01 A3012 RMK AO2 SLP127 T02220011
KTMT 050510Z AUTO 12004KT 10SM CLR 11/M05 A3021 RMK AO2 T01131051
KGLD 050453Z AUTO 20015KT 10SM CLR 22/16 A2999 RMK AO2 SLP112 T02170161
KCCY 050515Z AUTO 16007KT 10SM CLR 24/22 A2997 RMK AO2
KLCI 050456Z AUTO VRB03KT 10SM CLR 14/12 A3015 RMK AO2 SLP209 T01390117 402330128
KOVS 050453Z AUTO 00000KT 10SM CLR 24/21 A3000 RMK AO2 SLP154 T02440206
KLIT 050453Z 20004KT 10SM FEW250 27/23 A3003 RMK AO2 SLP168 T02670233
KABE 050451Z 33004KT 5SM BR CLR 16/14 A3015 RMK AO2 SLP209 T01560139 402780144
KMCZ 050525Z AUTO 00000KT 10SM CLR 20/20 A3012 RMK AO2 T02040196
KCQB 050510Z AUTO 14004KT 10SM CLR 23/21 A3000 RMK AO2 T02350215
KALK 050456Z AUTO 22008KT 10SM FEW065 25/14 A3024 RMK AO2 SLP141 T02500144
KVDI 050515Z AUTO 00000KT 10SM CLR 24/22 A3002 RMK AO2
KDVL 050456Z AUTO 33005KT 10SM CLR 19/18 A2985 RMK AO2 TSE01RAE12 SLP105 P0000 T01940178 403000194
KHOP 050455Z AUTO 00000KT 10SM CLR 26/20 A3005 RMK AO2 SLP170 T02590200
KANK 050515Z AUTO 27009KT 10SM CLR 17/03 A3030 RMK AO2 T01660026 $
KDSF 050525Z AUTO 00000KT 9SM CLR 30/24 A2999 RMK A01
KHWD 050454Z AUTO 26007KT 10SM BKN017 14/10 A3013 RMK AO2 SLP214 T01440100
KQFB 050530Z AUTO 28006G10KT 9999 CLR 35/20 A2973 RMK A02 TSNO
KRPJ 050515Z AUTO 00000KT 10SM CLR 21/19 A3007 RMK AO2 T02080191
KRYM 050455Z AUTO 05004KT 10SM VCTS BKN011 OVC065 22/21 A2981 RMK AO2 RAB0358E33 TSB0355E31 CIG 011V070 BKN V SCT SLP090 P0051 T02170205 $
KBIF 050455Z AUTO 29007KT 10SM CLR 32/09 A3007 RMK AO2 SLP104 T03190094 $
KBTM 050453Z AUTO 17004KT 9SM CLR 11/09 A3017 RMK AO2 SLP170 T01110089
KMHK 050452Z AUTO 19007KT 10SM SCT100 27/21 A2995 RMK AO2 SLP130 T02670211
KBTP 050456Z AUTO 00000KT 10SM CLR 19/17 A3017 RMK AO2 SLP214 T01940172 $
KJYR 050515Z AUTO 20007KT 10SM FEW045 BKN110 24/23 A2993 RMK AO2
KTRM 050452Z AUTO 33012G17KT 10SM CLR 34/10 A2983 RMK AO2 SLP104 T03440100 TSNO
KMGR 050515Z AUTO 06004KT 10SM FEW280 25/24 A3000 RMK AO2 T02450239 $
KFSO 050515Z AUTO 18003KT 10SM 15/15 A3013 RMK AO2 T01510145
KCUB 050453Z AUTO 00000KT 10SM CLR 24/20 A3006 RMK AO2 SLP177 T02390200 403390233
KSVR 050515Z AUTO 21004KT 2 1/2SM HZ SCT002 BKN027 20/12 A3008 RMK AO2 VIS 1 3/4V5
KFFT 050453Z AUTO A3011 RMK AO2 SLPNO PWINO
KS24 050515Z AUTO 00000KT 10SM OVC110 25/23 A3010 RMK AO2
KI67 050515Z AUTO 00000KT 3SM CLR 21/21 A3012 RMK AO1
KFFL 050515Z AUTO 16006KT 10SM CLR 25/25 A3002 RMK A01
KOKC 050452Z 16008KT 10SM FEW014 23/22 A2998 RMK AO2 SLP139 T02330222
KCNK 050455Z AUTO 18011KT 10SM CLR 26/22 A2994 RMK AO2 SLP118 T02560217
KEYW 050453Z AUTO 22010KT 10SM FEW025 29/25 A3000 RMK AO2 SLP164 T02890250 403060261 $
KOWA 050515Z AUTO 16010KT 10SM CLR 25/22 A2990 RMK AO2 T02520219
KMWN 050452Z 31020KT 1/16SM FG VV001 05/05 RMK STARS DMLY VSBL 400560024
K54J 041715Z AUTO 00000KT 10SM CLR 33/20 A3001 RMK AO2 T03250195
KLBT 050456Z AUTO 01005KT 5SM BR CLR 23/22 A3008 RMK AO2 SLP182 T02280222 403440222 PNO $
KTQE 050454Z AUTO 16004KT 9SM FEW055 24/23 A2989 RMK AO2 LTG DSNT N SLP107 T02440228
KSAW 050518Z AUTO 19010KT 10SM CLR 23/22 A2991 RMK AO2
KPTT 050515Z AUTO 17011KT 10SM BKN100 25/22 A3000 RMK AO2 T02500220
KEAN 050515Z AUTO 00000KT 10SM CLR 16/11 A3016 RMK AO2 T01630110
KCMY 050455Z AUTO 00000KT 10SM CLR 22/21 A2996 RMK AO2 SLP143 T02220205 403330206
K1JM 050455Z AUTO 00000KT 10SM M 14/14 A3004 RMK AO2 SLP160 T01430137 $
KFOE 042253Z 16015G20KT 10SM CLR 32/20 A2994 RMK AO2 SLP126 T03220200 $
KPVD 050451Z 31003KT 6SM HZ CLR 18/13 A3013 RMK AO2 SLP201 T01780133 402720161 $
KUNI 050515Z AUTO 00000KT 10SM CLR 20/18 A3015 RMK AO2 T01950180 TSNO
KLYO 050515Z AUTO 17013G18KT 10SM BKN085 24/22 A2996 RMK AO2 T02420219
K0VG 050515Z AUTO 00000KT 10SM CLR 19/19 A3016 RMK AO2
KBVS 050515Z AUTO 19006KT 10SM CLR 13/07 A3016 RMK A01
K2M2 050510Z AUTO 00000KT 7SM CLR 23/21 A3007 RMK A01
KCAO 050455Z AUTO 22005KT 10SM CLR 21/14 A3007 RMK AO2 SLP111 T02060144 $
KJBR 050453Z AUTO 00000KT 8SM CLR 24/21 A3004 RMK AO2 SLP169 T02440206 $
KVTI 050515Z AUTO 16006KT 10SM CLR 24/22 A3000 RMK AO2 T02370221
KBXK 050515Z AUTO 24008KT 10SM CLR 32/14 A2994 RMK AO2
KAIT 050516Z AUTO 02006KT 2SM +RA BKN003 OVC038 20/19 A2987 RMK AO2 VIS 1 1/4V5 LTG DSNT ALQDS
K1R8 050510Z AUTO 00000KT 10SM BKN060 25/23 A3000 RMK AO2
KEEO 050453Z AUTO 01016G21KT 10SM SCT110 19/07 A3023 RMK AO2 SLP147 T01940067
KMQB 050515Z AUTO 17003KT 10SM CLR 22/21 A3007 RMK AO2 T02200210
K48I 050515Z AUTO 00000KT 9SM CLR 18/18 A3018 RMK AO2 T01780178 $
KALS 050452Z AUTO 29005KT 10SM CLR 19/03 A3029 RMK AO2 SLP150 T01890033
KCPK 050535Z AUTO 00000KT 4SM BR CLR 18/17 A3013 RMK AO2 T01770170
KF46 050515Z AUTO 13005KT 10SM CLR 23/22 A3000 RMK AO2 T02280217
KMEV 050510Z AUTO VRB04KT 10SM CLR 16/M00 A3018 RMK AO2
KHMN 050455Z AUTO 12008KT 10SM CLR 27/09 A3008 RMK AO2 SLP103 T02740088 $
KCYS 050528Z AUTO 02009KT 10SM VCTS SCT090 BKN110 17/09 A3024 RMK AO2 LTG DSNT E T01670094
KSNT 050451Z AUTO 00000KT 10/08 A3021 RMK AO1 SLP164 T01000078
KEDU 050515Z AUTO 20008KT 10SM CLR 16/08 A3002 RMK AO1
KPQL 050453Z AUTO 00000KT 5SM BR CLR 23/22 A3000 RMK AO2 SLP159 T02280222
KSYM 050515Z AUTO 00000KT 10SM CLR 24/18 A3015 RMK AO2
KAXH 050515Z AUTO 00000KT 5SM BR CLR 27/26 A3000 RMK AO2 T02670260
KPIE 050453Z AUTO 36005KT 8SM FEW014 24/22 A2996 RMK AO2 RAE22 SLP143 P0002 T02390222 403170239
KBOS 050454Z 00000KT 10SM FEW070 21/12 A3013 RMK AO2 SLP203 T02060122 402720183
KHKY 050453Z AUTO 03003KT 5SM HZ CLR 22/19 A3014 RMK AO2 SLP183 T02220189 403220206
KIZG 050454Z AUTO VRB04KT 10SM CLR 17/10 A3012 RMK AO2 SLP198 T01720100 402440128
KD50 050415Z AUTO 32008KT 10SM CLR 14/09 A2999 RMK AO2
KBRG 050515Z AUTO 31008KT 10SM 24/04 A3017 RMK AO2 T02430043
KMQY 050456Z AUTO 00000KT 6SM HZ CLR 24/22 A3008 RMK AO2 SLP188 T02440217 403440194
KUNO 050453Z AUTO 00000KT 9SM CLR 22/20 A3009 RMK AO2 SLP175 T02220200
KMRH 050458Z AUTO 03004KT 10SM CLR 26/24 A3008 RMK AO2 SLP187 T02560239 403170244
KCCA 050535Z AUTO 00000KT 7SM CLR 23/23 A3005 RMK AO2
KCNC 050515Z AUTO 15006KT 10SM CLR 23/22 A2999 RMK AO2
KBYY 050515Z AUTO 15006KT 10SM 27/26 A2995 RMK AO2 T02750264 $
KTQH 050515Z AUTO 00000KT 10SM 23/21 RMK AO2
KUNV 050515Z AUTO 00000KT 10SM CLR 17/13 A3018 RMK AO2 T01650125
KDUX 050515Z AUTO 13011KT 10SM CLR 22/20 A3002 RMK AO2 T02190203
K1CW 050455Z AUTO 21004KT 10SM CLR 18/13 A3009 RMK AO2 LTG DSNT W SLP135 T01760129 PWINO $
KMHS 050456Z AUTO 00000KT 10SM SCT075 16/09 A3014 RMK AO2 SLP203 T01560094
K22N 050515Z AUTO 00000KT 7SM CLR 13/12 A3018 RMK AO2
KFXY 050515Z AUTO 15007KT 10SM SCT080 24/21 A2994 RMK AO2
KMIC 050453Z AUTO 18009KT 10SM SCT120 28/20 A2985 RMK AO2 SLP100 T02830200
KSNK 050535Z AUTO 16005KT 10SM CLR 25/23 A2998 RMK AO2 T02460230
KICL 050515Z AUTO 19004KT 10SM CLR 24/22 A2997 RMK AO2
KATW 050515Z AUTO 21007KT 10SM CLR 25/22 A2999 RMK AO2
KFEW 050455Z AUTO 36004KT 10SM FEW130 18/08 A3022 RMK AO2 LTG DSNT W SLP149 T01790076 $
KBRD 050531Z AUTO VRB03KT 3SM VCTS -RA BR FEW012 BKN044 OVC070 21/20 A2986 RMK AO2 LTG DSNT NE AND S P0015 T02110200
KTTN 050453Z AUTO 31004KT 7SM CLR 18/17 A3013 RMK AO2 SLP197 T01830167 402780167
KALO 050454Z AUTO 17009KT 10SM CLR 26/21 A2997 RMK AO2 SLP140 T02610206 $
KSHL 050515Z AUTO 31005KT 5SM RA FEW002 BKN008 OVC032 22/22 A2988 RMK AO2
KDXR 050453Z AUTO 24004KT 8SM CLR 16/13 A3016 RMK AO2 SLP210 T01560133 402780144
KHLX 050515Z AUTO 00000KT 10SM CLR 21/15 A3024 RMK AO2
KDEC 050454Z AUTO 00000KT 9SM CLR 23/21 A3008 RMK AO2 SLP179 T02280206
KPOU 050453Z 00000KT 3SM BR CLR 16/14 A3014 RMK AO2 SLP203 T01560139 402830139
K1OM 050455Z AUTO 35004KT 10SM SCT090 OVC120 20/11 A2999 RMK AO2 SLP131 T01970109 $
KPIT 050451Z 00000KT 6SM HZ FEW100 SCT250 22/17 A3016 RMK AO2 SLP210 T02170172 402940178 $
KLLQ 050453Z AUTO 00000KT 10SM CLR 26/22 A3003 RMK AO2 SLP164 T02610217
KBML 050452Z AUTO 00000KT 10SM CLR 09/08 A3015 RMK AO2 SLP214 T00890078 402170089 $
KP08 050515Z AUTO 00000KT 10SM CLR 33/16 A2998 RMK AO2
KSTC 050453Z AUTO 18009KT 10SM BKN050 OVC070 27/21 A2983 RMK AO2 LTG DSNT NW SLP100 T02720206 $
KMEZ 050515Z AUTO 00000KT 8SM CLR 22/22 A3003 RMK AO2 T02210216
KK82 050515Z AUTO 14008KT 10SM SCT055 SCT070 BKN090 24/23 A2994 RMK AO2 T02360226
K1P1 050535Z AUTO 00000KT 10SM CLR 12/10 A3015 RMK AO2 T01150100
KY63 050515Z AUTO 00000KT 10SM SCT046 22/21 A2985 RMK AO2 T02150205
KRYW 050515Z AUTO 10006KT 1/2SM +TSRA OVC004 23/23 A3002 RMK AO2 LTG DSNT SW AND W P0082 T02320232
KDIJ 050456Z AUTO 06003KT 10SM CLR 13/06 A3022 RMK AO2 SLP187 T01280061 $
K9L2 050455Z AUTO 20008KT 10SM CLR 25/06 A3004 RMK AO2 SLP146 T02520064
KFTK 050455Z AUTO 00000KT 10SM CLR 22/21 A3007 RMK AO2 SLP176 T02240207 403320188 $
KWDG 050515Z AUTO 09008KT 025V145 7SM 23/23 A2996 RMK AO2
KM30 050515Z AUTO 00000KT 5SM BR CLR 23/23 A3006 RMK AO2 T02300225
K1A9 050515Z AUTO 00000KT 10SM CLR 23/23 A3002 RMK AO2 T02300230
KCDS 050453Z AUTO 14009KT 10SM CLR 24/22 A2996 RMK AO2 SLP120 T02390217
KART 050456Z AUTO 00000KT 10SM CLR 13/10 A3014 RMK AO2 SLP203 T01280100 402330094 PNO $
KNDZ 050456Z AUTO 00000KT 10SM CLR 25/23 A3000 RMK AO2 SLP142 T02500233 $
KHEZ 050456Z AUTO 00000KT 10SM CLR 24/23 A3004 RMK AO2 SLP169 T02440233 403220222 $
KBYS 050455Z AUTO 20013KT 10SM CLR 29/04 A3000 RMK AO2 SLP128 T02890037 $
K21D 050515Z AUTO 18008KT 10SM CLR 25/20 A2989 RMK AO2
KGDK 050515Z AUTO 00000KT 10SM BKN065 BKN085 22/21 A3012 RMK AO2
K4V1 050515Z AUTO 25008KT 10SM CLR 18/09 A3020 RMK AO2
K1MM 050455Z AUTO 20006KT 10SM -RA FEW060 SCT080 OVC100 15/12 A3006 RMK AO2 RAE0355RAB13E40RAB50 SLP158 P0000 T01530122 $
KIIY 050515Z AUTO 00000KT 10SM CLR 23/21 A3008 RMK AO2 T02250207
KHSB 050515Z AUTO 00000KT 10SM CLR 23/21 A3007 RMK AO2 T02260208
KCCB 050510Z AUTO 28008KT 7SM 22/15 A3005 RMK AO2
KRZR 050510Z AUTO 00000KT 4SM BR CLR 22/22 A3007 RMK A01
KXSA 050515Z AUTO 00000KT 10SM CLR 17/17 A3015 RMK AO2 T01700170
KLUX 050515Z AUTO 00000KT 10SM CLR 21/20 A3009 RMK AO2
KW43 050510Z AUTO 22003KT 10SM CLR 17/13 A3006 RMK AO2
KPUB 041953Z A2996 RMK AO2 SLPNO RVRNO $
KSWO 050453Z AUTO 16008KT 10SM CLR 25/22 A2999 RMK AO2 SLP141 T02500222 $
KBAX 050515Z AUTO 19005KT 10SM CLR 21/19 A3006 RMK AO2 T02140193
KNFL 050457Z AUTO 30010KT 10SM CLR 22/M01 A3011 RMK AO2 SLP163 T02221011
KT35 050515Z AUTO 16004KT 10SM OVC100 26/23 A2998 RMK AO2 T02620226
KHIF 050455Z 10016G23KT 10SM FEW150 20/10 A3006 RMK AO2A SLP118 T01970098 $
KE16 050515Z AUTO 32010G19KT 10SM CLR 15/08 A3015 RMK AO2
KLKV 040053Z AUTO 20010KT 6SM -TSRA BKN095 BKN110 24/08 A2993 RMK AO2 LTG DSNT SE-SW TSB33RAB43 SLP099 P0000 T02390078
KSPK 050515Z AUTO 22004KT 10SM CLR 18/14 A3006 RMK AO2
KCXY 050456Z AUTO 25004KT 10SM CLR 18/15 A3015 RMK AO2 SLP209 T01830150 402830156
KPCZ 050515Z AUTO 19003KT 10SM CLR 25/22 A2998 RMK AO2 T02460216
KMIW 050453Z AUTO 15006KT 10SM CLR 24/21 A2998 RMK AO2 SLP141 T02440206
K8D3 050456Z AUTO 00000KT 22/20 A2978 RMK AO1 SLP062 P0002 T02170200 $
KSRQ 050453Z AUTO 09004KT 10SM CLR 24/23 A2993 RMK AO2 LTG DSNT E AND SE RAE27 TSE18 SLP133 P0003 T02390233 402890233 $
KMTO 050453Z AUTO 15004KT 10SM CLR 24/21 A3008 RMK AO2 SLP178 T02390206 $
KMHL 050515Z AUTO 00000KT 10SM CLR 23/22 A3003 RMK AO2
KE11 050515Z AUTO 17009KT 10SM CLR 25/22 A3001 RMK AO2 T02500220
KACJ 050515Z AUTO 00000KT 7SM CLR 25/22 A2999 RMK AO2 T02510224
KPEX 050515Z AUTO 00000KT 10SM -RA SCT041 BKN060 OVC090 22/21 A2985 RMK AO2 P0004
KMEM 050454Z 00000KT 10SM CLR 26/20 A3004 RMK AO2 SLP166 T02610200 $
KCTY 050515Z AUTO 32002KT 10SM SCT024 BKN031 24/23 A2995 RMK AO2
KHLG 050453Z AUTO 13004KT 10SM CLR 22/16 A3016 RMK AO2 SLP207 T02170156 402890172
KRUT 050456Z AUTO 13007KT 10SM CLR 13/11 A3018 RMK AO2 SLP213 T01280111 402280122 $
KJAX 050456Z 04007KT 10SM SCT019 BKN033 OVC250 27/23 A2994 RMK AO2 SLP138 T02670233 403280228 $
KNRN 050515Z AUTO 12006KT 10SM OVC022 24/22 A2992 RMK AO2
KRHV 050450Z 32007 10SM SKC 16/08 A3015 RMK LAST
KDYT 050515Z AUTO VRB04G19KT 2 1/2SM -RA HZ FEW021 FEW033 OVC047 23/20 A2983 RMK AO2
KFPK 050515Z AUTO 17003KT 7SM BR CLR 20/19 A3008 RMK AO2
KEAU 050456Z AUTO 18008KT 10SM CLR 26/20 A2992 RMK AO2 SLP125 T02610200
KBYL 050515Z AUTO 00000KT 2SM CLR 19/19 A3013 RMK AO1
KPIB 050456Z AUTO 00000KT 10SM CLR 23/22 A3004 RMK AO2 SLP170 T02330222
KFTW 050453Z 14010KT 4SM BR BKN012 OVC060 24/22 A2998 RMK AO2 SLP141 T02390217
KXLL 050515Z AUTO 00000KT 7SM CLR 17/15 A3016 RMK AO2 TSNO
KACB 050515Z AUTO 19003KT 10SM CLR 24/20 A3000 RMK AO2 T02380202
K41U 151955Z AUTO 23015G23KT 10SM SCT075 BKN100 15/M02 A3002 RMK AO1 T01451019
K2G9 050515Z AUTO 26003KT 10SM CLR 15/13 A3023 RMK AO2
KISM 050456Z AUTO 19004KT 9SM CLR 24/23 A2995 RMK AO2 SLP140 T02390228 PNO $
KGRB 050453Z 20006KT 10SM CLR 26/22 A2997 RMK AO2 SLP143 T02560222 $
KHZE 050515Z AUTO 02007KT 10SM OVC043 21/10 A2996 RMK AO2
K5T9 050515Z AUTO 06004KT 10SM CLR 26/26 A2992 RMK A01
KLMO 050515Z AUTO 01004KT 10SM BKN110 24/09 A3015 RMK AO2 T02410087
KHND 050456Z AUTO 22006KT 10SM CLR 33/M01 A2997 RMK AO2 SLP131 T03281006 $
KPAN 050515Z AUTO 24005KT 10SM CLR 24/10 A3027 RMK AO2
K8B0 041815Z AUTO 30012G19KT 260V320 10SM FEW036 FEW041 BKN055 17/08 A3002 RMK AO2
KPGA 050453Z AUTO 20006KT 10SM CLR 29/M01 A3009 RMK AO2 SLP120 T02891006 TSNO
KGFA 050455Z AUTO 11004KT 10SM FEW110 OVC130 15/13 A3004 RMK AO2 RAB0355E33 SLP165 P0000 T01520129 $
KGNB 050515Z AUTO 15004KT 10SM SCT080 BKN110 12/08 A3041 RMK AO2 T01230081
KEKN 050451Z AUTO 00000KT 3SM BR CLR 16/16 A3023 RMK AO2 SLP225 T01610161 402940156
KATS 050515Z AUTO 24009KT 10SM CLR 26/19 A3002 RMK AO2
KGOO 050515Z AUTO 11005KT 10SM CLR 18/02 A3014 RMK A01
KAFN 050452Z AUTO 00000KT 10SM CLR 12/11 A3018 RMK AO2 SLP223 T01170106 402440117
KCSM 050527Z AUTO 16010KT 10SM BKN013 23/21 A2999 RMK AO2 T02330211
KGDV 050456Z AUTO 04016G25KT 10SM CLR 22/08 A3000 RMK AO2 SLP138 T02220083 TSNO
KE01 050515Z AUTO 15013KT 10SM CLR 27/25 A2997 RMK AO2
K2R2 050515Z AUTO 00000KT CLR 22/22 A3013 RMK AO2 T02150215 PWINO $
KMGM 050453Z AUTO 00000KT 6SM BR BKN060 BKN070 BKN095 24/23 A3003 RMK AO2 SLP165 T02390228 TSNO
KLLN 050515Z AUTO 16009KT 10SM CLR 24/21 A3002 RMK AO2
KRME 050453Z AUTO 11003KT 10SM CLR 14/12 A3018 RMK AO2 SLP217 T01390117 402440122 PWINO $
KDGW 050453Z AUTO 28009KT 10SM CLR 14/11 A3012 RMK AO2 SLP144 T01390111
KMCJ 050535Z AUTO 14013KT 7SM SCT021 BKN120 27/25 A2997 RMK A01
K7BM 050513Z AUTO 29003KT 10SM CLR 15/01 A3051 RMK AO2
KMOX 050515Z AUTO 17005KT 10SM SCT004 BKN055 OVC110 22/22 A2980 RMK AO2 TSNO
KOFK 042256Z AUTO 19008KT 10SM CLR 29/21 A2988 RMK AO2 LTG DSNT W SLP105 T02890211 $
KATY 050525Z AUTO 18007KT 10SM BKN012 BKN018 BKN100 22/21 A2983 RMK AO2 T02170211
KPLR 050515Z AUTO 00000KT 3SM BR OVC060 23/23 A3006 RMK A01
KGOK 050453Z AUTO 18008KT 9SM CLR 25/22 A2997 RMK AO2 SLP140 T02500217 $
KBPI 050453Z AUTO 04011KT 10SM CLR 12/09 A3029 RMK AO2 WSHFT 0343 RAE03 TSE00 SLP169 P0000 T01220089 $
KJQF 050525Z AUTO 09003KT 10SM CLR 23/19 A3015 RMK AO2
KELO 050515Z AUTO 32004KT 7SM +RA SCT006 SCT028 OVC050 19/19 A2987 RMK AO2
KHZY 050453Z AUTO 00000KT 10SM CLR 19/18 A3012 RMK AO2 SLP193 T01940178 402940133
KUBE 050515Z AUTO 18007KT 10SM CLR 25/20 A2991 RMK AO2
KU19 050455Z AUTO 05011KT 10SM CLR 25/08 A2999 RMK AO2 SLPNO T02480079 $
KBQP 050515Z AUTO 00000KT 10SM CLR 24/23 A3003 RMK AO2 T02370229 PWINO
KMVN 050532Z AUTO 00000KT 1 1/4SM BR CLR 21/21 A3008 RMK AO2 VIS 3/4V2
KORS 050515Z AUTO 16008G14KT 10SM CLR 15/10 A3010 RMK AO2
KEBG 050515Z AUTO 16012KT 8SM BKN014 27/25 A2994 RMK AO2
KMLT 050453Z AUTO 24003KT 10SM CLR 13/13 A3000 RMK AO2 SLP165 T01330128 402060133
KSDC 050535Z AUTO 00000KT 10SM CLR 15/12 A3014 RMK AO2
KAIZ 050456Z AUTO 15003KT 10SM CLR 25/21 A3005 RMK AO2 SLP167 T02500211 403220200
KW81 050515Z AUTO 00000KT 7SM CLR 19/17 A3015 RMK AO1 T01850170
KMWC 050515Z AUTO 00000KT 4SM BR CLR 24/22 A3005 RMK AO2
KGBD 050456Z AUTO 16012KT 10SM FEW080 25/22 A2996 RMK AO2 SLP127 T02500217
KMSL 050453Z AUTO 00000KT 10SM CLR 25/22 A3006 RMK AO2 SLP170 T02500222
KOMK 050453Z AUTO 16012KT 10SM CLR 24/06 A2996 RMK AO2 SLP135 T02390061
KSHR 050453Z AUTO 21003KT 10SM CLR 17/10 A3006 RMK AO2 SLP142 T01670100
KMZH 050515Z AUTO 04003KT 10SM BKN042 OVC050 24/18 A2985 RMK AO2 LTG DSNT N
KC65 050515Z AUTO 00000KT 9SM CLR 22/21 A3010 RMK A01
KS21 050510Z AUTO 23004KT 10SM BKN055 OVC065 13/05 A3023 RMK AO2
KBID 050456Z AUTO 31004KT 10SM CLR 18/15 A3012 RMK AO2 SLP200 T01830150 402610167 $
KPKB 050453Z AUTO 00000KT 6SM BR CLR 21/19 A3015 RMK AO2 SLP202 T02110189 403220172
KEDC 050515Z AUTO 14007KT 3SM -RA BR FEW026 BKN055 OVC090 25/25 A2995 RMK AO2
KECS 050515Z AUTO 02007KT 10SM CLR 17/12 A3002 RMK AO2
KGUC 050456Z AUTO 34005KT 10SM CLR 14/06 A3035 RMK AO2 SLP195 T01390056 $
KEGE 050456Z AUTO VRB03KT 10SM CLR 21/06 A3026 RMK AO2 SLP154 T02110061 $
KPLN 050454Z AUTO 15003KT 6SM BR CLR 20/19 A2998 RMK AO2 SLP148 T02000189 403000072
KATT 050515Z AUTO 14005KT 3SM -RA BR BKN020 BKN048 OVC095 24/24 A2998 RMK AO2 P0000 T02440239
KBHK 050451Z AUTO 04006KT 10SM CLR 21/19 A2999 RMK AO2 SLP133 T02060189
K8T6 050515Z AUTO 16009G16KT 9SM SCT021 BKN095 OVC120 27/27 A2994 RMK AO2
KXIF 050455Z AUTO 00000KT 10SM CLR 16/15 A3017 RMK AO2 SLP216 T01620149 402860145 $
KNJK 050456Z AUTO 22007KT 10SM CLR 32/13 A2989 RMK AO2 SLP135 T03220133 $
KDHN 050453Z AUTO 01003KT 10SM SCT060 25/23 A3004 RMK AO1 SLP164 T02500228
KWLD 050454Z AUTO 16009KT 10SM CLR 24/22 A2999 RMK AO2 SLP144 T02440222 $
KQYC 150155Z 12006KT 7SM CLR 28/M07 A2989 RMK SLP108 T02751075
K2G4 050525Z AUTO 09004KT 10SM CLR 19/14 A3025 RMK AO2
K24A 050525Z AUTO 00000KT 10SM CLR 19/17 A3024 RMK AO2 LTG DSNT SE T01860166
KGEZ 050453Z AUTO 09003KT 7SM CLR 22/20 A3011 RMK AO2 SLP187 T02170200 403170189
KFIT 050452Z AUTO 35003KT 8SM CLR 15/13 A3016 RMK AO2 SLP210 T01500128 402670139 $
KMDT 050456Z 00000KT 6SM HZ FEW250 21/16 A3014 RMK AO2 SLP205 T02060161 402890178
KCLK 050535Z AUTO 16009KT 10SM CLR 23/20 A2999 RMK AO2
KEKX 050515Z AUTO 00000KT 7SM CLR 21/20 A3010 RMK AO2 T02110200
KSCX 050515Z AUTO 00000KT 10SM CLR 21/19 A3013 RMK A01
KIKG 050515Z AUTO 13012KT 10SM SCT110 27/24 A2995 RMK AO2 T02700236
K3K3 050515Z AUTO 13011KT 10SM CLR 21/21 A3002 RMK AO2
K0A0 050515Z AUTO 13006KT 10SM CLR 25/10 A3010 RMK AO2 PWINO
KNBT 050451Z AUTO 07010KT 10SM CLR 27/22 A3009 RMK AO2 SLP193 T02720217 403060239
KQHY 050455Z AUTO 00000KT 10SM CLR 28/23 A2999 RMK AO2 SLP162 T02830227
KMGJ 050454Z AUTO 00000KT 10SM CLR 13/12 A3016 RMK AO2 SLP210 T01330122 402780128
KPSM 050455Z 28004KT 10SM SCT250 17/11 A3011 RMK AO2A SLP198 T01700113 402620155
K7W6 050525Z AUTO 00000KT 10SM CLR 22/21 A3010 RMK AO2 T02160210
KOWI 050515Z AUTO 17007KT 10SM OVC110 26/22 A2998 RMK AO2 PWINO
KMCC 050515Z AUTO 17010KT 10SM CLR 18/08 A3004 RMK AO2
KAEG 050515Z AUTO 31008KT 10SM CLR 22/03 A3022 RMK AO2 T02180031
KHHV 050515Z AUTO 7SM SCT020 A2999 RMK A01
KORB 050453Z AUTO 12006KT 10SM -RA 18/18 A2977 RMK AO2 LTG DSNT SE P0020
KONO 050453Z AUTO 01008KT 10SM SCT090 OVC120 17/12 A3004 RMK AO2 PRESFR SLP167 T01670122
KFPR 050453Z 24004KT 10SM OVC110 24/23 A2995 RMK AO2 SLP140 T02440233 403220239
KTPL 050451Z AUTO 17010KT 9SM BKN070 OVC090 26/22 A2998 RMK AO2 SLP143 T02560222 $
KMMK 050525Z AUTO 00000KT 2SM BR CLR 15/14 A3014 RMK AO2 T01500144
KL35 050515Z AUTO 00000KT 10SM CLR 15/00 A3034 RMK AO2
KEED 050456Z AUTO 20006KT 10SM CLR 36/11 A2988 RMK AO2 SLP078 T03610111
KNOG 050456Z AUTO 11014G21KT 9SM CLR 26/24 A2996 RMK AO2 PK WND 10026/0431 SLP123 T02610244 PNO $
KUUU 050453Z AUTO 00000KT 6SM BR CLR 16/15 A3011 RMK AO2 SLP195 T01610150 402610161
KEVB 050147Z 31003KT 10SM FEW026 BKN033 26/25 A2995 RMK LAST
KGWR 050515Z AUTO 21004KT 10SM FEW019 21/21 A2982 RMK A01
KLVL 050515Z AUTO 00000KT 10SM CLR 22/19 A3015 RMK AO1 T02210187
KHZL 050515Z AUTO 00000KT 3SM BR CLR 12/11 A3022 RMK AO2
KBFF 050453Z AUTO 03008KT 10SM CLR 22/12 A3004 RMK AO2 SLP123 T02170122
KONM 050515Z AUTO 29011G15KT 10SM CLR 29/M01 A3013 RMK AO2 T02861009
KJOT 050515Z AUTO 00000KT 10SM CLR 25/21 A3007 RMK AO2 T02510206
KBKB 050449Z AUTO 00000KT 7SM CLR 24/23 A3000 RMK AO2 SLP185 T02390233
KAXA 050515Z AUTO 16011G17KT 10SM OVC075 26/23 A2991 RMK A01
KEGI 050455Z AUTO 02003KT 10SM CLR 25/23 A2999 RMK AO2 SLP154 T02510226 $
KEWR 050451Z 33009KT 10SM FEW250 24/11 A3012 RMK AO2 SLP200 T02440111 403060183 $
KMAO 050515Z AUTO 04003KT 10SM CLR 22/22 A3007 RMK AO2
KEKS 050515Z AUTO VRB03KT 10SM CLR 10/08 A3020 RMK AO2
K77S 050515Z AUTO 24003KT 10SM FEW050 17/08 A3017 RMK A01
KMSY 050453Z 25003KT 10SM FEW002 FEW030 SCT250 26/24 A3000 RMK AO2 SLP163 FU FEW002 T02610239 $
KJSY 050515Z AUTO 00000KT 10SM OVC065 12/09 A3016 RMK AO2 T01160088
KANE 050515Z AUTO 19010KT 10SM CLR 29/19 A2986 RMK AO2
K4A6 050515Z AUTO 00000KT 10SM CLR 24/22 A3008 RMK AO2
KRSV 021249Z AUTO VRB03KT 10SM CLR 23/20 A3004 RMK AO2
KBUY 050454Z AUTO 00000KT 8SM CLR 19/19 A3013 RMK AO2 SLP196 T01940189 403170194
KCDI 050515Z AUTO 00000KT 10SM CLR 19/19 A3015 RMK AO2 T01900187
KOSU 050453Z AUTO 00000KT 10SM CLR 24/17 A3013 RMK AO2 SLP195 T02390172 403280194
KM08 050520Z AUTO 00000KT 9SM 22/22 A3004 RMK A01
KCKM 050515Z AUTO 00000KT 5SM HZ A3003 RMK A01
KSEG 050453Z AUTO 00000KT 5SM BR CLR 17/16 A3016 RMK AO2 SLP210 T01670161 402720139
KHYX 050515Z AUTO 22005KT 10SM FEW055 23/20 A3005 RMK AO2
KAEL 050515Z AUTO 18009KT 10SM CLR 26/22 A2993 RMK AO2 TSNO
KMIB 050455Z 34006KT 10SM CLR 20/10 A2991 RMK AO2A SLP123 T01960095 $
KXNI 050515Z AUTO 31006KT 10SM CLR 18/01 A3030 RMK AO2
KHQG 050515Z AUTO 09004KT 10SM CLR 20/18 A3000 RMK AO2 TSNO
KLRF 050455Z AUTO 16003KT 10SM CLR 25/23 A3000 RMK AO2 SLP157 T02450227 $
KTIW 050453Z 25007KT 10SM FEW075 16/10 A3014 RMK AO2 SLP206 T01610100
KNQA 050450Z 07005KT 10SM CLR 23/23 A3001
KD95 050515Z AUTO 00000KT 7SM CLR 20/20 A3009 RMK AO2
KOCW 050520Z AUTO 00000KT 10SM CLR 21/19 A3012 RMK AO2 T02100189
KBWP 050515Z AUTO 14007KT 10SM CLR 21/21 A2980 RMK AO2
KJHW 050456Z AUTO 18003KT 8SM CLR 17/16 A3018 RMK AO2 SLP218 T01670161 402440111 PNO $
KTOB 050515Z AUTO 17010KT 10SM CLR 24/21 A2994 RMK AO2
KD39 050515Z AUTO 16005KT 10SM +RA SCT035 BKN044 BKN060 21/21 A2986 RMK AO2 LTG DSNT S P0004 T02130213
K36K 050515Z AUTO 15009KT 10SM SCT031 BKN039 OVC046 19/19 A3005 RMK AO2
KSFQ 050515Z AUTO 00000KT 10SM CLR 20/19 A3015 RMK AO2 T01950189
KMTP 050454Z AUTO 26004KT 22/18 A3013 RMK AO1 SLP203 T02170183 402780200
KMAN 050515Z AUTO 32007KT 9SM SCT120 18/16 A3010 RMK A01
KBFI 050453Z 20003KT 10SM BKN080 19/10 A3013 RMK AO2 SLP203 T01940100
KXNX 050515Z AUTO 00000KT BKN070 24/22 A3009 RMK A01
KRQO 050515Z AUTO 16009KT 10SM SCT014 23/ A2999 RMK AO2
KGJT 050453Z AUTO 00000KT 10SM CLR 23/08 A3008 RMK AO2 SLP116 T02330083
KSME 050515Z AUTO 00000KT 8SM CLR 22/22 A3010 RMK AO2
KRAS 050515Z AUTO 17018KT 10SM BKN018 29/25 A2997 RMK AO2 T02850246
KHVR 050453Z AUTO A3001 RMK AO2 SLPNO PWINO PNO $
KPVF 050515Z AUTO 00000KT 10SM CLR 17/03 A3015 RMK AO1
KBPT 050453Z 20006KT 10SM FEW110 27/25 A3000 RMK AO2 RAB25E39 SLP159 P0000 T02670250
KVNY 050451Z 09005KT 9SM CLR 22/13 A3002 RMK AO2 SLP157 T02220128
KWVI 050453Z AUTO 10005KT 7SM CLR 14/09 A3013 RMK AO2 SLP203 T01390089
KRNH 050510Z AUTO 17005KT 10SM CLR 26/21 A2990 RMK AO2 T02550208
KCAR 050454Z AUTO 00000KT 10SM SCT110 13/13 A2995 RMK AO2 SLP147 T01330133 402000128
KLXY 090835Z AUTO 18003KT 4SM RA SCT006 BKN011 OVC020 19/19 A3002 RMK AO2 P0006 T01940190 TSNO
KJDD 050515Z AUTO 00000KT 8SM OVC100 22/22 A2999 RMK AO2 T02240218 $
KMKL 050453Z AUTO 00000KT 10SM CLR 23/22 A3005 RMK AO1 SLP170 T02330217
K79J 050456Z AUTO 00000KT 10SM CLR 26/22 A3001 RMK AO2 SLP155 T02560217 403560239 TSNO
KRQB 050515Z AUTO 17004KT 10SM CLR 22/18 A3006 RMK AO2 T02150182
K1HN 270355Z AUTO 09006KT 10SM SCT210 16/15 A2993 RMK AO2 LTG DSNT SW-NW SLP138 T01620149 $
KOXB 050453Z AUTO 00000KT 10SM CLR 18/18 A3015 RMK AO2 SLP209 T01830178 402720183
KAFF 050455Z 34006KT 10SM CLR 16/13 A3021 RMK AO2A SLP131 T01600127
KHII 050515Z AUTO 11009KT 10SM CLR 36/08 A2988 RMK AO2
KCAG 050453Z AUTO VRB03KT 10SM SCT110 19/08 A3025 RMK AO2 RAE0357 SLP171 P0000 T01890078
KACP 050515Z AUTO 00000KT 1 1/4SM BR SCT003 25/23 A3001 RMK AO2
KN79 050515Z AUTO 00000KT 10SM CLR 15/15 A3015 RMK AO2 T01550150
KVGC 050535Z AUTO 00000KT 5SM BR CLR 11/11 A3019 RMK AO2
KMYF 050453Z AUTO 28005KT 10SM CLR 19/16 A3005 RMK AO2 SLP170 T01940156
KP60 050456Z AUTO 00000KT 10/05 A3031 RMK AO1 SLP194 T01000050 $
KALB 050451Z 00000KT 10SM CLR 18/11 A3015 RMK AO2 SLP208 T01780111 402670150
KCQW 050515Z AUTO 00000KT 1 1/2SM BR CLR 22/22 A3008 RMK AO2
KNKT 050455Z 08005KT 10SM CLR 26/22 A3010 RMK AO2 SLP189 T02560222 403330228
KOGB 050453Z AUTO 03005KT 10SM CLR 23/21 A3006 RMK AO2 SLP176 T02330211 403390228
KD07 050456Z AUTO 36006KT 22/19 A2992 RMK AO1 SLP115 T02220194 $
KSET 050454Z AUTO 06004KT 10SM CLR 24/21 A3004 RMK AO2 SLP166 T02390211
KMYL 050451Z AUTO 00000KT 7SM CLR 12/09 A3016 RMK AO2 SLP192 T01170094 $
KCPS 050453Z AUTO 00000KT 8SM CLR 24/19 A3005 RMK AO2 SLP170 T02390194 $
K0W3 050525Z AUTO 00000KT 10SM CLR 18/17 A3015 RMK AO2 T01750175 $
KHLB 050510Z AUTO 00000KT 7SM CLR 21/21 A3013 RMK A01
KXVG 050533Z AUTO 00000KT 10SM RA SCT013 SCT042 SCT075 20/19 A2983 RMK AO2 LTG DSNT SE
KEXX 050525Z AUTO 00000KT 10SM CLR 23/19 A3013 RMK AO2 T02300185
KMUO 050455Z AUTO 28009KT 10SM CLR 17/10 A3005 RMK AO2 SLP158 T01660100 $
KSPW 050453Z AUTO 17011KT 10SM BKN080 26/21 A2989 RMK AO2 SLP109 T02610206
KCNU 050452Z AUTO 17008KT 10SM BKN110 26/22 A3001 RMK AO2 SLP147 T02610217
KDRO 050453Z AUTO 00000KT 10SM CLR 18/00 A3028 RMK AO2 SLP159 T01830000
KTDR 050455Z AUTO 00000KT 10SM SCT055 BKN080 BKN110 27/22 A2992 RMK AO2 SLP133 T02650221 $
KPSN 050515Z AUTO 8SM 23/23 A3000 RMK AO2
KGAO 050515Z AUTO 00000KT 10SM CLR 24/22 A3001 RMK AO2 T02360218
KMOR 301430Z AUTO VRB04KT A3010 RMK A01
KEWB 050453Z 00000KT 5SM BR CLR 14/14 A3011 RMK AO2 SLP195 T01390139 402610139
KFDW 050515Z AUTO 00000KT 10SM CLR 23/20 A3008 RMK AO1
KEFT 050515Z AUTO 20007KT 10SM CLR 23/21 A3005 RMK AO2 T02320205 PWINO
K20V 050515Z AUTO 00000KT 10SM CLR 12/10 A3032 RMK AO2
KNSE 050456Z AUTO 00000KT 5SM BR CLR 24/23 A3000 RMK AO2 SLP141 T02440233 $
KDLO 050515Z AUTO 31004KT 10SM CLR A2999 RMK AO2
KRNV 050515Z AUTO 00000KT 8SM CLR 24/24 A3002 RMK AO2 T02380238 $
KAHQ 050515Z AUTO 17004KT 10SM CLR 25/22 A2993 RMK AO2 T02450222
K96D 050455Z AUTO 32006KT 10SM OVC060 22/22 A2981 RMK AO2
KDRA 050453Z AUTO 16010G21KT 10SM CLR 30/03 A2999 RMK AO2 PK WND 22036/0415 SLP101 T03000033
KCSV 050453Z AUTO 00000KT 5SM BR CLR 21/19 A3016 RMK AO2 SLP191 T02060194
KOYM 050515Z AUTO 00000KT 10SM OVC100 15/13 A3023 RMK AO2 PWINO
KLDJ 050535Z AUTO 34004KT 10SM CLR 21/13 A3014 RMK AO2 T02110128
KALI 050453Z AUTO 16014G21KT 10SM -RA FEW060 SCT070 BKN100 26/24 A2993 RMK AO2 RAB37 SLP132 P0000 T02610244
KAVC 050515Z AUTO 00000KT 10SM CLR 21/20 A3020 RMK AO2 T02120202
KSBS 050515Z AUTO 03008G23KT 10SM CLR 19/06 A3026 RMK AO1 T01860057
KRQE 050453Z AUTO 00000KT 10SM CLR 18/M01 A3033 RMK AO2 SLP148 T01831006
KCAD 050515Z AUTO 22007KT 10SM CLR 22/19 A3005 RMK AO2
KSQI 281456Z AUTO 03011KT 10SM BKN070 15/12 A3009 RMK AO2 SLP187 T01500117 50003 PWINO $
KSEP 050515Z AUTO 14007KT 5SM BKN005 BKN009 OVC021 23/22 A3002 RMK AO2 T02300220
KE41 050515Z AUTO 18008KT 10SM CLR 24/22 A3003 RMK AO2 T02440220
KBKN 050515Z AUTO 13007G13KT 10SM CLR 25/23 A2997 RMK AO2
KGCC 050453Z AUTO 00000KT 10SM CLR 18/13 A3006 RMK AO2 SLP134 T01830128 TSNO $
KBNL 050515Z AUTO 00000KT 10SM CLR 23/21 A3005 RMK AO2
KPTV 050456Z AUTO 33004KT 10SM CLR 25/11 A3000 RMK AO2 SLP154 T02500111
KSKF 050455Z AUTO 13006KT 7SM OVC014 27/24 A2993 RMK AO2 OVC V BKN SLP128 T02670239 $
KHKA 050453Z AUTO 00000KT 10SM CLR 26/22 A3003 RMK AO2 SLP166 T02610217 $
KENV 050456Z AUTO 28007KT 10SM CLR 21/09 A3005 RMK AO2 SLP139 T02110094
KUAO 050453Z AUTO 35007KT 10SM CLR 18/07 A3018 RMK AO2 SLP218 T01780072
KMIE 050528Z AUTO 00000KT 3SM HZ CLR 22/19 A3013 RMK AO2 T02220194
K00U 050510Z AUTO 26003KT 10SM FEW043 FEW048 SCT060 16/14 A3000 RMK A01
KJRB 050456Z AUTO VRB03KT 10SM CLR A3013 RMK AO2 SLPNO FZRANO PNO $
K1MN 200455Z AUTO 00000KT 10SM CLR 19/15 A2967 RMK AO2 SLP044 T01850146 $
KLGB 050453Z 32006KT 6SM BR CLR 18/16 A3003 RMK AO2 SLP167 T01830161 $
KPHX 050451Z 26008KT 10SM FEW100 SCT250 37/14 A2991 RMK AO2 SLP107 T03670144
KCTB 050456Z AUTO 01006KT 10SM OVC070 14/11 A3007 RMK AO2 RAE0358 SLP163 P0000 T01440106
KNSI 050453Z AUTO 29010KT BR CLR 15/11 A3004 RMK AO2 SLP166 T01500106 $
KJTC 050515Z AUTO 25011G16KT 10SM CLR 19/05 A3039 RMK AO2
KSPA 050515Z AUTO 00000KT 10SM CLR 23/18 A3010 RMK AO2
KNFE 0705 DH0500/PPH 0.00
KSTE 050515Z AUTO 20007KT 10SM CLR 25/21 A2999 RMK AO2 T02530210
KRNT 050353Z 25004KT 10SM BKN080 21/11 A3010
KGLH 050453Z AUTO 00000KT 10SM CLR 24/23 A3002 RMK AO2 SLP171 T02390233
KRVJ 050515Z AUTO 03005KT 10SM CLR 24/23 A3001 RMK AO2 T02360225
KBCT 050253Z 26010KT 10SM SCT040 27/25 A2997
KK62 050515Z AUTO 11003KT 10SM CLR 21/19 A3013 RMK AO2
KSUX 050509Z AUTO 00000KT 10SM SCT080 SCT095 22/21 A2990 RMK AO2 LTG DSNT E AND SE RAE07 P0000 T02220211 $
KPTS 050515Z AUTO 18005KT 10SM OVC095 25/22 A3002 RMK AO2
KF00 050515Z AUTO 14005KT 7SM HZ OVC095 23/ A3000 RMK AO2
KW63 050535Z AUTO 07003KT 10SM BKN075 23/19 A3013 RMK AO1
KPYX 050515Z AUTO 16008KT 10SM 24/20 A3001 RMK AO2 T02350200
KFZG 050515Z AUTO 00000KT 10SM CLR 24/22 A3001 RMK AO2 T02370218
KSWW 050515Z AUTO 17012KT 10SM 25/24 A3001 RMK AO2 T02480235
KAMN 050515Z AUTO 22004KT 10SM CLR 22/19 A3005 RMK AO2
KLHW 050455Z AUTO 35006KT 10SM CLR 24/22 A2996 RMK AO2 SLP148 T02430222 403240239 $
KRNM 050453Z AUTO 00000KT 10SM CLR 18/13 A3006 RMK AO2 SLP164 T01830128
KCPR 050453Z AUTO 25006KT 10SM CLR 12/11 A3016 RMK AO2 SLP153 T01220111 $
KRYV 050515Z AUTO 18004KT 10SM CLR 23/21 A3003 RMK AO2 T02310214
KMSO 050525Z AUTO 00000KT 1 3/4SM BR OVC070 14/13 A3012 RMK AO2 T01390128
KCMH 050451Z 00000KT 7SM FEW250 24/19 A3013 RMK AO2 SLP194 T02440189 403330206
KCEC 050456Z AUTO 00000KT 10SM SCT006 BKN012 12/11 A3022 RMK AO2 SLP235 T01170111
KDYR 050456Z AUTO 00000KT 5SM HZ CLR 23/ A3005 RMK AO2 SLP178 T0233
KTVY 050515Z AUTO 21007KT 10SM CLR 19/13 A3005 RMK AO2
KEKM 050515Z AUTO 17004KT 4SM BR CLR 23/22 A3009 RMK AO2 T02340219 $
KE42 050515Z AUTO 15013KT 10SM SCT120 23/20 A3001 RMK AO2
KGYH 050515Z AUTO 06004KT 10SM CLR 25/19 A3011 RMK AO2
KDUG 050456Z AUTO 25003KT 10SM CLR 24/16 A3017 RMK AO2 SLP145 T02440161 $
KCTZ 050525Z AUTO 04003KT 10SM CLR 23/23 A3010 RMK AO2 T02300230
KETO 050515Z AUTO 02005KT 6SM HZ CLR 31/25 A3000 RMK A01
KNIP 050453Z AUTO 04011G19KT 10SM FEW011 SCT017 26/24 A2995 RMK AO2 RAE0359 SLP136 P0000 T02610239 403170244
KABR 050526Z AUTO 27004KT 10SM SCT006 SCT085 OVC110 22/21 A2982 RMK AO2 T02170206
KSAN 050451Z 29005KT 10SM FEW007 SCT015 19/16 A3006 RMK AO2 SLP177 FU FEW007 T01940161
KQFU 050530Z AUTO 22004KT 9999 BKN028 30/23 A2975 RMK A02 TSNO
KCKC 050455Z AUTO 00000KT 10SM CLR 19/18 A2985 RMK AO2 LTG DSNT W
KBKE 050453Z AUTO 00000KT 9SM -RA SCT065 OVC080 14/12 A3012 RMK AO2 LTG DSNT W RAB17E28B48 SLP187 P0001 T01440122
KGHW 050515Z AUTO 20003KT 10SM CLR 21/21 A2986 RMK AO2
K14Y 050515Z AUTO 16004KT 10SM BKN047 OVC080 22/22 A2985 RMK AO2 LTG DSNT E
KSBP 050456Z AUTO 29005KT 10SM CLR 13/10 A3007 RMK AO2 SLP181 T01330100
KDRT 050453Z AUTO 11006KT 7SM CLR 26/24 A2994 RMK AO2 SLP128 T02610244
KYNG 050451Z 19005KT 7SM FEW060 BKN250 21/17 A3015 RMK AO2 SLP202 T02110167 402890133 $
KMCE 050453Z AUTO 35010KT 10SM CLR 23/04 A3002 RMK AO2 SLP166 T02280044
KHBI 050525Z AUTO 00000KT 10SM CLR 23/18 A3014 RMK AO2 T02260176
KW31 050535Z AUTO 00000KT 10SM BKN070 20/20 A3014 RMK AO1 T02000196
KK70 050515Z AUTO VRB04KT 10SM CLR 28/26 A2998 RMK AO2 LTG DSNT SW
K6R3 050515Z AUTO 00000KT 2 1/2SM BR CLR 25/24 A3001 RMK AO2 T02450235
KMYR 050453Z AUTO 04005KT 10SM CLR 26/22 A3006 RMK AO2 SLP179 T02610222
KMWS 050520Z 21004G06KT 18/M10
KELP 050451Z 26012KT 10SM FEW250 32/09 A3007 RMK AO2 SLP095 T03220089 $
KTGI 050355Z AUTO 10SM CLR 25/20 A3014 RMK AO1 T02500197
KBGF 050515Z AUTO 8SM CLR 22/22 A3008 RMK A01
KVNW 050535Z AUTO 00000KT 7SM CLR 22/18 A3013 RMK AO2
KHJH 050515Z AUTO 19009G14KT 10SM RA SCT035 SCT047 SCT080 25/22 A2992 RMK AO2 T02520217
KO54 050515Z AUTO VRB06KT 10SM CLR 19/03 A3011 RMK A01
KFNB 050453Z AUTO 17006KT 10SM BKN110 26/21 A2994 RMK AO2 SLP126 T02560206
KPBH 050515Z AUTO 19008KT 10SM CLR 24/20 A2994 RMK AO2 T02400200
KASL 050515Z AUTO 00000KT 9SM CLR 23/23 A3000 RMK AO2 T02320232 $
KTCL 050453Z AUTO 03003KT 5SM BR CLR 23/22 A3004 RMK AO2 SLP170 T02280217
KDQH 050535Z AUTO 03006KT CLR 25/22 A3001 RMK AO2 T02460215 PWINO
KSMO 050530Z AUTO VRB03KT 4SM BR OVC002 17/16 A3004 RMK AO2 T01670156
KYIP 050503Z 00000KT 3SM BR CLR 22/21 A3010 RMK AO2 T02220211 $
K9S2 050515Z AUTO 33003KT 10SM CLR 12/09 A3005 RMK AO2
KPOY 050515Z AUTO 13008KT 10SM CLR 15/07 A3010 RMK AO2
KADM 050515Z AUTO 00000KT 9SM OVC029 23/23 A2999 RMK AO2
KSEM 050515Z AUTO 00000KT 10SM CLR 23/23 A3002 RMK AO2
KPWT 050456Z AUTO 20006KT 10SM CLR 17/11 A3015 RMK AO2 SLP211 T01670106
KORG 050515Z AUTO 00000KT 10SM BKN120 26/24 A3002 RMK AO2 T02580244 PWINO
KSLE 050456Z AUTO 29007KT 10SM CLR 16/08 A3017 RMK AO2 SLP216 T01610083
KDEN 050524Z 22004KT 10SM FEW130 19/09 A3013 RMK AO2 T01940094 $
KIJD 050452Z AUTO 02003KT 9SM CLR 15/14 A3014 RMK AO2 SLP205 T01500144 402670144
KHOE 281615Z AUTO 00000KT 10SM SCT038 30/20 A3016 RMK AO2 LTG DSNT SW T03010208
KECU 050515Z AUTO 15006KT 3SM BR OVC002 22/22 A3006 RMK AO2
KRLD 050515Z AUTO 19008KT 10SM BKN110 21/11 A3001 RMK AO2 T02080112
KARM 050515Z AUTO 13006KT 7SM CLR 26/25 A2998 RMK AO2 T02610245 TSNO
KHUT 050452Z AUTO 16012KT 10SM CLR 25/22 A2996 RMK AO2 SLP122 T02500217
KMRJ 050515Z AUTO 17003KT 10SM CLR 22/20 A3006 RMK AO2 PWINO
KVGT 050453Z AUTO 21005KT 10SM CLR 34/M03 A2991 RMK AO2 SLP112 T03441028 $
K1D8 050515Z AUTO 17006KT 10SM BKN006 22/22 A2980 RMK AO2
KBAB 050455Z AUTO 15013KT 10SM CLR 21/07 A3000 RMK AO2 SLP161 T02130071 $
KRKD 050456Z AUTO 28006KT 10SM CLR 16/12 A3006 RMK AO2 SLP180 T01560122 402330150 $
K3U3 050515Z AUTO 07004KT 10SM CLR 11/08 A3015 RMK AO2 T01070078
KVBW 050535Z AUTO 00000KT 7SM CLR 19/19 A3017 RMK AO1 T01920192
KSVC 050515Z AUTO 33011KT 10SM CLR 22/06 A3023 RMK AO2 T02220062
KSTS 050453Z AUTO 14003KT 10SM CLR 14/09 A3008 RMK AO2 SLP180 T01390094
KCON 050451Z AUTO 00000KT 10SM CLR 12/11 A3014 RMK AO2 SLP206 T01220106 402500111 $
KT89 041735Z AUTO 00000KT 10SM CLR 31/21 A3003 RMK A01
KPKD 050509Z AUTO 13006KT 10SM BKN005 OVC120 21/20 A2982 RMK AO2 RAE03 P0000 T02060200
KSPS 050452Z AUTO 15010KT 10SM OVC017 24/22 A2996 RMK AO2 SLP130 T02440217
KNRB 050452Z AUTO 01007KT 10SM CLR 28/24 A2994 RMK AO2 SLP137 T02780239 403330250 $
KNUW 050453Z AUTO 23013G21KT 10SM CLR 13/08 A3015 RMK AO2 PK WND 25029/0359 SLP212 T01330078 PNO $
KCLI 050515Z AUTO 21006KT 10SM CLR 25/22 A2998 RMK AO2 T02460219
KSVN 050455Z AUTO 03004KT 10SM CLR 26/23 A2995 RMK AO2 SLP145 T02620228 403190246 $
KGLS 050503Z AUTO 16012KT 10SM SCT028 SCT037 30/25 A3001 RMK AO2 T03000250
KBWW 050515Z AUTO 04011KT 10SM CLR 20/20 A2999 RMK AO2
KEGT 050515Z AUTO 17011KT 10SM CLR 25/22 A2998 RMK AO2 T02460215
KIGM 050451Z AUTO 16008KT 10SM CLR 26/08 A3009 RMK AO2 SLP114 T02610078
KBLI 050453Z 18009G17KT 10SM CLR 18/06 A3009 RMK AO2 SLP197 T01780061
KHUF 050453Z 04003KT 10SM CLR 23/21 A3009 RMK AO2 SLP184 T02280211 403330194
KGTF 050532Z 11005KT 4SM BR CLR 14/13 A3006 RMK AO2 T01390128 $
KCGS 050530Z AUTO 00000KT 4SM BR CLR 18/17 A3015 RMK AO2 T01800166
KMYZ 050515Z AUTO 17006KT 10SM CLR 26/20 A2995 RMK AO2
KMSS 050453Z AUTO 00000KT 10SM CLR 14/12 A3014 RMK AO2 SLP207 T01390117 402440100
KDPL 050525Z AUTO 03004KT 3SM BR CLR 21/21 A3010 RMK AO2
KARG 050456Z AUTO 16003KT 10SM CLR 26/22 A3004 RMK AO2 SLP170 T02560222
KAGI 171535Z AUTO 16011KT A2996 RMK AO2
KPIL 050505Z AUTO 16012KT 7SM FEW014 SCT019 27/26 A2998 RMK AO2 T02720256
KLND 050453Z AUTO 20011G20KT 10SM -RA OVC075 15/09 A3022 RMK AO2 PK WND 20035/0358 WSHFT 0349 SLP171 P0010 T01500094 $
KDMW 050520Z AUTO 00000KT 10SM CLR 21/15 A3017 RMK AO2
KSSC 050455Z AUTO 05004KT 10SM CLR 23/21 A3004 RMK AO2 SLP171 T02270213 403450223 $
KMEB 050452Z AUTO 04006KT 7SM CLR 23/22 A3009 RMK AO2 SLP186 T02280217 403330217
KRNO 050455Z 29013G19KT 10SM CLR 19/M02 A3017 RMK AO2 PK WND 30039/0422 SLP167 T01941017 $
KAOO 050453Z AUTO 19003KT 10SM CLR 17/15 A3019 RMK AO2 SLP216 T01670150 402780128
KHBR 041953Z AUTO 19012G23KT 10SM 29/21 A2997 RMK AO2 SLP131 T02890211 $
KRBO 050515Z AUTO 16015G21KT 10SM CLR 27/25 A2994 RMK AO2 T02700249
KRDG 050454Z 00000KT 7SM CLR 19/16 A3014 RMK AO2 SLP208 T01940156 402890167
KHSA 050150Z 00000KT 10SM CLR 28/21 A2998
KVDF 050535Z AUTO 35005KT 7SM BKN015 22/22 A2996 RMK AO2
K8W2 050515Z AUTO 00000KT 7SM CLR A3017 RMK AO1
K7S0 050515Z AUTO 16003KT 10SM OVC050 13/13 A3009 RMK A01
K1V6 050515Z AUTO 01006KT 10SM CLR 22/12 A3015 RMK AO2
KGUY 290753Z AUTO 14006KT 10SM CLR 22/13 A2997 RMK AO2 SLP094 T02170128
KGOP 050515Z AUTO 00000KT 1 1/2SM -RA BR SCT010 BKN017 OVC024 24/24 A2999 RMK AO2
K5H4 050515Z AUTO 35013KT 10SM FEW018 BKN048 21/13 A2989 RMK AO2
KFTY 050453Z 00000KT 7SM CLR 22/21 A3007 RMK AO2 SLP173 T02220206 403390206
KQER 050520Z AUTO 19005KT 9999 OVC024 27/23 A2969 RMK A02 TSNO
KPRX 050456Z AUTO 18006KT 10SM CLR 24/22 A3002 RMK AO2 SLP160 T02390222
KIER 050515Z AUTO 00000KT 1 1/2SM BR VV007 24/24 A3002 RMK AO2 VIS 1/2V5 T02420242
KMRB 050500Z AUTO 09008KT 2 1/2SM BR CLR 19/17 A3014 RMK AO2 T01890172
KLEW 050456Z AUTO 25004KT 10SM CLR 16/12 A3010 RMK AO2 SLP199 T01560117 402330139 PNO $
KUUV 050515Z AUTO 00000KT 10SM CLR 23/23 A3009 RMK AO2
KBTA 050515Z AUTO 17010KT 10SM CLR 27/21 A2992 RMK AO2 T02650213
KOPN 050535Z AUTO 10003KT 10SM CLR 25/20 A3008 RMK AO2
KM02 050510Z AUTO 00000KT 10SM FEW060 23/21 A3007 RMK A01
KLBO 050515Z AUTO 15005KT 10SM CLR 24/21 A3008 RMK AO2
KTIP 050515Z AUTO 00000KT 10SM CLR 23/20 A3010 RMK AO2 T02250200
KU69 050515Z AUTO 35005KT 10SM FEW120 18/09 A3016 RMK A01
KRVF 050515Z AUTO 03007KT 10SM CLR 13/10 A3014 RMK AO2
KISP 050515Z AUTO 00000KT 2 1/2SM BR CLR 19/17 A3012 RMK AO2 T01940172
KTAH 050515Z AUTO 29005KT 10SM CLR 29/25 A3003 RMK A01
KDNS 050515Z AUTO 16010KT 10SM FEW050 FEW070 25/24 A2993 RMK AO2
KFXE 050453Z 23004KT 10SM CLR 27/25 A2998 RMK AO2 SLP155 T02720250 403110261
KASH 050056Z 00000KT 10SM CLR 21/11 A3010
KHAO 050532Z AUTO 00000KT 1 3/4SM BR CLR 21/20 A3013 RMK AO2 T02060200
KVKS 050515Z AUTO 00000KT 5SM BR CLR 24/24 A3001 RMK A01
KMDH 050452Z AUTO 00000KT 6SM BR CLR 23/22 A3005 RMK AO2 SLP172 T02330222
K1NM 050455Z AUTO 01013G19KT 10SM BKN080 OVC090 18/12 A3002 RMK AO2 SLP138 T01750117 $
KI63 050515Z AUTO 00000KT 10SM CLR 22/21 A3006 RMK AO2 T02220207
KORK 121835Z AUTO 30010KT 10SM FEW015 SCT019 BKN024 M22/M23 A2984 RMK AO2
KAXN 050524Z AUTO 00000KT 4SM RA BR BKN010 BKN014 OVC025 22/21 A2986 RMK AO2 P0011 T02170206
KLEB 050453Z AUTO 00000KT 10SM CLR 12/11 A3016 RMK AO2 SLP208 T01220106 402560111
KSAD 050451Z AUTO 31012KT 10SM CLR 30/07 A3005 RMK AO2 SLP116 T03000067
KVMR 050515Z AUTO VRB03KT 10SM FEW065 BKN080 BKN100 22/22 A2988 RMK AO2
KROX 050455Z AUTO 21006KT 10SM CLR 21/19 A2979 RMK AO2
KCWF 050515Z AUTO 17003KT 4SM BR CLR 25/24 A3002 RMK AO2 T02510239
KFOZ 050533Z AUTO 16009G15KT 10SM SCT009 SCT075 BKN110 21/20 A2986 RMK AO2
KLUD 050515Z AUTO 16006G09KT 7SM SCT011 SCT016 BKN022 24/22 A2999 RMK AO2 T02400220
KTCY 050510Z AUTO 34005KT 10SM CLR 18/04 A3005 RMK A01
KGOV 050455Z AUTO 21004KT 10SM CLR 24/20 A3003 RMK AO2 SLP168 T02360195 $
KBCK 050515Z AUTO 00000KT 10SM CLR 21/21 A2996 RMK AO2 T02100210
KHQU 050515Z AUTO 00000KT 10SM CLR 23/19 A3011 RMK AO2
KFGX 050515Z AUTO 13003KT 10SM CLR 23/20 A3016 RMK AO2 T02250200
KBIX 050455Z AUTO 00000KT 4SM HZ CLR 28/21 A2998 RMK AO2 SLP155 T02760214
KCRS 050530Z AUTO 14008KT 10SM BKN008 OVC095 24/23 A3000 RMK AO2 T02440228
KUVA 050515Z AUTO 06005KT 5SM BR CLR 25/25 A2997 RMK AO2 T02450245
K1K8 050515Z AUTO 16005KT 25/23 A3001 RMK AO2 PWINO
KUSE 050510Z AUTO 00000KT 10SM CLR 21/21 A3011 RMK AO2
KSPI 050452Z AUTO 17005KT 10SM CLR 23/19 A3006 RMK AO2 SLP174 T02280194
KAPS 050515Z AUTO 00000KT 10SM CLR 25/24 A3001 RMK AO2 T02490239
KADF 050456Z AUTO 00000KT 6SM BR CLR 24/24 A3003 RMK AO2 SLP166 T02390239
KCOF 050455Z AUTO 24009KT 10SM BKN180 25/23 A2990 RMK AO2 LTG DSNT SW SLP130 T02520234 403020242 $
KX59 050515Z AUTO 26005KT 10SM FEW020 24/24 A2991 RMK AO2 T02390239 $
KRDR 050455Z AUTO 27005KT 10SM SCT170 SCT190 21/19 A2977 RMK AO2 SLP080 T02070192
KMOD 050453Z AUTO 34011KT 10SM CLR 20/06 A3003 RMK AO2 SLP169 T02000061
KPSK 050535Z AUTO 30003KT 10SM CLR 18/17 A3022 RMK AO2 T01810168
KERI 050451Z AUTO 18003KT 5SM HZ CLR 21/16 A3011 RMK AO2 SLP193 T02060161 402670139
KCDH 050515Z AUTO 00000KT 6SM BR CLR 25/25 A3001 RMK AO2
KBJJ 050456Z AUTO 19003KT 8SM SCT100 21/19 A3015 RMK AO2 SLP200 T02110194 403060172
K1HW 050455Z AUTO 31006KT 10SM FEW100 SCT140 16/15 A3004 RMK AO2 LTG DSNT E AND W PRESRR SLP141 T01640149 $
KLAF 050454Z AUTO 00000KT 7SM CLR 23/20 A3010 RMK AO2 SLP186 T02280200 403220183
KCRG 050453Z AUTO 03007KT 10SM FEW049 26/24 A2994 RMK AO2 SLP139 T02560239 403110228
KNYC 050451Z AUTO VRB03KT 10SM CLR 23/11 A3015 RMK AO2 SLP200 T02280111 402830194 $
KOTG 050533Z AUTO 24011G17KT 8SM +TSRA FEW010 BKN030 OVC037 21/21 A2991 RMK AO2 LTG DSNT SE-SW TSB27 P0008
KGCN 050454Z AUTO 21006KT 10SM CLR 16/07 A3033 RMK AO2 SLP177 T01610067
KPRC 050453Z 15004KT 10SM CLR 23/08 A3024 RMK AO2 SLP150 T02330083
KX26 050515Z AUTO 21005KT 10SM FEW110 24/23 A2993 RMK AO2
KMQW 212335Z AUTO 33004KT 10SM CLR 28/12 A2988 RMK AO2 T02780123
KW13 050535Z AUTO 00000KT 10SM CLR 20/18 A3019 RMK AO1 T02000175
KRIV 050455Z AUTO 00000KT 10SM CLR 24/12 A3003 RMK AO2 SLP155 T02380121
KCNO 050453Z AUTO 28006KT 10SM CLR 21/14 A3004 RMK AO2 SLP166 T02060144
KBAZ 050451Z AUTO 14007KT 7SM OVC017 26/24 A2996 RMK AO2 RAB15E31 SLP135 P0000 T02560239
KGSH 050453Z AUTO 17003KT 5SM BR CLR 22/21 A3010 RMK AO2 SLP187 T02170206 403000178
KRRL 281235Z AUTO 08003KT 3/4SM -RA BKN018 OVC028 08/08 A2996 RMK AO2 P0025 T00780078 TSNO
KF17 050515Z AUTO 00000KT 10SM CLR 21/20 A3003 RMK AO2
KFVX 050515Z AUTO 00000KT 10SM SCT060 21/21 A3013 RMK AO2 T02110209
KIKV 050515Z AUTO VRB04KT 10SM CLR 25/21 A2997 RMK AO2
KU52 050510Z AUTO 10010KT 10SM -RA FEW040 FEW047 SCT050 19/01 A3020 RMK AO2 TSNO
KMZZ 050515Z AUTO 00000KT 7SM SCT110 23/20 A3013 RMK AO2 T02250199
KGDB 050515Z AUTO 00000KT 10SM -RA SCT014 BKN043 OVC100 22/22 A2986 RMK AO2 LTG DSNT N AND NE P0003 T02210217
KBMC 050515Z AUTO 12011KT 10SM FEW060 FEW080 SCT120 23/09 A3001 RMK AO2
KSTJ 050453Z AUTO 16009KT 9SM OVC110 27/21 A2996 RMK AO2 SLP136 T02720211
KM01 050515Z AUTO 00000KT 3SM BR CLR 23/23 A3001 RMK AO2 T02330228 $
KBKX 050506Z AUTO 21007KT 10SM FEW018 SCT024 BKN070 23/21 A2987 RMK AO2
K1IM 050455Z AUTO 24008KT 10SM CLR 15/13 A3001 RMK AO2 SLP152 T01460125 $
KBDR 050452Z AUTO 02003KT CLR 20/16 A3013 RMK AO2 SLP202 T02000156 402890172 $
KVLL 050515Z AUTO VRB02KT 4SM HZ CLR 24/20 A3009 RMK AO2
KBDH 050515Z AUTO 23011KT 3/4SM VCTS RA BR BKN003 BKN009 OVC029 22/22 A2988 RMK AO2 LTG DSNT ALQDS
KAMG 050453Z AUTO 35003KT 10SM CLR 23/22 A2999 RMK AO2 SLP154 T02330217 403440233 $
KNHK 050452Z AUTO VRB06KT 10SM CLR 21/17 A3013 RMK AO2 SLP203 T02110167 403220206 $
KS25 050515Z AUTO 02005KT 10SM FEW050 FEW060 16/11 A3000 RMK AO2
KSJN 050454Z AUTO 25011KT 10SM CLR 23/04 A3026 RMK AO2 SLP145 T02280039 $
KGON 050456Z AUTO A3011 RMK AO2 SLP197 PWINO
KGWO 050453Z AUTO 00000KT 10SM CLR 24/22 A3004 RMK AO2 SLP168 T02390217
KTMA 050515Z AUTO 00000KT 9SM CLR 25/22 A3001 RMK AO2 T02470220 $
K0A9 251345Z AUTO 00000KT 10SM CLR 26/22 A3027 RMK AO2
KGUL 050525Z AUTO 19004KT 10SM FEW021 FEW026 SCT046 29/25 A3002 RMK A01
KOUN 050515Z AUTO 16009KT 10SM CLR 24/21 A2998 RMK AO2 T02360214
KM04 190505Z AUTO 32018G26KT 10SM FEW055 FEW070 BKN095 27/21 A3000 RMK A01
KTOI 050453Z AUTO 00000KT 9SM CLR 23/22 A3003 RMK AO2 SLP163 T02280222
KPMU 050510Z AUTO 00000KT 1 3/4SM BR CLR 23/23 A3003 RMK AO2
KDBN 050515Z AUTO 00000KT 10SM CLR 23/21 A3004 RMK AO2 T02280209 $
KM91 050510Z AUTO 00000KT 10SM OVC080 25/21 A3006 RMK A01
KABQ 050452Z 33006KT 9SM CLR 28/06 A3017 RMK FU ALQDS SLPNO
KFIG 041554Z AUTO 04005KT 10SM CLR 23/08 A3018 RMK AO2 SLP212 T02330083
KOLE 050515Z AUTO 21003KT 10SM CLR 15/10 A3020 RMK AO2
KFAF 050455Z AUTO 00000KT 10SM CLR 22/19 A3010 RMK AO2 SLP196 T02200186 403290220 $
KEWN 050454Z AUTO 05008KT 10SM CLR 24/22 A3011 RMK AO2 SLP195 T02440217 403220228
KX60 050515Z AUTO 31004KT 5SM BR CLR 23/23 A2995 RMK AO2 T02330229
KBKD 050515Z AUTO 19010KT OVC013 25/23 A2997 RMK AO2 T02500225
KTIX 050047Z 26003KT 7SM BKN070 26/24 A2994
KTCM 050455Z AUTO 25007KT 10SM FEW075 18/10 A3014 RMK AO2 SLP209 T01750101
KXBP 050515Z AUTO 16007KT 10SM SCT011 SCT014 OVC046 23/23 A3000 RMK AO2 T02300230 PNO
K4R5 050515Z AUTO 00000KT 10SM CLR 24/19 A2982 RMK AO2 T02420190
KGGG 050453Z AUTO 16003KT 10SM CLR 23/21 A3000 RMK AO2 SLP153 T02330211 PWINO $
KJWN 050050Z 04005KT 10SM CLR 30/20 A3003
KAID 050535Z AUTO 00000KT 7SM CLR 21/19 A3013 RMK AO2 T02140190
KIMS 050515Z AUTO 00000KT 5SM BR CLR 22/22 A3013 RMK AO2
KEKY 050456Z AUTO 00000KT 8SM CLR 22/22 A3007 RMK AO2 SLP155 T02170217 403330206
KXNO 050455Z AUTO 01004KT 10SM CLR 22/21 A3004 RMK AO2 SLP172 T02170205 403400216 $
KMXF 050455Z AUTO 02004KT 8SM CLR 25/23 A3000 RMK AO2 SLP159 T02460228 $
KSJC 050453Z 33011KT 10SM FEW028 15/08 A3014 RMK AO2 SLP207 T01500078 $
KIFA 050515Z AUTO 15007KT 10SM CLR 23/20 A2999 RMK AO2 T02330200
KA39 050515Z AUTO 32005KT 10SM CLR 32/16 A2998 RMK AO2
KCUT 050453Z AUTO 00000KT 10SM CLR 16/11 A3012 RMK AO2 LTG DSNT SE RAE05 SLP140 P0000 T01560111
K2V6 071854Z AUTO 03007KT 010V070 10SM BKN035 BKN048 OVC100 M23/M30 A3014 RMK AO2
KJER 050453Z AUTO 25009KT 10SM CLR 17/11 A3009 RMK AO2 SLP162 T01670106
KAPN 050454Z AUTO 17003KT 10SM CLR 21/17 A3001 RMK AO2 SLP159 T02060172 402560078
K6B0 050435Z AUTO 10SM RMK AO2 PWINO PNO TSNO
KLEX 050454Z AUTO 11004KT 7SM CLR 23/19 A3013 RMK AO2 SLP190 T02330189 403280189
KNTU 050456Z 00000KT 10SM CLR 20/19 A3012 RMK AO2 SLP202 T02000189 402940200
KLGU 050451Z AUTO 08010KT 10SM FEW050 FEW070 22/08 A3004 RMK AO2 RAB04E40 PRESFR SLP119 P0000 T02220083
KRAW 251955Z AUTO 22008KT 32/21 A3011 RMK AO2 PWINO
KLVN 050515Z AUTO 18005KT 10SM CLR 26/20 A2989 RMK AO2
KDDH 050454Z AUTO 00000KT 9SM CLR 11/11 A3017 RMK AO2 SLP214 T01110111 402390100
KGLY 050515Z AUTO 16004KT 7SM SCT048 25/22 A3002 RMK AO2
KVCB 050453Z AUTO 20007G20KT 10SM CLR 17/08 A3002 RMK AO2 SLP164 T01720078
KJAQ 050455Z AUTO 00000KT 10SM CLR 19/07 A3011 RMK AO1 T01860070
K6E5 050515Z AUTO 16004KT 5SM -RA BR FEW049 SCT065 SCT100 22/22 A2984 RMK AO2
KP52 050515Z AUTO 17004KT 10SM CLR 26/10 A3012 RMK AO2
KGYL 050515Z AUTO 19004KT 10SM SCT070 26/21 A2985 RMK AO2 T02580208
K0V4 050515Z AUTO 08007KT 10SM OVC065 21/20 A3014 RMK AO1
KULM 050515Z AUTO 17009KT 10SM 26/20 A2986 RMK AO2
K9A4 292235Z AUTO 23004KT 10SM CLR 25/23 A3005 RMK AO2
KHNB 050456Z AUTO 00000KT 10SM CLR 23/23 A3009 RMK AO2 SLP185 T02280228 403280194
KSBA 050453Z 11003KT 8SM CLR 16/14 A2999 RMK AO2 SLP156 T01610144 $
KRUQ 050525Z AUTO 00000KT 5SM BR CLR 20/19 A3013 RMK AO2 T02000187
KRCE 050515Z AUTO 17008KT 8SM FEW013 FEW050 23/22 A2999 RMK AO2
KBBG 050515Z AUTO 00000KT 10SM 24/22 A3007 RMK AO2 TSNO
KGBG 050515Z AUTO 00000KT 10SM CLR 22/20 A3007 RMK AO2 T02230197
KSCH 050056Z 28007KT 10SM CLR 22/11 A3011 RMK LAST
K1FW 302355Z 31024G27KT 6SM -RA BKN020 BKN040 13/06 A2987 RMK SLP101 53018
KSAR 050515Z AUTO 00000KT 10SM CLR 25/23 A3007 RMK AO2 T02460226
KAWO 050456Z AUTO 32007KT 10SM 14/08 A3016 RMK AO2 SLP220 T01440083 $
KGZH 050453Z AUTO 00000KT 10SM CLR 23/21 A3002 RMK AO2 SLP161 T02330211
KCPU 050515Z AUTO 35004KT 10SM CLR 19/05 A3010 RMK AO2 T01910049
KRDM 050456Z 35008KT 10SM CLR 16/03 A3015 RMK AO2 SLP198 T01560028
KHEY 050455Z AUTO 01003KT 10SM FEW060 25/23 A2999 RMK AO2 SLP154 T02480234
KPHD 050453Z AUTO 00000KT 6SM BR CLR 21/19 A3015 RMK AO2 SLP203 T02110194 403060167
KTWT 050535Z AUTO 00000KT 10SM CLR 23/22 A3007 RMK AO2
KHPN 050456Z 31004KT 10SM CLR 19/13 A3013 RMK AO2 SLP199 T01890128 402780161
KP68 050453Z AUTO 15003KT 14/M03 A3016 RMK AO1 SLP144 T01441028
K3L4 011540Z AUTO 00000KT 10SM FEW025 31/31 A3006 RMK A01
KPSX 050453Z AUTO 16015KT 10SM CLR 29/24 A2997 RMK AO2 SLP148 T02940239 $
K2D5 050515Z AUTO 18004KT 21/21 A2983 RMK AO2
KLBL 050456Z AUTO 16017KT 10SM -RA SCT024 BKN090 OVC110 22/20 A3000 RMK AO2 LTG DSNT E-SW TSE21B25E55RAB12 SLP125 P0000 T02220200 403280211 $
KSSF 050453Z AUTO 14007KT 9SM BKN015 BKN026 26/24 A2994 RMK AO2 SLP127 T02610239
KMGW 050453Z AUTO 00000KT 8SM CLR 20/17 A3019 RMK AO2 SLP215 T02000167 402940172
KLPR 050453Z AUTO 00000KT 10SM SCT075 BKN110 25/19 A3012 RMK AO2 SLP192 T02500189 403110172
KCCO 050515Z AUTO 05004KT 10SM CLR 25/20 A3009 RMK AO2 T02500200
KHYA 050456Z AUTO 00000KT 10SM CLR 14/14 A3010 RMK AO2 SLP194 T01440139 402440139 $
K1FM 121355Z AUTO 33011KT 6SM -RA BR OVC055 13/11 A2996 RMK AO2 RAE1255RAB32 SLP118 P0000 T01280109 $
KACT 050451Z 12007KT 5SM BR OVC075 25/24 A2997 RMK AO2 SLP141 T02500244 $
KHZX 050515Z AUTO 04004KT 10SM BKN038 BKN060 OVC075 21/19 A2986 RMK AO2 P0003 LTG DSNT SW THRU N
KIWD 050456Z AUTO 21010KT 10SM CLR 26/19 A2988 RMK AO2 SLP107 T02610194
KMCI 050453Z 17007KT 8SM OVC100 26/21 A2998 RMK AO2 SLP140 T02560211 $
KHUL 050453Z AUTO 00000KT 10SM FEW110 13/13 A2995 RMK AO2 RAB20E29 SLP144 P0000 T01330128 402060128
K0D8 050515Z AUTO 00000KT 10SM FEW100 20/20 A2985 RMK A01
KOOA 050515Z AUTO 14005KT 7SM CLR 24/21 A3002 RMK AO2 T02370213
KGGP 050515Z AUTO 12004KT 10SM CLR 20/18 A3012 RMK AO2
KHFF 050455Z AUTO 00000KT 10SM CLR 23/21 A3008 RMK AO2 SLP184 T02290213 403380216 $
KSEZ 050515Z AUTO 16004KT 10SM CLR 24/10 A3022 RMK AO2
KHXD 050515Z AUTO 03012KT 10SM FEW024 SCT033 BKN045 27/23 A2999 RMK AO2
KAPY 050515Z AUTO 15007KT 10SM 28/24 A2994 RMK AO2 T02800235
KEUL 050456Z AUTO 27011KT 10SM CLR 16/13 A3008 RMK AO2 SLP172 T01610128
KAXX 050515Z AUTO 00000KT 10SM CLR 14/04 A3041 RMK AO2 T01430035
KMNE 050515Z AUTO 00000KT 7SM CLR 23/21 A3002 RMK AO2
KHSV 050453Z 00000KT 8SM FEW060 26/21 A3006 RMK AO2 SLP171 T02560211 $
KFRM 050456Z AUTO 17009KT 10SM BKN075 24/21 A2991 RMK AO2 SLP119 T02440211
KDOV 050455Z AUTO 20005KT 10SM CLR 21/17 A3012 RMK AO2 SLP203 T02060170 402890184
KFAT 050453Z 32014G22KT 10SM CLR 26/07 A3000 RMK AO2 SLP155 T02610072 $
KWYS 050515Z AUTO 00000KT 10SM FEW095 12/08 A3023 RMK A01
KU16 050455Z AUTO 14011KT 10SM CLR 23/09 A3001 RMK AO2 SLP110 T02270088
KELN 050453Z AUTO 31019G28KT 10SM CLR 19/07 A3004 RMK AO2 PK WND 30028/0447 SLP163 T01940067 $
KNFG 050453Z AUTO 00000KT 10SM CLR 17/16 A3004 RMK AO2 SLP172 T01720156
KPZQ 050515Z AUTO 20004KT 10SM CLR 22/18 A3000 RMK AO2 T02150180
K1AM 050455Z AUTO 23005KT 10SM FEW180 13/11 M RMK AO2 RAB0355E34 TSB0355E0357 SLPNO P0001 T01330112 $
KX07 041235Z AUTO 23004KT 26/25 A2997 RMK A01
KSXK 050515Z AUTO 25009G16KT 2 1/2SM RA SCT003 BKN007 OVC031 21/21 A2989 RMK AO2
KEOK 050515Z AUTO 16004KT 10SM SCT050 BKN060 25/25 A3003 RMK A01
KQRH 291855Z AUTO VRB04KT 9999 CLR 36/19 A2964 RMK AO2 SLP039 WND DATA ESTMD T03560192
KHHF 050515Z AUTO 17007KT 10SM CLR 24/20 A2999 RMK AO2 T02350199
K3LF 050515Z AUTO 14004KT 10SM CLR 23/19 A3009 RMK AO2 T02290190
KUCP 050521Z AUTO 00000KT 2 1/2SM BR CLR 18/18 A3016 RMK AO2
KEBS 050515Z AUTO 16008KT 10SM BKN090 25/23 A2993 RMK AO2
KIRS 050516Z AUTO 20002KT 4SM BR FEW095 23/21 A3011 RMK AO2
KDSM 050454Z 15008KT 10SM FEW250 26/21 A2997 RMK AO2 SLP140 T02610206
KUMP 050515Z AUTO 00000KT 10SM CLR 23/22 A3012 RMK AO2 T02300224
KFKS 050515Z AUTO 19006KT 10SM CLR 25/21 A3000 RMK AO2 T02520207
KY23 050515Z AUTO 18007KT 10SM CLR 27/20 A2991 RMK AO2 T02660200
KBGD 050451Z AUTO 15012G22KT 10SM CLR 24/21 A2999 RMK AO2 SLP114 T02390206
KSTL 050451Z 19004KT 10SM CLR 28/19 A3006 RMK AO2 SLP163 T02780194 $
KBJC 050515Z AUTO 35011KT 10SM CLR 23/06 A3016 RMK AO2
KPRO 050515Z AUTO 16006KT 9SM CLR 24/22 A2994 RMK AO2 T02390222
KEST 050452Z AUTO 17010KT 10SM BKN070 OVC085 25/21 A2990 RMK AO2 SLP111 T02500206
KQEL 221330Z AUTO 05001KT 9999 CLR 14/12 A2985 RMK A02 TSNO
KFKA 050515Z AUTO 18009KT 10SM CLR 24/22 A2996 RMK AO2
KBNA 050453Z 00000KT 8SM FEW090 28/19 A3007 RMK AO2 SLP175 T02780189
KSUZ 050515Z AUTO 15004KT 9SM BKN060 26/25 A3003 RMK A01
KEDW 050455Z AUTO 23011KT 10SM CLR 25/08 A3003 RMK AO2 SLP144 T02450084
KRZT 050515Z AUTO 00000KT 7SM CLR 21/21 A3015 RMK AO2 PWINO
KMWA 050515Z AUTO 00000KT 7SM CLR 23/22 A3007 RMK AO2 T02280216
K60R 050515Z AUTO 14005KT 9SM BKN150 26/26 A2995 RMK AO2 SLP060 T02580256 $
KDTW 050453Z 00000KT 2 1/2SM R03R/6000VP6000FT FU SCT001 SCT100 22/21 A3009 RMK AO2 TWR VIS 4 VIS 1 1/2 3L SLP186 FU SCT001 T02220211 403110189CYAZ 050500Z AUTO 29008KT 13/12 A3016
CYZE 050500Z AUTO 16004KT 120V220 9SM BKN055 BKN160 20/15 A3000 RMK SLP161 DENSITY ALT 1400FT
CWZG 050500Z AUTO 03006KT 15/07 RMK AO1 SLP171 T01490067 52019
CYKO 050500Z AUTO 17016KT 05/05 A2941
CYZY 050500Z AUTO 13003KT 9SM CLR 16/08 A2999 RMK SLP167 DENSITY ALT 2800FT
CYYN 050500Z AUTO 06006KT 9SM CLR 14/07 A3009 RMK SLP187 DENSITY ALT 3100FT
CYMM 050500Z AUTO 22005KT 9SM CLR 12/11 A3003 RMK SLP182
CXWB 050400Z AUTO 06003KT 11/07 RMK AO1 2PAST HR 1003 SLP048 P0001 T01050069 50002
CZFS 050500Z AUTO 33001KT 14/07 RMK AO1 SLP195 T01410070 53012
CYGL 050500Z 13010KT 15SM BKN110 OVC140 16/14 A2979 RMK AC6AC2 PRESFR SLP092 DENSITY ALT 1100FT
CWLY 050500Z AUTO 20014G29KT 9SM CLR 23/10 A2992 RMK SLP131 DENSITY ALT 1900FT
CWRA 050500Z AUTO 00025KT 13/13 RMK AO1 2PAST HR 5004 SLP158 P0005 T01290129 50021
CZSP 050500Z AUTO 22005KT 15/14 RMK AO1 SLP109 T01450135 58004
CYZT 050500Z 32007KT 270V340 20SM BKN048 BKN094 14/10 A3016 RMK SC5AC2 SLP216
CYIV 050500Z AUTO 30008KT 6SM HZ OVC041 20/10 A2968 RMK SLP052 DENSITY ALT 1900FT
CWYY 050500Z AUTO 10002KT 26/07 RMK AO1 SLP123 T02570069 53023
CYPW 050500Z AUTO VRB02KT 17/12 A3007
CYCO 050500Z 29008KT 15SM SCT060 BKN100 BKN150 09/05 A3013 RMK ST3AC2AC1 SLP207
CYTR 050500Z 05002KT 15SM FEW250 15/13 A3011 RMK CI2 DENSITY ALT 326FT SLP195
CYIN 050500Z AUTO 00000KT 9SM 11/07 A3000 RMK CLD MISG SLP157 DENSITY ALT 4100FT
CYBX 050500Z 05014KT 15SM -RA OVC006 06/06 A2989 RMK ST8 WIND EST SLP124
CWQR 050500Z AUTO 17003KT 10/10 RMK AO1 T01010099
CYBD 050500Z AUTO 26014G24KT 230V290 17/11 A3007
CYMH 050500Z AUTO 03005KT 360V060 3SM BR OVC005 06/06 A2993 RMK SLP139
CWCJ 050500Z AUTO 22004KT 18/17 RMK AO1 0007 SLP108 T01760171 50019
CZVL 050500Z AUTO 00000KT 9SM CLR 09/07 A3009 RMK SLP203
CYYT 050500Z VRB02KT 15SM BKN005 OVC140 17/17 A2995 RMK SF5AC3 SLP144 DENSITY ALT 900FT
CWPO 050500Z AUTO 33008KT 21/11 RMK AO1 SLP118 T02080110 51028
CWWF 050500Z AUTO 34007KT 13/08 RMK AO1 SLP166 T01260081 51020
CYSP 050500Z AUTO 00000KT 18/17 A2985
CYCG 050500Z AUTO 16007KT 24/07 A2994
CYAW 041900Z 23011KT 10SM SCT034 SCT250 25/16 A2984 RMK SC3CI1 CU ASOCTD DENSITY ALT 1669FT LAST OBS /NEXT 071000 UTC SLP106
CZTB 050500Z AUTO 08008KT 14/12 RMK AO1 3002 SLP098 T01380123 50028
CMFM 050500Z AUTO 00000KT 08/07 RMK AO1 SLP196 T00760071 51010
CYAH 050500Z AUTO 19006KT 9SM CLR 15/07 A2990 RMK SLP132 DENSITY ALT 1300FT
CXET 050500Z AUTO 17003KT 18/12 RMK AO1 SLP192 T01790122 50000
CXTD 050500Z AUTO 19007KT 17/13 RMK AO1 SLP110 T01690130 58011
CWIZ 050500Z AUTO 19002KT 14/12 RMK AO1 T01430124
CYFO 050500Z AUTO 34010KT 16/07 A2987
CYZW 050500Z AUTO 27004KT 12/09 A2999
CZBF 050500Z AUTO 29005KT 260V330 9SM OVC036 15/13 A2990 RMK SLP127
CYBK 050500Z AUTO 35013KT 11/06 A2975
CWID 050500Z AUTO 29004KT 12/09 RMK AO1 SLP184 T01150091 53010
CYWG 050500Z 35012KT 15SM SCT059 24/12 A2980 RMK CU4 SLP091 DENSITY ALT 2200FT
CYYQ 050500Z CCA 33020G25KT 3SM R33/5500V6000FT/U -SHRA BR OVC005 06/06 A2947 RMK ST8 CVCTV CLD EMBD SLP984
CWFF 050500Z AUTO 26006KT 12/10 RMK AO1 SLP165 T01230100 51016
CYYW 050500Z AUTO VRB02KT 9SM BKN140 OVC240 15/14 A2973 RMK SLP064 DENSITY ALT 1600FT
CZFM 050500Z AUTO 13006KT 19/05 A3009
CYKQ 050500Z AUTO 16008KT 19/12 A2980
CWMQ 050500Z AUTO 06005KT 18/05 RMK AO1 SLP178 T01780046 53019
CYOO 050500Z AUTO 02004KT 9SM CLR 15/12 A3011 RMK SLP197
CWNO 042200Z 00000KT 15SM SCT050TCU SCT120 18/09 RMK TCU3AC1 WIND EST VIA CYCQ
CYBR 050500Z AUTO 31009KT 9SM CLR 14/10 A2992 RMK SLP135 DENSITY ALT 1600FT
CYPG 042200Z CCA 01012G17KT 10SM FEW036 FEW180 SCT300 29/20 A2971 RMK CU1AC1CI4 DENSITY ALT 3282FT FU LAST OBS /NEXT 071100 UTC SLP055
CYOC 050500Z AUTO 06006KT 25/09 A2998
CERM 050500Z AUTO 36001KT 11/11 RMK AO1 SLP153 T01120111 51009
CWGD 050500Z AUTO 15006KT 21/14 RMK AO1 SLP182 T02120144 51002
CWTH 042200Z 03002KT 10SM BKN035 17/08 RMK CU7 FU WIND EST VIA CYXY
CXDK 050500Z AUTO 15/06 RMK AO1 2015 SLP191 T01480061 50001
CYCS 050500Z AUTO 04007KT 360V090 08/03 A2961
CYUX 050500Z AUTO 18004KT 9SM BKN086 OVC120 04/03 A2962 RMK SLP034
CYQZ 050500Z AUTO 00000KT 9SM FEW130 15/09 A2996 RMK SLP153 DENSITY ALT 2200FT
CYPQ 050500Z AUTO VRB02KT 9SM CLR 12/11 A3011 RMK SLP198
CYHI 050500Z AUTO 20006KT 02/01 A3005
CYEK 050500Z AUTO 01022G30KT 8SM RA OVC055 09/08 A2954 RMK PCPN 3.8MM PAST HR SLP004
CYVV 050500Z 16008KT 15SM BKN063 19/16 A3005 RMK SC7 SLP177 DENSITY ALT 1300FT
CXTV 050500Z AUTO 13006KT 18/06 RMK AO1 SLP200 T01800064 54000
CXRB 050500Z AUTO 32004KT 01/01 RMK AO1 SLP033 T00080005 58007
CYPE 050500Z AUTO VRB02KT 9SM FEW130 12/09 A3002 RMK SLP178
CYWE 050500Z AUTO 36006KT 9SM CLR 11/04 A3004 RMK SLP191
CYKD 050500Z AUTO 16007KT 20/06 A3008
CWGR 050500Z AUTO 15004KT 17/16 RMK AO1 SLP107 T01670163 58003
CZPC 050500Z AUTO 32004KT 9SM -RA BKN060 OVC081 13/12 A3012 RMK PCPN 0.5MM PAST HR SLP195 DENSITY ALT 4400FT
CYZX 050500Z 23006KT 15SM FEW190 14/11 A2992 RMK AC2 DENSITY ALT 106FT SLP131
CXKE 050500Z AUTO 20002KT 15/13 RMK AO1 SLP201 T01530127 53002
CWNH 050500Z AUTO 16002KT 14/12 RMK AO1 SLP151 T01380115 53013
CWIW 050500Z AUTO 31005KT 14/09 RMK AO1 SLP176 T01390090 53021
CYQX 050500Z 33003KT 10SM OVC007 14/13 A2990 RMK SF8 SLP128
CWVF 050500Z AUTO 11016KT 18/14 RMK AO1 PK WND 12018/0419 T01750140
CYUB 050500Z 10010G16KT 10SM FEW200 15/08 A3012 RMK CI1 CI TR LAST OBS/NEXT OBS 051300 SLP201
CWSA 050500Z AUTO 20010KT 3SM BR 13/13 A2994 RMK CLD MISG SLP140
CYYR 050500Z 02007KT 4SM -DZ BR BKN005 OVC020 11/10 A2994 RMK SF6SC2 DENSITY ALT -192FT SLP140
CYXS 050500Z AUTO 02003KT 9SM FEW130 OVC150 16/08 A2999 RMK SLP164 DENSITY ALT 2800FT
CYAS 050500Z AUTO 17005KT 14/11 A2973
CWVT 050500Z AUTO 33002KT 14/08 RMK AO1 SLP193 T01410084 53022
CYGK 050500Z AUTO 17005KT 18/16 A3013
CXTO 050500Z AUTO 20/12 RMK AO1 SLP195 T02010121 55000
CWEL 050500Z AUTO 08012KT 19/16 RMK AO1 SLP178 T01860161 53017
CWGZ 050500Z AUTO VRB02KT 01/M00 A2960
CYMU 050500Z AUTO 15015G21KT 18/09 A2966
CWST 050500Z AUTO 24005KT 16/12 RMK AO1 SLP146 T01580115 53011
CYVR 050500Z 11015KT 20SM FEW140 FEW220 18/10 A3007 RMK AC1CI1 SLP185
CYXU 050500Z 15003KT 15SM SKC 19/14 A3011 RMK SLP197 DENSITY ALT 1400FT
CWPE 050500Z AUTO 30004KT 14/13 RMK AO1 SLP139 T01400129 50001
CYET 050500Z AUTO 09005KT 9SM SCT110 14/07 A3009 RMK SLP196 DENSITY ALT 3500FT
CYCB 050500Z 26008KT 15SM FEW025 FEW140 BKN210 05/03 A2989 RMK SC1AC2CI5 SC TR SLP126
CYPL 050500Z AUTO 25008KT 9SM CLR 22/20 A2969 RMK SLP055 DENSITY ALT 2700FT
CWQO 050500Z AUTO 09004KT 12/12 RMK AO1 T01170116
CWQS 050400Z AUTO 17008KT 13/12 RMK AO1 SLP196 T01320115 50000
CYRV 050500Z AUTO 00000KT 9SM CLR 18/12 A2991 RMK SLP130 DENSITY ALT 2200FT
CTNK 050500Z AUTO 00000KT 12/11 RMK AO1 SLP201 T01180107 53003
CXBO 050500Z AUTO 23007KT 18/12 RMK AO1 T01810115
CYXR 050500Z AUTO 16006KT 9SM OVC066 17/11 A2999 RMK SLP161 DENSITY ALT 1200FT
CWWE 050500Z AUTO 28007KT 14/11 RMK AO1 SLP141 T01380114 51001
CWPK 040800Z AUTO 27003KT 10/09 RMK AO1 SLP167 T01020090 52009
CYQB 050500Z 26006KT 15SM FEW250 16/12 A3002 RMK CI1 SLP170
CXNM 050500Z AUTO 22003KT 15/13 RMK AO1 T01490130
CYZS 050500Z 09014KT 15SM SKC 07/03 A2953 RMK WIND EST SLP006
CWEF 050500Z AUTO 13013KT 12/12 RMK AO1 SLP111 T01240124 58005
CYTL 050500Z AUTO 31010G16KT 9SM FEW024 22/10 A2957 RMK SLP016 DENSITY ALT 2200FT
CWNC 050500Z AUTO 00000KT 15/12 RMK AO1 SLP193 T01490116 55001
CWKD 111700Z AUTO 13/12 RMK AO1 SLP017 T01280123 55003
CYBV 050500Z AUTO 31010KT 21/12 A2980
CYYH 050500Z 34007KT 15SM FEW012 FEW022 FEW040 SCT060 06/03 A2973 RMK SC1SC1SC1SC2 SC TR SC TR SLP071
CYVM 050500Z AUTO 20008KT OVC150 04/00 A2971 RMK WX MISG VIS MISG SLP062
CWPF 050530Z AUTO 18004KT 14/08 RMK AO1 SLP195 T01420083 53019
CYPC 050500Z AUTO 08002KT 09/04 A3018
CWPR 050500Z AUTO 28004KT 20/07 RMK AO1 SLP157 T01980069 51040
CZSJ 050500Z AUTO 25005KT 220V330 9SM FEW120 21/07 A2969 RMK SLP058 DENSITY ALT 2100FT
CWKH 050500Z AUTO 15/05 RMK AO1 SLP181 T01530048 53012
CWKG 050500Z AUTO 27002KT 12/10 RMK AO1 SLP143 T01180103 50000
CWBV 050500Z AUTO 24007KT 13/13 RMK AO1 SLP103 T01290129 56005
CYPO 050500Z AUTO 23011G16KT 9SM FEW220 SCT240 25/18 A2943 RMK SLP964 DENSITY ALT 2000FT
CWBZ 050500Z AUTO 23004KT 16/13 RMK AO1 SLP199 T01580128 53004
CYWY 050500Z AUTO 33003KT 290V030 13/08 A3012
CWHT 050500Z AUTO 31008G15KT 13/10 RMK AO1 SLP173 T01300096 51013
CYPY 050500Z AUTO 00000KT 9SM FEW066 11/09 A3000 RMK SLP167
CWIT 050500Z AUTO 29001KT 14/12 RMK AO1 SLP198 T01390118 51004
CWWU 042000Z CCA 22008KT 15SM SCT009 BKN016 BKN050 BKN150 19/17 A2992 RMK SF3SC3SC1AC1 AC TR LAST OBS/NXT 050700Z SLP134
CWWQ 041800Z 00000KT 10SM RA BKN030 11/09 RMK NS7 WIND EST VIA CYYE
CYPD 050500Z AUTO 06003KT 010V080 8SM FEW060 SCT079 14/13 A2986 RMK SLP112
CYSJ 050500Z 31007KT 15SM BKN080 14/13 A2992 RMK AC5 SLP134
CXDE 050500Z AUTO 15002KT 07/01 RMK AO1 SLP223 T00690008 52006
CWSP 042200Z AUTO 29022G27KT 12/10 RMK AO1 PK WND 29028/2140 SLP184 T01200095 53006
CYQR 050500Z 33005KT 15SM FEW260 12/08 A3006 RMK CI1 SLP187
CYZV 050500Z 32004KT 15SM FEW003 OVC070 13/13 A2991 RMK SF1AC8 SF TR SLP132
CYPR 050500Z AUTO 00000KT 9SM SCT049 BKN066 BKN077 OVC130 14/11 A3009 RMK SLP192
CYFC 050500Z AUTO 29005KT 250V330 9SM OVC076 16/14 A2993 RMK SLP136
CWNM 050500Z AUTO 18006KT 23/08 RMK AO1 SLP130 T02260084 53021
CYXY 050500Z 14005KT 40SM FEW005 BKN086 BKN140 12/11 A2998 RMK SF1AC6AC1 SF TR LOW CLD IN VALLEY SE SH DIST N SLP172
CWBY 050500Z AUTO 05005KT 12/11 RMK AO1 SLP120 T01160109 51008
CXLB 050500Z AUTO 28007KT 16/13 RMK AO1 SLP123 T01630126 51003
CWSD 050500Z AUTO 25003KT 15/14 RMK AO1 SLP111 T01540138 51002
CYED 042148Z 33006KT 290V010 9SM BKN043 16/08 A3006 RMK SC7 DENSITY ALT 2895FT FU LAST OBS /NEXT 071300 UTC SLP188
CYTH 050500Z 29019G31KT 15SM BKN031 15/09 A2969 RMK SC7 SLP059 DENSITY ALT 1200FT
CWJX 050500Z AUTO 03007KT 15/08 RMK AO1 SLP187 T01470081 53016
CWEB 050500Z AUTO 13/12 RMK AO1 SLP218 T01290120 53009
CWTT 050500Z AUTO 20007KT 19/13 RMK AO1 T01860128
CYTS 050500Z 19005KT 15SM -SHRA OVC100 19/15 A2994 RMK AC8 CVCTV CLD EMBD SLP143 DENSITY ALT 1700FT
CYAT 050500Z AUTO 21006KT 180V240 9SM CLR 22/16 A2962 RMK SLP033 DENSITY ALT 1300FT
CMGB 050500Z AUTO 18001KT 15/13 RMK AO1 SLP203 T01480127 51010
CYXH 050500Z AUTO 06009KT 9SM BKN140 OVC160 20/05 A3006 RMK SLP177 DENSITY ALT 3400FT
CWBA 050500Z AUTO 19003KT 14/13 RMK AO1 T01420127
CYSC 050500Z AUTO 23005KT 9SM CLR 14/12 A3011 RMK SLP200
CZCR 050500Z AUTO 28006KT 16/13 RMK AO1 SLP127 T01600128 53006
CWVI 050500Z AUTO 28004KT 11/11 RMK AO1 SLP197 T01070107 51011
CYSM 050500Z 32002KT 12SM BKN071 13/11 A2999 RMK AC7 SLP166
CWGY 050500Z AUTO 15002KT 10/08 RMK AO1 SLP199 T00990081 53017
CYGE 050500Z AUTO 00000KT 15/07 A2997
CZBB 050500Z AUTO 13012KT 17/09 A3008
CWEP 050500Z AUTO 19004KT 17/16 RMK AO1 SLP108 T01710155 58006
CWPD 050500Z AUTO 20003KT 09/08 RMK AO1 SLP167 T00890075 52010
CYXX 050500Z 21005KT 15SM FEW060 FEW100 SCT250 16/08 A3009 RMK SC1AC1CI2 SC TR SLP192
CWJH 050500Z AUTO 32009G16KT 12/05 RMK AO1 PK WND 30019/0443 SLP146 T01210053 52030
CXAT 050500Z AUTO 32011KT 03/M00 RMK AO1 SLP027 T00301004 50000
CWGB 050500Z AUTO 06008KT 19/19 RMK AO1 SLP181 T01890188 53019
CYNM 050500Z AUTO 18005KT 9SM CLR 14/10 A2995 RMK SLP149
CXTN 050500Z AUTO 34004KT 08/02 RMK AO1 SLP242 T00780015 50001
CXPC 050500Z AUTO 18/14 RMK AO1 SLP178 T01770139 56007
CWEH 050500Z AUTO 05011G16KT 17/04 RMK AO1 SLP175 T01650044 53012
CAHR 050500Z AUTO 22001KT 15/13 RMK AO1 SLP111 T01490132 50000
CWJW 050500Z AUTO 06005KT 17/05 RMK AO1 SLP150 T01690046 53012
CWWB 050500Z AUTO 29001KT 21/14 RMK AO1 SLP195 T02130140 56001
CWVP 050500Z AUTO 05006KT 15/04 RMK AO1 SLP184 T01500042 53012
CYVP 050500Z 29004KT 15SM BKN110 15/10 A2982 RMK AC7 SLP101
CYXE 050500Z 30006KT 15SM FEW300 11/09 A3003 RMK CI2 SLP180
CWTA 050500Z AUTO 23002KT 20/12 RMK AO1 SLP194 T02000124 51005
CXKT 050500Z AUTO 22003KT 14/11 RMK AO1 SLP127 T01440113 58002
CXBI 050500Z AUTO 19001KT 17/12 RMK AO1 SLP197 T01740119 50001
CYVQ 050500Z 13007KT 30SM FEW030 FEW053 FEW170 OVC270 14/05 A3014 RMK CU1SC1AC1CS6 CU TR SLP212
CYGX 050500Z AUTO 27018G26KT 18/11 A2952
CWSW 050500Z AUTO 00000KT 13/12 A3011
CYKL 050500Z AUTO 16002KT 9SM CLR 09/07 A2993 RMK SLP151
CXNP 050500Z AUTO 20003KT 12/11 RMK AO1 SLP113 T01190109 58003
CYNC 050500Z AUTO 16005KT 120V190 20/11 A2975
CWAE 050100Z 23009KT 15SM FEW058TCU BKN076 BKN093 22/09 A2999 RMK TCU2AC3AC2 LAST OBS/NXT 051300Z WIND EST SLP155 DENSITY ALT 3400FT
CXCK 050500Z AUTO 08002KT 22/07 RMK AO1 SLP120 T02240066 53006
CYLT 042000Z 10004KT 10SM BKN019 BKN045 01/00 A2952 RMK SC5SC2 DENSITY ALT -1021FT LAST OBS /NEXT 050700 UTC SLP998
CYYU 050500Z 18009KT 15SM -SHRA SCT031 BKN042 BKN065 OVC087 18/17 A2987 RMK SC3SC2SC1AC2 CVCTV CLD EMBD SLP119 DENSITY ALT 1400FT
CYBL 050500Z AUTO 31008KT 19/09 A3007
CYQG 050500Z AUTO 00000KT 9SM CLR 22/20 A3009 RMK SLP188 DENSITY ALT 1400FT
CYHM 050500Z 17004KT 15SM FEW250 18/12 A3011 RMK CI1 SLP196 DENSITY ALT 1100FT
CYIK 050500Z AUTO 10009KT 11/10 A2943
CWGW 050500Z AUTO 19002KT 13/12 RMK AO1 1033 SLP187 T01320119 50005
CXBK 050500Z AUTO 10/08 RMK AO1 SLP182 T01020075 53025
CYQW 050500Z AUTO 31005KT 9SM CLR 12/09 A3007 RMK SLP192
CWVU 050500Z AUTO 24011KT 12/10 RMK AO1 SLP146 T01160101 51002
CZRP 050500Z AUTO 29016KT 04/03 RMK AO1 PK WND 29025/0430 SLP043 T00400033 56007
CYHA 050500Z AUTO 18010KT 13/10 A2969
CWKV 042300Z 32024KT 10SM FEW060 SCT240 BKN270 21/09 RMK CU1CS3CI4 CU TR WIND GUSTING LAST OBS/NEXT 051330Z WIND EST VIA CYCG
CYOD 050500Z 29004KT 15SM FEW080 13/07 A3006 RMK AC1 DENSITY ALT 1878FT SLP189
CYPX 050500Z AUTO 17016G23KT 9SM BKN014 BKN055 OVC077 12/12 A2943 RMK SLP970 DENSITY ALT 400FT
CYLW 050500Z AUTO 07004KT 9SM CLR 18/06 A2992 RMK SLP129 DENSITY ALT 2100FT
CWXI 050500Z AUTO 06017KT 08/07 RMK AO1 0002 PK WND 06022/0402 SLP114 T00750071 50004
CYCY 050500Z AUTO 22007KT 9SM CLR 08/02 A2959 RMK SLP025
CYTZ 050500Z AUTO 00000KT 9SM CLR 19/15 A3010 RMK SLP194 DENSITY ALT 600FT
CWTG 050500Z AUTO 29005KT 13/13 RMK AO1 3002 SLP135 T01300130 50003
CWJO 050500Z AUTO 23004KT 17/10 RMK AO1 SLP157 T01670103 52013
CYZR 050500Z AUTO 19004KT 9SM CLR 20/17 A3009 RMK SLP187 DENSITY ALT 1200FT
CWBK 050500Z AUTO 31010KT 18/14 RMK AO1 SLP111 T01780140 58007
CYRQ 050500Z AUTO 00000KT 9SM CLR 14/12 A3006 RMK SLP183
CWVN 050500Z AUTO 05011KT 18/ RMK AO1 SLP165 T0181 51019
CYLD 050500Z AUTO 19006KT 19/11 A2995
CYXP 050500Z AUTO 10004KT 05/02 A2974
CYDP 050500Z AUTO 18002KT 09/06 A2992
CYUY 050500Z 20006KT 15SM BKN210 17/11 A3000 RMK CI5 SLP163 DENSITY ALT 1400FT
CWEQ 050500Z AUTO 28006KT 14/09 RMK AO1 SLP136 T01420088 51028
CWGT 050500Z AUTO 24022KT 19/10 RMK AO1 PK WND 23026/0441 SLP177 T01910101 53014
CYJT 031500Z 25011KT 15SM FEW047 SCT220 12/08 A3006 RMK SC1CI3 SLP182
CXEG 050500Z AUTO 19004KT 08/06 RMK AO1 SLP203 T00820062 51009
CYRJ 050500Z 25006KT 25SM FEW230 16/09 A3001 RMK CI1 CI TR SLP166 DENSITY ALT 800FT
CWDC 050500Z AUTO 33004KT 13/07 RMK AO1 SLP163 T01300068 52018
CYYC 050500Z 10006KT 10SM SCT058 BKN078 BKN240 16/09 A3010 RMK SC3AC3CI1 SLP198 DENSITY ALT 4400FT
CWBS 050500Z AUTO 26010KT 19/14 RMK AO1 T01920136
CWLP 050500Z AUTO 29009KT 11/ RMK AO1 SLP215 T0114 51010
CWND 050500Z AUTO 11015KT RMK AO1 PK WND 13017/0410
CWDQ 050500Z AUTO 11002KT 12/10 RMK AO1 SLP184 T01210101 51013
CYTQ 050500Z AUTO VRB02KT 14/11 A2978
CXCA 050500Z AUTO 18002KT 14/14 RMK AO1 8001 SLP097 T01420139 50055
CWLM 050500Z AUTO 24018G25KT 13/09 RMK AO1 PK WND 24026/0438 SLP192 T01280092 53020
CYSN 050500Z AUTO 16005KT 19/12 A3010
CWLE 050500Z AUTO 26005KT 12/10 RMK AO1 SLP195 T01220099 53021
CWKX 050500Z AUTO 24003KT 15/04 RMK AO1 SLP166 T01510042 53014
CXEC 050500Z AUTO 00000KT 11/07 RMK AO1 SLP201 T01090067 51010
CYCP 050500Z AUTO 00000KT 11/07 A2998
CYFB 050500Z 16003KT 10SM -RA OVC038 07/06 A2968 RMK SC8 SLP053
CWRT 050500Z AUTO 00000KT 12/12 RMK AO1 2PAST HR 1020 SLP192 P0001 T01210121 50018
CYHE 050500Z AUTO 30006G20KT 260V330 9SM BKN120 OVC140 20/09 A3006 RMK SLP182 DENSITY ALT 600FT
CXMY 050500Z AUTO 12/12 RMK AO1 T01190116
CTRA 050500Z AUTO 22004KT 20/20 RMK AO1 SLP084 T02010198 53001
CZFN 050500Z AUTO 05004KT 13/04 A3014
CWWZ 050500Z AUTO 16007KT 21/13 RMK AO1 SLP192 T02120132 58001
CWXC 050500Z AUTO 00000KT 10/10 RMK AO1 SLP161 T00950095 51013
CYQD 050500Z AUTO 31009G15KT 9SM CLR 18/08 A2987 RMK SLP120 DENSITY ALT 1600FT
CWNP 050500Z AUTO 08003KT 16/08 RMK AO1 SLP134 T01580075 53016
CWUX 050500Z AUTO 26006KT 16/09 RMK AO1 SLP163 T01640087 53013
CWSF 050500Z AUTO 28006KT 13/12 RMK AO1 1009 SLP127 T01290124 50002
CWMZ 050500Z AUTO 15006KT 20/16 RMK AO1 SLP178 T01960160 56007
CXMI 050500Z AUTO 16/12 RMK AO1 SLP119 T01630115 50000
CYGQ 050500Z AUTO 20008KT 9SM SCT100 OVC130 19/ A2978 RMK DP MISG SLP087 DENSITY ALT 2100FT
CYQM 050500Z 23006KT 15SM FEW061 SCT100 14/12 A2987 RMK SC2AC1 SLP119
CYCX 050311Z 28005KT 250V310 15SM SCT110 BKN180 16/14 A2994 RMK AC3AC2 DENSITY ALT 441FT LAST OBS /NEXT 070900 UTC SLP137
CWRU 050500Z AUTO 12/ RMK AO1 SLP225 T0124 53009
CWOY 050500Z AUTO 34004KT 14/09 RMK AO1 SLP172 T01430090 53021
CWRK 050500Z AUTO 00000KT 12/11 RMK AO1 SLP202 T01210114 51003
CXDI 050500Z AUTO 00000KT 14/12 RMK AO1 SLP194 T01350116 56005
CYGR 050500Z AUTO 16004KT 17/17 A2984
CYOJ 050500Z AUTO 36004KT 9SM CLR 12/12 A3001 RMK SLP174
CYMO 050500Z AUTO 19009KT 9SM BKN091 21/13 A2976 RMK SLP080 DENSITY ALT 1000FT
CYQQ 050500Z 34006KT 20SM FEW060 FEW250 18/11 A3007 RMK SC1CI1 DENSITY ALT 436FT SLP183
CYHU 050500Z AUTO 24007KT 9SM CLR 18/14 A3010 RMK SLP193 DENSITY ALT 300FT
CYXC 050500Z 14008KT 25SM BKN074 BKN140 17/11 A3006 RMK AC6AS1 CVCTV CLD EMBD SLP169 DENSITY ALT 3900FT
CYDB 050500Z AUTO 22007KT 180V250 9SM FEW096 14/11 A2997 RMK SLP171 DENSITY ALT 3100FT
CYLC 050500Z AUTO 11004KT 090V170 07/06 A2966
CWZL 050500Z AUTO 00000KT 14/12 RMK AO1 SLP198 T01360119 53004
CWWS 050500Z AUTO 30015KT 18/13 RMK AO1 PK WND 29019/0401 SLP101 T01840132 53020
CWZQ 050500Z AUTO 11002KT 16/15 RMK AO1 SLP106 T01580149 58006
CWDA 050500Z AUTO 07001KT 06/05 RMK AO1 SLP127 T00630054 57005
CWRZ 050500Z AUTO 26001KT 14/14 RMK AO1 SLP110 T01420137 53004
CWJV 050500Z AUTO 12004KT 20/05 RMK AO1 SLP130 T02030047 53014
CYZU 050500Z AUTO 16006KT 14/07 A3008
CZMT 050500Z AUTO VRB02KT 13/12 A3010
CWCI 050500Z AUTO 15013KT 11/11 RMK AO1 PK WND 14017/0404 SLP117 T01090109 56008
CXKA 050500Z AUTO 18008KT 18/18 RMK AO1 5PAST HR 8007 SLP119 P0025 T01820176 50071
CZMD 050500Z AUTO 25008KT 9SM FEW120 22/08 A2964 RMK SLP040 DENSITY ALT 2300FT
CWHV 050500Z AUTO 20002KT 14/11 RMK AO1 SLP176 T01360111 53010
CYCA 050500Z AUTO 03003KT 010V070 3SM -RA BR FEW004 OVC055 08/08 A2996 RMK PCPN 5.2MM PAST HR SLP147
CWBT 050500Z AUTO 00000KT 10/10 RMK AO1 2003 SLP125 T01020102 50009
CTCK 050500Z AUTO 12001KT 14/13 RMK AO1 SLP195 T01410126 53002
CYUT 050500Z AUTO 00000KT 10/03 A2964
CYCD 050500Z AUTO 27007KT 20/06 A3006
CYZH 050500Z AUTO 17005KT 9SM CLR 12/10 A3006 RMK SLP191
CWII 050500Z AUTO 35010G16KT 23/13 RMK AO1 SLP092 T02330130 51021
CYAB 050500Z AUTO 30012KT 04/00 A2958
CYUL 050500Z 24008KT 15SM SKC 19/13 A3010 RMK SLP197 DENSITY ALT 400FT
CYMT 050500Z AUTO 21004KT 9SM SCT150 BKN170 OVC200 16/11 A3003 RMK SLP172 DENSITY ALT 1600FT
CYVL 050500Z AUTO 12003KT 9SM BKN190 13/06 A3014 RMK SLP222
CYTE 050500Z AUTO 10008KT 1/2SM HZ VV003 04/ A2953 RMK DP MISG SLP004
CYSY 050500Z AUTO 31012KT 05/00 A3012
CWJR 050500Z AUTO 17006KT 17/12 RMK AO1 2PAST HR 3043 PK WND 16020/0425 SLP170 P0001 T01730115 50002
CWDZ 050500Z AUTO 04006KT 14/08 RMK AO1 SLP184 T01430078 53010
CYER 050500Z AUTO 01004KT 9SM SCT250 16/16 A2941 RMK SLP960 DENSITY ALT 800FT
CYYJ 050500Z 27012KT 30SM FEW075 FEW200 SCT250 19/06 A3007 RMK AC1CC1CI4 AC TR CC TR SLP186 DENSITY ALT 400FT
CBBC 050500Z AUTO VRB02KT 9SM FEW140 BKN180 OVC200 14/10 A3015 RMK SLP212
CWSL 050500Z AUTO 17003KT 18/08 RMK AO1 SLP116 T01780083 53009
CYJN 050500Z AUTO 24004KT 16/13 A3011
CYBG 050500Z 26008KT 25SM SCT220 17/09 A3000 RMK CI3 DENSITY ALT 922FT SLP159
CWAR 050500Z AUTO 23008KT 13/ RMK AO1 T0129
CXOX 050500Z AUTO 34005KT 15/06 RMK AO1 SLP159 T01500057 52029
CWDV 050500Z AUTO 31004KT 18/18 RMK AO1 3001 SLP098 T01830178 50023
CWRJ 050500Z AUTO 32003KT 12/09 RMK AO1 SLP189 T01170093 53019
CYWK 050500Z AUTO 16004KT 9SM CLR 05/05 A2995 RMK SLP159
CWTN 050500Z AUTO 35003KT 17/12 RMK AO1 SLP156 T01680119 53009
CWOC 050500Z AUTO 04002KT 14/13 RMK AO1 SLP116 T01370134 51007
CWLB 050500Z AUTO 26004KT 15/08 RMK AO1 SLP193 T01500075 52014
CYQU 050500Z 12006KT 25SM FEW070 FEW240 17/07 A3003 RMK AC2CI1 CI TR SLP179 DENSITY ALT 2800FT
CYPH 050323Z AUTO 20008G19KT 7SM RA FEW041 BKN055 BKN073 OVC110 10/08 A2960 RMK PRESRR PCPN 3.3MM PAST HR SLP026
CYQK 050500Z 20006KT 15SM FEW006 BKN240 21/20 A2978 RMK SF1CI6 FU SLP085 DENSITY ALT 2500FT
CYXN 050500Z AUTO /////KT
CYGP 050500Z 31005KT 15SM -DZ OVC012 15/14 A2986 RMK ST8 SLP116
CWIP 050500Z AUTO 25001KT 14/13 RMK AO1 T01380130 50004
CWQK 050500Z AUTO 28036KT 12/10 RMK AO1 PK WND 28040/0408 SLP199 T01190095 51009
CYQY 050500Z 14003KT 1/8SM R06/0600V1200FT/U FG VV001 14/14 A2987 RMK FG8 SLP118
CWGM 050500Z AUTO 00000KT 13/10 RMK AO1 SLP179 T01330096 52014
CWLS 050500Z AUTO 18005KT 19/13 RMK AO1 SLP195 T01880133 51002
CWDK 050500Z AUTO 16001KT 15/11 RMK AO1 SOG 01 3015 SLP177 T01520112
CYSF 050500Z AUTO 31003KT 9SM BKN076 11/08 A2995 RMK SLP154
CYAY 050500Z AUTO 03009KT 3SM BR OVC004 06/05 A2990 RMK SLP129
CXEA 050500Z AUTO 25003KT 23/21 RMK AO1 SLP069 T02250210 51001
CWFQ 050500Z AUTO 16003KT 14/12 RMK AO1 SLP203 T01430120 50007
CYQI 050500Z 29012KT 15SM SKC 13/13 A2998 RMK SLP155
CYSK 050500Z AUTO 18027G35KT 14/09 A2950
CYZG 050500Z AUTO 17019G24KT 11/10 A2946
CWZV 050500Z AUTO 22006KT 12/11 RMK AO1 SLP205 T01190112 51005
CZEV 050500Z AUTO 11008KT 19/04 RMK AO1 SLP202 T01900035 55001
CZEL 050500Z AUTO 08001KT 17/14 RMK AO1 SLP199 T01690136 55000
CXMD 050500Z AUTO 32006KT 24/17 RMK AO1 SLP097 T02360166 53018
CWOD 050500Z AUTO 28007KT 14/10 RMK AO1 SLP165 T01390097 51007
CYMJ 050028Z 34014G22KT 15SM FEW250 24/06 A2995 RMK CI2 DENSITY ALT 3540FT LAST OBS /NEXT 061000 UTC SLP142
CYWA 041715Z 33009KT 15SM FEW050 FEW230 23/12 A3013 RMK CU2CI1 DENSITY ALT 1407FT LAST OBS /NEXT 071000 UTC SLP203
CYQL 050500Z AUTO 06011KT 9SM BKN086 BKN110 OVC130 17/09 A3006 RMK SLP177 DENSITY ALT 3800FT
CWDO 050500Z AUTO 26003KT 08/08 RMK AO1 SLP125 T00810080 58004
CYKY 050500Z 02005KT 15SM SCT100 BKN240 12/09 A3009 RMK AC3CI3 SLP193
CWAV 050500Z AUTO 08003KT 14/07 RMK AO1 SLP192 T01420070 52009
CWME 050500Z AUTO 21002KT 15/11 RMK AO1 1018 SLP209 T01480111 50004
CZST 050500Z AUTO 00000KT 14/12 A3006
CWUS 050500Z AUTO 19003KT 21/02 RMK AO1 SLP126 T02130021 53015
CYLJ 050500Z AUTO 24005KT 11/07 A3004
CXRH 050500Z AUTO 14002KT 14/12 RMK AO1 SLP109 T01350122 51002
CXIB 050500Z AUTO 00000KT 15/14 RMK AO1 SLP104 T01460144 55011
CXHA 050500Z AUTO 15002KT 23/22 RMK AO1 SLP184 T02250215 50000
CYLK 050500Z AUTO 06004KT 13/07 A2999
CWEU 050500Z AUTO 12011KT 04/01 A2946
CYBW 050500Z AUTO 13008KT 9SM BKN071 15/09 A3011 RMK SLP199 DENSITY ALT 4700FT
CYDF 050500Z 03003KT 15SM SCT017 OVC042 10/09 A2989 RMK SC4SC4 SLP125
CWMT 050500Z AUTO 35005KT 12/02 RMK AO1 SLP190 T01220022 52014
CWZA 050500Z AUTO 13002KT 19/09 RMK AO1 SLP190 T01860094 52021
CWKK 050500Z AUTO 18007KT 15/14 RMK AO1 6009 SLP086 T01450137 50012
CWNQ 050500Z AUTO 25004KT 19/14 RMK AO1 SLP183 T01930141 51014
CWBU 050500Z AUTO 29006KT 13/10 RMK AO1 SLP149 T01250097 52017
CYDN 050500Z AUTO 28008KT 9SM CLR 12/10 A2990 RMK SLP128
CWIJ 050500Z AUTO 35009KT 08/04 RMK AO1 SLP211 T00770035 51015
CWSS 050500Z AUTO 29002KT 15/13 RMK AO1 SLP152 T01510134 52008
CWMM 050500Z AUTO 14004KT 19/08 RMK AO1 SLP193 T01900075 53017
CWDJ 050500Z AUTO 34006KT 13/08 RMK AO1 SLP179 T01260083 53027
CXVN 050500Z AUTO 17004KT 20/10 RMK AO1 SLP193 T01970095 58001
CWRO 050500Z AUTO 01004KT 13/12 RMK AO1 SLP194 T01300115 53005
CWMJ 050500Z AUTO 00000KT 11/11 RMK AO1 SLP195 T01130113 53002
CWRN 050500Z AUTO 22003KT 14/13 RMK AO1 SLP111 T01380134 58008
CYEV 050500Z 10009KT 15SM FEW260 20/04 A3010 RMK CI1 CI TR FU ALF SLP198 DENSITY ALT 700FT
CWOE 050500Z AUTO 05011KT 19/06 RMK AO1 PK WND 05019/0432 SLP165 T01920055 52023
CYRC 050500Z AUTO 00000KT 12/10 A3000
CXGH 050500Z AUTO 34009KT 23/11 RMK AO1 SLP094 T02300108 51024
CYFT 050500Z AUTO 00000KT 09/06 A2995
CYHD 050500Z AUTO 22009KT 9SM FEW250 20/19 A2977 RMK SLP085 DENSITY ALT 2500FT
CYQF 050500Z AUTO 06004KT 9SM CLR 12/09 A3011 RMK SLP208
CYKA 050500Z 26005KT 40SM FEW160 FEW250 22/03 A2989 RMK AC1CI1 AC TR CI TR SLP123 DENSITY ALT 2300FT
CYHC 050500Z AUTO 15007KT 20/09 A3008
CWGH 041500Z AUTO 22001KT 18/14 RMK AO1 8PAST HR 0011 SLP108 P0003 T01790137 50008
CYJF 050500Z AUTO 04008KT 15/09 A3006
CWJD 050500Z AUTO 32004KT 17/10 RMK AO1 SLP104 T01710097 51026
CWQP 050400Z AUTO 16011KT 14/14 RMK AO1 SLP201 T01420135 50003
CWEE 111700Z AUTO 17/13 RMK AO1 SLP051 T01730128 53007
CYDL 050500Z AUTO VRB07KT 9SM OVC086 15/04 A2997 RMK SLP150 DENSITY ALT 3300FT
CWEZ 050500Z AUTO 19015KT 16/11 RMK AO1 SLP188 T01630108 53015
CYWL 050500Z 34003KT 15SM FEW100 BKN230 17/02 A3000 RMK AC2CI3 SLP158 DENSITY ALT 4000FT
CYXT 050500Z 17022KT 20SM FEW070 OVC100 16/07 A3005 RMK AC1AC8 AC TR SLP181
CXSH 050500Z AUTO 32003KT 16/11 RMK AO1 SLP180 T01620110 51010
CWIX 300800Z AUTO 15/13 RMK AO1 SLP119 T01460133 55002
CYVC 050500Z 32005KT 15SM FEW230 14/06 A2999 RMK CI1 SLP166
CZEM 050500Z AUTO 16008KT 20/11 A2979
CYKP 050500Z AUTO 19006KT 9SM CLR 18/15 A2966 RMK SLP037 DENSITY ALT 1500FT
CYLA 050500Z AUTO 18008KT 14/12 A2977
CYNJ 050500Z AUTO 00000KT 16/07 A3009
CXWN 050500Z AUTO 35005KT 25/19 RMK AO1 SLP088 T02510186 53024
CZDB 050500Z AUTO 27005KT 14/13 RMK AO1 8002 SLP120 T01420131 50004
CXTP 050500Z AUTO 19003KT 18/16 RMK AO1 SLP126 T01750155 57006
CYCQ 050500Z AUTO 00000KT 13/11 A2999
CYFS 050500Z 00000KT 15SM FEW055 BKN080 BKN120 BKN230 14/08 A3009 RMK SC2AC3AC1CI1 CI TR SLP198
CYHZ 050500Z 28007KT 15SM SCT220 15/11 A2990 RMK CI4 SLP127
CWHQ 050500Z AUTO 00000KT 12/11 RMK AO1 T01180112
CWKO 050500Z AUTO 01008KT 15/05 RMK AO1 SLP183 T01490052 51019
CWER 050500Z AUTO 24007KT RMK AO1
CWJC 050500Z AUTO 35021KT 09/06 RMK AO1 3021 PK WND 35025/0445 SLP109 T00930055 50010
CWHO 051700Z AUTO 00012KT 14/08 RMK AO1 SLP151 T01380075 57010
CWTY 050500Z AUTO 26002KT 19/12 RMK AO1 SLP181 T01880121 51012
CYXZ 050500Z AUTO 17005KT 120V210 18/18 A2993
CXSE 050500Z AUTO 28015KT RMK AO1 PK WND 28017/0444 58004
CWZO 050500Z AUTO 23014KT RMK AO1 PK WND 23017/0442
CXZV 050500Z AUTO 32002KT 12/12 RMK AO1 3002 SLP130 T01230120 50003
CWZW 050500Z AUTO 12/09 RMK AO1 3007 SLP200 T01160093 50012
CYRA 050500Z AUTO 07006KT 13/03 A3007
CWSR 050500Z AUTO 27007KT 11/08 RMK AO1 SLP182 T01130079 51013
CYDQ 050500Z AUTO 09002KT 9SM CLR 13/11 A3002 RMK SLP178 DENSITY ALT 2400FT
CXMM 050500Z AUTO 23005KT 12/11 RMK AO1 SLP194 T01170106 53012
CYRB 050500Z 29005KT 1/2SM R35/P6000FT/N FG VV002 01/01 A2961 RMK FG8 SLP036
CYBC 050500Z AUTO 30004KT 9SM CLR 11/11 A2994 RMK SLP142
CZUM 050500Z AUTO 00000KT 9SM OVC050 08/08 A2995 RMK SLP158
CXDW 050500Z AUTO 34009KT 22/15 RMK AO1 SLP106 T02160152 51026
CWZN 050500Z AUTO 16009KT 13/13 RMK AO1 SLP099 T01260126 58006
CYNA 050500Z AUTO 05005KT 9SM BKN008 OVC015 12/11 A2987 RMK SLP118
CYGH 050500Z AUTO 04005KT 360V070 16/04 A3011
CYXJ 050500Z 12006KT 60SM FEW020CB SCT096 BKN210 13/08 A3001 RMK CB1AC3CI1 SH DIST E-SE SLP177 DENSITY ALT 2500FT
CWDM 050500Z AUTO 02009KT 08/08 RMK AO1 SLP119 T00840084 51005
CWQH 050500Z AUTO 17004KT 15/12 RMK AO1 SLP200 T01510120 52012
CYEG 050500Z 19004KT 15SM FEW100 FEW250 08/07 A3009 RMK AC1CI1 AC TR SLP206
CWSK 050500Z AUTO 18006KT 20/10 RMK AO1 SLP178 T02040099 53026
CWSG 050500Z AUTO 26009KT 14/14 RMK AO1 SLP136 T01350135 52006
CYXQ 050500Z AUTO 34005KT 23/06 A2991
CYLU 050500Z AUTO 15013KT 14/08 A2983
CYHK 050500Z AUTO 34013G18KT 9SM OVC013 03/01 A2981 RMK SLP099
CYKG 050500Z AUTO 20019G25KT 13/11 A2959
CWRY 050500Z AUTO 08005KT 16/09 RMK AO1 SLP176 T01570093 51017
CWNE 050500Z AUTO 32007KT 18/15 RMK AO1 SLP112 T01780149 50002
CXYH 050200Z AUTO 07003KT 16/09 RMK AO1 SLP168 T01550086
CWFJ 050500Z AUTO 05002KT 16/08 RMK AO1 SLP168 T01630081 51018
CYLH 050500Z AUTO 22008KT 9SM CLR 22/19 A2962 RMK SLP032 DENSITY ALT 2200FT
CWNK 050500Z AUTO 33007KT 23/14 RMK AO1 SLP099 T02280144 52025
CYRL 050500Z AUTO 33009KT 300V030
CYGT 050500Z AUTO 12004KT 06/02 A2962
CYNE 050500Z AUTO 29005KT 250V330 9SM CLR 18/09 A2976 RMK SLP081 DENSITY ALT 1500FT
CWWL 050500Z AUTO 15008KT 13/11 RMK AO1 SLP174 T01320113 52003
CWPZ 050500Z AUTO 34001KT 13/07 RMK AO1 SLP168 T01330071 53012
CZMJ 050500Z AUTO 32006KT 11/07 RMK AO1 SLP194 T01100070 53027
CYYD 050500Z 33003KT 310V020 25SM FEW040 SCT080 BKN130 16/09 A3001 RMK SC1ACC2AC4 LAST STFD OBS/NXT 051300Z SLP167 DENSITY ALT 2100FT
CYAV 050500Z AUTO 36009KT 23/17 A2981
CWNZ 050500Z AUTO 20005KT 18/18 RMK AO1 3PAST HR 8019 SLP087 P0001 T01830175 50016
CYPK 050500Z AUTO 15005KT 18/09 A3009
CYKF 050500Z AUTO 00000KT 9SM CLR 15/13 A3012 RMK SLP199
CYHY 050500Z 29009KT 15SM FEW045 BKN065 BKN072 12/10 A3003 RMK SC1SC4AC2 SLP177
CYYY 050500Z 15006KT 15SM SKC 13/13 A2995 RMK SLP145
CYQH 050500Z 03003KT 30SM BKN055 13/09 A3000 RMK CU6 SLP176 DENSITY ALT 2500FT
CXHM 050500Z AUTO 00000KT 16/12 RMK AO1 SLP197 T01580123 52001
CYND 050500Z AUTO 00000KT 14/13 A3011
CWAQ 050500Z AUTO 32003KT 11/06 RMK AO1 SLP178 T01120061 51022
CYCK 050500Z AUTO 16007KT 9SM CLR 22/20 A3009 RMK SLP188 DENSITY ALT 1500FT
CYKJ 050500Z AUTO 32003KT 9SM CLR 09/04 A3000 RMK SLP178
CYYF 050500Z 21004KT 080V230 15SM FEW150 BKN230 22/08 A2991 RMK AC1CI6 AC TR SLP124 DENSITY ALT 2300FT
CYQA 050500Z AUTO 15004KT 9SM CLR 15/13 A3009 RMK SLP190
CWXA 050500Z AUTO 23001KT 14/08 RMK AO1 2PAST HR 3014 SLP208 P0001 T01370081 50004
CYZF 050500Z 23002KT 15SM FEW051 BKN110 BKN240 15/07 A3000 RMK SC1AC5CI1 SC TR CI TR SLP167
CYLL 050500Z AUTO 29005KT 9SM CLR 10/07 A3007 RMK SLP198
CZFA 050500Z AUTO 13003KT 20/03 A2989
CZSM 050500Z AUTO 30001KT 13/11 RMK AO1 3013 SLP167 T01250109 50003
CWCT 050500Z AUTO 03005KT 09/07 RMK AO1 SLP209 T00940072 53011
CYYG 050500Z 21005KT 15SM FEW090 16/14 A2986 RMK AC1 SLP112 DENSITY ALT 400FT
CYVO 050500Z AUTO 18005KT 9SM SCT240 16/11 A3003 RMK SLP176 DENSITY ALT 1400FT
CYYL 050500Z AUTO 32009G25KT 9SM BKN020 BKN028 OVC036 10/07 A2983 RMK SLP112
CWCF 050500Z AUTO 30009KT 21/12 RMK AO1 SLP090 T02090115 53020
CZKD 050500Z AUTO 28012G22KT 17/11 RMK AO1 PK WND 27022/0452 T01670107 53017
CZHY 050500Z AUTO 29009KT 13/10 RMK AO1 SLP174 T01260100 52011
CWYJ 050500Z AUTO 24007G16KT 14/08 RMK AO1 SLP192 T01410078 53016
CYYE 050500Z 22007KT 10SM -SHRA SCT064 OVC086 14/13 A3004 RMK SC4AC4 CVCTV CLD EMBD SLP183
CYMA 050500Z 36008KT 20SM FEW120 FEW200 BKN240 22/02 A2990 RMK AC1CC1CI4 AC TR SLP130 DENSITY ALT 3000FT
CWYL 050500Z AUTO 05002KT 11/02 RMK AO1 SLP165 T01120021 53015
CYIO 050500Z AUTO 21005KT 9SM OVC049 04/01 A2957 RMK SLP021
CWLC 050500Z AUTO 21002KT 14/12 RMK AO1 T01390115
CWJB 050500Z AUTO 22003KT 18/12 RMK AO1 T01830122
CWEW 050500Z AUTO 28001KT 16/12 RMK AO1 SLP193 T01610124 51007
CYAM 050500Z 11005KT 060V140 20SM BKN100 17/14 A2997 RMK AC7 SLP151 DENSITY ALT 1000FT
CWEK 050500Z AUTO 18003KT 15/12 RMK AO1 SLP194 T01450118 53005
CWIS 050500Z AUTO 31005KT 14/07 RMK AO1 SLP184 T01410068 53009
CYZP 050500Z AUTO 25007KT 9SM -RA SCT050 BKN055 OVC076 13/11 A3009 RMK PCPN 0.5MM PAST HR SLP192
CWJU 050500Z AUTO 21004KT 12/11 RMK AO1 1PAST HR 1002 SLP194 P0000 T01200112 50002
CYDA 050500Z AUTO 09005KT 24/05 A2989
CYMX 050500Z 27003KT 25SM FEW250 14/12 A3011 RMK CI1 SLP199
CWIG 050500Z AUTO 19013KT RMK AO1
CYXL 050500Z 21005KT 15SM BKN240 21/21 A2976 RMK CS5 SLP080 DENSITY ALT 2400FT
CYDC 050500Z AUTO 22002KT 20/07 A3002
CWRM 050500Z AUTO 11003KT 13/09 RMK AO1 SLP172 T01340086 51010
CYQT 050500Z 08009KT 15SM FEW060 SCT180 OVC230 14/13 A2980 RMK SC2AC2CI4 SLP098
CWVQ 050500Z AUTO 23004KT 18/13 RMK AO1 SLP196 T01800134 51005
CYEN 050500Z AUTO 35005KT 9SM CLR 12/08 A2999 RMK SLP161
CYOY 041923Z 30013G19KT 260V340 15SM SCT045 24/12 A2995 RMK CU4 DENSITY ALT 1862FT LAST OBS /NEXT 071100 UTC SLP143
CYYB 050500Z AUTO 10003KT 9SM BKN140 OVC170 16/14 A3007 RMK SLP186 DENSITY ALT 1500FT
CYSB 050500Z 17007KT 20SM OVC160 17/11 A3004 RMK AC8 SLP176 DENSITY ALT 1500FT
CWQV 050500Z AUTO 29007KT 18/ RMK AO1 T0177
CWBO 050500Z AUTO 05005KT 15/09 RMK AO1 SLP181 T01530089 53008
CXZC 050500Z AUTO 19003KT 21/12 RMK AO1 SLP083 T02120121 58013
CYGW 050500Z AUTO 16011G21KT 9SM OVC150 20/11 A2965 RMK SLP044 DENSITY ALT 1000FT
CYRT 050500Z 01009KT 15SM FEW030 FEW120 BKN240 09/06 A2961 RMK SC1AC2CI3 SC TR SLP029
CWAF 050500Z AUTO 26002KT 15/ RMK AO1 T0146
CWXL 050500Z AUTO 06009KT 17/08 RMK AO1 SLP179 T01740083 53019
CYGV 050500Z AUTO 19003KT 1 1/4SM -RA BR OVC003 11/11 A2988 RMK PCPN 0.5MM PAST HR SLP122
CYOW 050500Z 18004KT 15SM SKC 16/15 A3012 RMK SLP201
CWHL 050500Z AUTO 16001KT 14/09 RMK AO1 SLP195 T01380087 53005
CYWJ 050500Z AUTO 14003KT 07/01 A3014
CYBB 050500Z AUTO 36007KT 06/04 A2972
CXKI 050500Z AUTO 15004KT 18/12 RMK AO1 SLP147 T01830121 56008
CYQV 050500Z AUTO 28007KT 9SM CLR 12/09 A2997 RMK SLP158
CWWA 050500Z AUTO 06002KT 18/09 RMK AO1 SLP188 T01840090 53010
CYWH 050500Z AUTO 23014G23KT 14/09 A3011
CYYZ 050500Z 15004KT 15SM FEW250 21/13 A3010 RMK CI1 CI TR SLP194 DENSITY ALT 1200FT
CYVT 050500Z AUTO 33006KT 9SM FEW086 14/09 A3002 RMK SLP178
CWIK 050500Z AUTO 34006KT 14/08 RMK AO1 SLP161 T01430082 51021
CWJI 050500Z AUTO 36004KT 12/05 RMK AO1 SLP185 T01150054 53024
CYFR 050500Z AUTO 36002KT 11/10 A3000
CYBU 050500Z AUTO 26006KT 9SM OVC046 14/09 A2997 RMK SLP156
CWWK 050500Z AUTO 12002KT 17/08 RMK AO1 SLP195 T01690080 53015
CYBQ 050500Z AUTO 34013G26KT 9SM FEW014 BKN024 OVC036 10/09 A2969 RMK SLP064
CWGL 050500Z AUTO 18013KT 21/13 RMK AO1 SLP177 T02140129 58002
CZZJ 050500Z AUTO 08005KT 14/06 RMK AO1 SLP193 T01440064 53012
CYPA 050500Z 29007KT 15SM FEW270 13/09 A2999 RMK CI2 SLP165
