ESKS 161520Z AUTO 06008KT 9999 SCT066/// 27/13 Q1012
EPLB 161530Z 29010KT 260V320 9999 FEW052TCU 23/12 Q1008
EBBR 161520Z 32010KT 9999 FEW035 19/12 Q1015 NOSIG
EGPK 161520Z 02004KT 280V090 9999 FEW025 21/14 Q1016
ESGG 161520Z 36005KT CAVOK 20/17 Q1009
ESTA 161520Z 26008KT 9999 -RA OVC008 18/16 Q1009
ENSF 161520Z AUTO 05013KT CAVOK 19/15 Q1014 W/////
EPSY 161530Z 24011KT 2500 SHRA SCT001 BKN005 BKN011CB 16/15 Q1007
EKRK 161520Z AUTO 31010KT 9999 FEW024/// BKN097/// 18/13 Q1010
ESIA 161520Z AUTO 22007KT 170V250 9999 ////// 21/17 Q1008
EGYP 161520Z 26022KT 9999 FEW018 BKN022 06/02 Q1004 NOSIG
ESNX 161520Z AUTO 04008KT 340V070 9999 NCD 28/07 Q1015
ENSS 161520Z AUTO 34021G31KT 9999 BKN015/// OVC196/// 09/05 Q1014 RMK WIND 0500FT 34032KT
EDDL 161520Z AUTO VRB02KT 9999 +SHRA FEW013 BKN035 FEW///CB 17/15 Q1014 RETS TEMPO NSW
EDMA 161520Z 28007KT 9999 BKN049 19/15 Q1014
ESOH 161520Z AUTO 07010KT 020V110 9999 NCD 29/14 Q1009 REDZ
ESNS 161520Z 09004KT 050V140 CAVOK 27/07 Q1014
ENTC 161520Z 28008KT 240V330 CAVOK 17/10 Q1019 NOSIG RMK WIND 2600FT 31011KT
ETOU 161455Z AUTO 30010G19KT 9999 BKN095 26/08 A2987 RMK AO2 LTG DSNT E RAB1355E11 SLP116 P0000 60000 T02550076 57015
ENSB 161520Z 28012KT 9999 FEW010 08/04 Q1009 RMK WIND 1400FT 27010KT
EGTK 161520Z 33010KT 290V020 9999 FEW049 24/10 Q1016
ENZV 161520Z 29008KT CAVOK 22/17 Q1013 TEMPO SHRA BKN040TCU
ENUN 161520Z AUTO 06027KT CAVOK 17/12 Q1018 W13/S3
EGHI 161520Z 29008KT 210V340 CAVOK 26/09 Q1016
ENBS 161520Z 34020KT CAVOK 09/04 Q1015
EFMA 161520Z AUTO 03008KT 010V070 CAVOK 27/17 Q1009
ENTO 161520Z 35006KT 9999 VCSH NSC 18/18 Q1011 TEMPO SHRA SCT030CB
EHDL 161525Z AUTO 36008KT 1200 +TSRA FEW004 SCT006 BKN007 FEW015CB 16/15 Q1013 AMB
EGXW 161520Z 33005KT 9999 FEW045 SCT070 22/11 Q1016 NOSIG RMK BLU BLU
EIKN 161530Z 15008KT 100V170 9999 FEW026 SCT036 17/14 Q1015 NOSIG
EDAC 161520Z 25011KT 9999 SCT037 18/09 Q1011
EFKS 161520Z AUTO 34009KT 300V020 CAVOK 24/06 Q1011
EFKE 161520Z AUTO 35006KT 310V020 CAVOK 26/09 Q1012
EKYT 161520Z AUTO 32005KT 280V350 9999 -RA OVC100/// 19/18 Q1010
EHVK 161525Z AUTO 29007KT 260V340 9999 -DZ FEW024 SCT029 BKN067 19/13 Q1013 BLU
EGDR 161520Z AUTO 23009KT 0150 FG OVC001/// 17/17 Q1018
EVLA 161520Z AUTO 29003KT 240V330 9999 FEW008/// 19/16 Q1005
ENBR 161520Z 29006KT 240V330 9999 FEW045CB 26/16 Q1012 TEMPO TSRA BKN040CB RMK WIND 1200FT 30010KT
ENAN 161520Z 32009KT 9999 VCFG FEW010 14/11 Q1020
EGBJ 161520Z 24006KT 210V280 CAVOK 24/12 Q1016
EETN 161520Z 06011KT 9999 FEW040 25/11 Q1007 NOSIG
ETND 161320Z 24004KT 9999 VCSH FEW007 SCT027CB BKN060 19/12 Q1011 BLU
ENMS 161520Z 34006KT 290V030 CAVOK 32/10 Q1014 RMK WIND 412FT VRB03KT
EGGW 161520Z AUTO 33010G21KT 9999 FEW047 22/10 Q1016
ETIC 161455Z AUTO 27007KT 9999 FEW024 FEW029 SCT090 20/13 A2989 RMK AO2 LTG DSNT W SLP123 60008 T01960126 58017 $
EETU 161520Z AUTO 07009KT 9999 FEW120/// BKN170/// 23/20 Q1006
EDDM 161520Z AUTO 27007KT 230V320 9999 VCSH FEW///TCU 20/15 Q1014 RESHRA TEMPO 27015G25KT SHRA BKN040TCU
EGKB 161520Z 30010KT 250V350 CAVOK 23/09 Q1017
EFVA 161520Z AUTO 02012KT CAVOK 22/08 Q1012
EGHQ 161520Z 25010KT 0700 R30/P1500N -RADZ FG BKN002 17/17 Q1018
EGVP 161520Z 28007KT CAVOK 25/07 Q1016 NOSIG RMK BLU BLU
EGSS 161520Z AUTO 32007KT 270V360 9999 SCT042 21/12 Q1017
ESSA 161520Z 05014KT CAVOK 25/16 Q1008 NOSIG
ETSB 161520Z 30012KT 9999 VCSH BKN048CB BKN070 20/07 Q1014 BLU
EGPI 161520Z AUTO 29004KT 260V320 9999 FEW032/// 19/15 Q1017
EDDK 161520Z AUTO 35005KT 300V030 9999 -SHRA FEW038 FEW///CB 16/14 Q1014 RESHRA TEMPO SHRA
ETNW 161520Z 25006KT 9999 SCT020 BKN080 18/15 Q1010 BLU BLU TEMPO YLO
EHFD 161525Z AUTO 35012KT 280V080 9999 FEW017/// ///// Q1014
EEEI 161450Z 04010KT CAVOK 24/15 Q1007 NOSIG
EINN 161530Z 14010KT 9999 FEW006 BKN011 18/15 Q1015 TEMPO BKN008
EGVN 161520Z 27005KT CAVOK 24/09 Q1016 NOSIG RMK BLU BLU
ESST 161520Z AUTO 05009KT 360V090 9999 NCD 30/12 Q1009
EDHI 161520Z 26005KT 210V320 9999 FEW049 21/11 Q1010
EGSY 161520Z 26008KT 230V290 9999 FEW030 20/13 Q1017
ESPA 161520Z 20007KT CAVOK 27/10 Q1012
ESOE 161520Z 04017G28KT 010V070 CAVOK 27/16 Q1008
EPGD 161530Z 28015KT 9999 -RA OVC008 16/15 Q1007
ESUP 161520Z AUTO 33010KT 300V020 9999 ///////// 26/07 Q1013
EDNY 161520Z 23013KT CAVOK 21/12 Q1016
EGQS 161520Z 04009KT 9999 FEW040 19/14 Q1017 NOSIG RMK BLU BLU
EFLP 161520Z AUTO 03008KT 360V060 CAVOK 26/09 Q1009
ENKR 161520Z 35013KT CAVOK 14/05 Q1014 RMK WIND 731FT 36017KT
EKSP 161520Z 30010KT 9999 FEW028 SCT050 BKN090 21/12 Q1011
EDWE 161520Z AUTO 34008KT 300V360 9999 BKN032 BKN038 BKN047 20/13 Q1011
ESNL 161520Z 35006KT 320V030 CAVOK 29/05 Q1014
EGFF 161520Z AUTO 28007KT 9999 NCD 21/13 Q1018
EIDW 161530Z 11010KT 9999 FEW018 BKN160 19/12 Q1017 NOSIG
EGVO 161520Z 31010KT CAVOK 24/09 Q1016 NOSIG RMK BLU BLU
EGPF 161520Z AUTO 07005KT 020V120 9999 SCT035 20/13 Q1017
ENSO 161520Z 35008KT 9999 FEW045CB 22/18 Q1012
EGOM 161520Z 08008KT 9999 FEW033 BKN060 19/13 Q1017 RMK BLU
EHEH 161537Z AUTO 28011KT 230V340 9999 SCT024 BKN027 BKN031 20/14 Q1014 BLU TEMPO FEW020CB BKN025
ELLX 161520Z 26018G28KT 9999 FEW040 22/12 Q1015 TEMPO 27015G25KT
EFSA 161520Z AUTO 25003KT 220V300 CAVOK 27/11 Q1009
EVRA 161520Z 34005KT 310V050 9999 FEW033CB 22/18 Q1005 NOSIG
EHQS 161525Z AUTO 32013KT //// // FEW013/// 18/15 Q1014 RE//
EHAM 161525Z 30015KT 270V330 9999 FEW018 SCT021 FEW025TCU 20/15 Q1014 NOSIG
ENWV 161520Z AUTO 32017KT 9999NDV BKN014/// BKN037/// 17/15 Q1014 W///S3
ENOV 161520Z 08005KT CAVOK 28/17 Q1012 RMK WIND RWY 24 06005KT WIND 2090FT 34008KT
ETSL 161520Z 22018G30KT 9999 SCT045 BKN070 21/10 Q1014 BLACKBLU
EPMO 161530Z 30008KT 9999 FEW040 20/13 Q1009
ETMN 161520Z 33009KT 9999 FEW024 20/12 Q1011 BLACKBLU+BLU+
EDHL 161520Z 29004KT 190V340 CAVOK 23/10 Q1010
ENJS 161520Z 33016KT 7000 OVC007 18/15 Q1013 W17/S3
EGUN 161455Z 34007KT 9999 BKN070 23/12 A2999 RMK AO2A SLP159 T02250118 52013 $
ESMX 161520Z AUTO 33005KT 9999 DZ SCT009/// BKN017/// OVC072/// 19/19 Q1008
ENHV 161520Z 28013KT 9999 BKN019 10/06 Q1018
EGLL 161520Z AUTO 36008KT 310V040 9999 NCD 24/10 Q1016
ENLA 161520Z AUTO 30014KT 9999NDV BKN007/// 19/16 Q1013 W///S3
ENHK 161520Z 29010KT 9999 BKN015 11/08 Q1018
ENQR 161520Z AUTO 02012KT 7000 NCD 16/16 Q1013 W29///
EDFH 161520Z 30012KT 260V330 CAVOK 21/08 Q1014
ENVR 161350Z 02010KT CAVOK 18/12 Q1019
ENDR 161520Z AUTO 03013KT 9999NDV NCD 19/16 Q1015 W///S3
ESOW 161520Z AUTO 02017KT 9999 NCD 27/17 Q1008
EIDL 161530Z 33006KT CAVOK 19/13 Q1015
EGPL 161520Z 23007KT 180V260 9999 FEW022 19/12 Q1017
ETHB 161520Z 26007KT 9999 FEW012 BKN063 17/14 Q1011 BLU
EFPO 161520Z AUTO 10006KT 060V140 CAVOK 30/12 Q1008
ESMK 161520Z AUTO 29010KT 9999 -RA BKN043/// 18/17 Q1008
ETSH 161542Z 27007KT 9999 -SHRA FEW040TCU BKN060 18/13 Q1010 RETS BLU BLU TEMPO WHT
ETNN 161530Z 29008KT 9999 SCT040 BKN080 17/14 Q1014 RESHRA BLU
EKRN 161520Z AUTO 30014KT 9999 OVC100/// 18/14 Q1008
ENGM 161520Z 33005KT 290V020 CAVOK 23/18 Q1012 TEMPO SHRA FEW025 SCT030CB
EGLF 161520Z AUTO 29010KT 250V320 9999 NCD 25/09 Q1016
EFJO 161520Z AUTO 29005KT 260V320 CAVOK 27/12 Q1008
EBLG 161520Z 32010KT 290V360 9999 FEW040 20/10 Q1015 NOSIG
EIKY 161530Z 16009KT 9999 BKN024 20/17 Q1014
EFRO 161520Z AUTO 36007KT 320V040 CAVOK 25/07 Q1012
EDSB 161520Z 24005KT 210V290 9000 -RA FEW021 OVC036 19/16 Q1015
ENBN 161520Z 35005KT 310V050 CAVOK 26/17 Q1014
EBBE 161525Z AUTO 33010KT 9999 SCT050/// OVC065/// 19/11 Q1015 BLU
ESGT 161520Z AUTO 16008KT 8000 R15/P2000N R33///// RA ///////// 20/18 Q1010
ENKB 161520Z 23007KT 140V260 CAVOK 25/17 Q1013 RMK WIND 745FT 01010KT
ENHF 161520Z 27006KT 240V320 9999 FEW018 12/07 Q1017 RMK WIND 1253FT 33010KT
EEKE 161520Z AUTO 36003KT 320V060 9999 R17///// FEW085/// SCT110/// 23/19 Q1006
ESNG 161520Z 35010KT 310V010 CAVOK ///// Q1015
EHMA 161525Z AUTO 35013KT 9999 FEW015 18/14 Q1012
EHGG 161525Z AUTO 34009KT 290V030 9999 FEW028/// 21/13 Q1012 NOSIG
EGTE 161520Z 19005KT 160V240 9999 BKN027 23/17 Q1017
ENSK 161520Z 11005KT CAVOK 20/11 Q1019
EGOW 161520Z 32007KT 9999 FEW024 19/14 Q1017 RMK BLU
EGHE 161450Z 24015KT 6000 VCFG FEW002 OVC004 19/18 Q1018
EPDA 150359Z 35006KT 320V020 4500 BR SCT004 BKN024 18/17 Q1013
EHQW 161525Z AUTO 31013KT //// // FEW010/// SCT012/// 18/14 Q1014 RE//
EGWC 161450Z 33005KT 9999 SCT028 23/11 Q1017 RMK BLU
EHKD 161525Z AUTO 32011KT 270V030 9999 BKN016 BKN020 BKN027 19/14 Q1013 WHT NOSIG
ENCN 161520Z 29003KT 230V310 9999 FEW020 24/18 Q1011
EGWU 161520Z 35008KT CAVOK 24/10 Q1016 NOSIG RMK BLU BLU
EKSB 161520Z 31007KT 280V350 9999 FEW040 SCT080 20/12 Q1010
EFKT 161520Z AUTO 35015KT CAVOK 23/04 Q1014
EDLW 161520Z 25007KT 9999 -SHRA SCT011CB BKN015 16/14 Q1012
EGXE 161520Z 05007KT 9999 FEW040 21/12 Q1016 NOSIG RMK BLU BLU
ENML 161450Z 23005KT CAVOK 26/20 Q1012 RMK WIND 1587FT /////KT
EDFM 161520Z 22009KT 170V270 9999 SCT026 22/15 Q1013
EGPH 161520Z 04008KT 9999 SCT033 21/14 Q1017
EGSH 161520Z 34007KT 290V030 9999 FEW021 SCT028 21/12 Q1016
ETAR 161455Z AUTO 24018G24KT 9999 CLR 22/14 A2992 RMK AO2 SLP133 60013 T02150144 56015
EGMD 161520Z 22013KT CAVOK 23/16 Q1016
EVVA 161520Z AUTO 27005KT 0650 FG OVC001 18/18 Q1005
ESMS 161520Z 33010KT 9999 -DZ NSC 17/15 Q1009
EGDM 161520Z 28009KT CAVOK 25/08 Q1016 NOSIG RMK BLU BLU
EFKI 161520Z AUTO 01007KT 340V050 CAVOK 26/06 Q1010
ENHD 161520Z 01005KT 9999 -RA SCT024 20/17 Q1012
EKKA 161520Z AUTO 27007KT 9999 BKN014/// 19/16 Q1011
ETIK 161455Z AUTO 24017KT 9999 BKN022 BKN120 19/14 A2991 RMK AO2 DZB45E54 SLP128 P0000 60000 T01930137 57021
EDVK 161520Z 27010KT 9999 FEW020 SCT025 17/13 Q1012
EGXZ 161520Z AUTO 07006KT 9999 SCT043/// SCT063/// 22/12 Q1016
EDDC 161520Z AUTO 34007KT 210V350 9999 +SHRA SCT044 FEW///CB 20/11 Q1011 TEMPO 26015G25KT TSRA BKN040CB
EDTL 161520Z 25012KT 220V280 CAVOK 23/13 Q1015
EDDV 161520Z AUTO 25006KT 220V280 9999 SHRA SCT021 FEW///CB 19/15 Q1011 BECMG NSW
EGCC 161520Z AUTO 28009KT 9999 SCT029 BKN036 21/14 Q1017
EHQN 161525Z AUTO 30014KT //// // FEW011/// SCT013/// 18/14 Q1014 RE//
EYVI 161520Z 19005KT 120V250 9999 SCT031 23/16 Q1005 NOSIG
EGYM 161520Z 35010KT 9999 FEW035 20/12 Q1016 NOSIG RMK BLU BLU
EDJA 161520Z 24019G32KT 9999 BKN046 20/11 Q1015
EGEO 161450Z 24005KT 9999 FEW036 19/13 Q1017
ETAD 161455Z AUTO 30012G21KT 9999 SCT065 SCT085 23/07 A2992 RMK AO2 SLP119 T02340066 57005
EDGS 161520Z 32013KT 8000 -RA SCT004 BKN008 12/12 Q1014
EDBC 161520Z AUTO 28007KT 9999 SHRA FEW044 FEW///CB 20/10 Q1010
ENHE 161520Z 08017KT CAVOK 16/13 Q1015 W///S3
EFTP 161520Z AUTO 09007KT 050V130 CAVOK 28/12 Q1009
EGQM 161520Z AUTO 04008KT 9999 NCD 18/15 Q1017
ESNQ 161520Z 34010KT CAVOK 23/08 Q1017
EGPN 161520Z 11006KT 070V130 9999 FEW030 20/13 Q1017
EICK 161530Z 10011KT 2000 -RA OVC002 15/15 Q1015 BECMG 1200
EGQL 161450Z 10009KT 9999 SKC 20/12 Q1017 RMK BLU
EGNH 161520Z 30009KT 270V330 9999 FEW020 19/14 Q1017
ESOK 161520Z 05008KT 010V090 CAVOK 29/17 Q1009
EGTC 161520Z 31009KT 9999 FEW045 22/12 Q1016
ESCM 161520Z AUTO 02012KT 9999 NCD 24/19 Q1009
EGYH 161520Z 08008KT 9999 SCT033 SCT045 19/14 Q1016 RMK BLU
EFKU 161520Z AUTO 31010KT CAVOK 28/13 Q1008
EEPU 161520Z AUTO 02005KT 340V070 9999 FEW028/// SCT046/// //////CB 26/19 Q1006
EGPO 161520Z 14005KT 9999 FEW030 20/13 Q1017
EDLV 161520Z 28007KT 9999 FEW034 17/15 Q1013 RERA
EGOP 161520Z AUTO 23005KT 9999 // NCD 20/14 Q1016
ETHN 161520Z 25015KT 9999 FEW008 FEW015CB 17/14 Q1013 BLU+BLU TEMPO GRN
ENNE 161520Z 07022KT CAVOK 16/12 Q1016 W///S4
EEKA 161520Z AUTO 06003KT 350V100 9999 -RA FEW046/// BKN094/// BKN220/// 18/17 Q1007
EGNS 161520Z 21006KT 9999 FEW030 19/12 Q1017 NOSIG
EHLE 161525Z AUTO 33009KT 290V010 9999 SHRA ///////// 17/15 Q1013 REUP TEMPO 6000 -SHRA SCT018CB
EFMI 161520Z AUTO 11005KT 060V130 9999 FEW002 27/11 Q1009
EBFN 161525Z AUTO 29012KT 9999 OVC071/// 20/13 Q1016 BLU
ENFL 161520Z 30007KT CAVOK 23/17 Q1012
EHFS 161525Z AUTO 30015KT 260V340 9999 FEW022/// 20/14 Q1015
ENSL 161520Z AUTO 32017KT 9999 BKN006/// 18/16 Q1014 W17/S3
ETGG 161520Z AUTO 34011KT 9999 // ////// 21/12 Q1010 ///
EFOU 161520Z AUTO 33012KT CAVOK 24/08 Q1012
ENLE 161520Z 30016KT 9999 BKN015 18/14 Q1014 W17/S3
EGXC 161520Z 36007KT 9999 FEW035 22/13 Q1016 NOSIG RMK BLU BLU
EPRA 161530Z 32007G22KT 280V350 CAVOK 23/07 Q1009
EIWF 161530Z 14006KT 9999 -RA BKN011 16/14 Q1017
EGAC 161520Z AUTO 03007KT 010V080 9999 NCD 21/13 Q1016
EGPA 161520Z 02005KT CAVOK 19/12 Q1017
ETHS 161520Z 24006KT 9999 FEW020 SCT060 BKN080 18/12 Q1010 BLU FCST CNL
EGMC 131750Z 11008KT 080V150 CAVOK 23/14 Q1010
ETIH 140927Z AUTO 26009G18KT 9999 SCT060 SCT170 SCT210 27/11 A3003 RMK AO2 DZE0855DZB07E27 SLP163 $
ENQA 161520Z AUTO 34010KT CAVOK 19/17 Q1012 W15/S3
EGAE 161520Z 04015KT 9999 SCT040 19/15 Q1015
EFTU 161520Z AUTO 10009KT CAVOK 28/12 Q1008
EISG 161500Z 13007KT 100V170 9999 FEW040 21/11 Q1015
ENVA 161520Z 26010KT CAVOK 28/18 Q1012 NOSIG RMK WIND 670FT 30006KT
ENBV 161520Z AUTO 31015KT 9999 OVC015/// 09/06 Q1017
EPWR 161530Z 25006KT 9999 -SHRA FEW030CB 17/13 Q1011 RESHRA
ESSV 161520Z 34004KT 320V020 9999 FEW005 SCT010 19/18 Q1006
ESNU 161520Z 09008KT 060V120 CAVOK 25/06 Q1013
ENBL 161520Z VRB04KT CAVOK 29/12 Q1013
EDDW 161520Z AUTO 01006KT 330V060 CAVOK 20/12 Q1010 NOSIG
EKVD 161520Z AUTO 30010KT //// ///////// 20/13 Q1011
ENNM 161520Z 33008KT 300V010 CAVOK 32/15 Q1013
EFHK 161520Z 04008KT 350V080 CAVOK 28/12 Q1008 NOSIG
EHWO 161529Z AUTO 32011KT 270V010 9999 FEW020 SCT024 BKN052 19/13 Q1015 BLU
EHGR 161525Z AUTO 30013KT 250V340 9999 FEW029 BKN063 BKN079 20/13 Q1014 BLU
EKAH 161520Z AUTO 28008KT 9999 OVC019/// 20/16 Q1010
EHSC 161525Z AUTO 31016KT 9999 ///////// 18/14 Q1015 W20/H10
EFSI 161520Z AUTO 34008KT 310V020 CAVOK 25/11 Q1011
EGEC 161450Z 29004KT 9999 FEW038 17/13 Q1016
ENEV 161520Z 36006KT 310V060 CAVOK 22/12 Q1019 NOSIG RMK WIND 1400FT 01009KT
EDHK 161520Z 04006KT 010V070 9999 SCT040 20/13 Q1010
EGPU 161520Z 33006KT 280V360 CAVOK 18/13 Q1017
EGXS 161520Z AUTO 36009KT 9999 NCD 19/15 Q1016
EBCI 161520Z 31008KT 270V360 9999 FEW044 21/10 Q1016 NOSIG
EHPG 161525Z AUTO 31008KT 260V350 9999 NCD 18/14 Q1015
EHJA 161525Z AUTO 35008KT 9999 NCD 18/14 Q1015
ETHL 161520Z 26017KT 9999 FEW030 BKN050 22/10 Q1014 BLU
ESDF 161520Z 31006KT 9999 -SHRA FEW012 SCT030CB 19/18 Q1007
EGYE 161450Z 33008KT CAVOK 23/12 Q1016 RMK BLU
EGNV 161520Z 07010KT 9999 FEW024 21/13 Q1016
EHLW 161533Z AUTO 33011KT 290V010 9999 SCT021 BKN024 BKN034 19/14 Q1012 WHT
ESSP 161520Z AUTO 06005KT 9999 BKN064/// 24/20 Q1007
EDMO 161520Z AUTO 24020KT 9999 BKN048 21/11 Q1015
ENRS 161520Z AUTO 04013KT 9999 NCD 15/12 Q1019
EGNT 161520Z 07008KT 030V120 9999 FEW027 21/13 Q1017
EKVJ 161520Z AUTO 28008KT 240V310 9999 SCT017/// OVC023/// 18/13 Q1011 RMK/UNMONITORED
ETHF 161520Z 26007KT 9999 VCSH FEW025 BKN080 16/13 Q1012 BLU
ESMQ 161520Z 02003KT 350V050 9999 SCT032 OVC046 20/18 Q1007
EDDB 161520Z AUTO 31007KT 280V340 CAVOK 20/12 Q1010 NOSIG
ETSI 161520Z 29004KT 9999 SHRA SCT025CB BKN050 19/14 Q1013 BLU
EBCV 161525Z AUTO 31011KT 9999 BKN064/// 22/11 Q1015 BLU
EDDS 161520Z AUTO 26018G30KT 210V280 9999 SHRA BKN040 BKN048 SCT///TCU 21/12 Q1014 TEMPO NSW
EGPD 161520Z AUTO 10007KT 050V130 9999 NCD 20/13 Q1017
EFIV 161520Z AUTO 04016KT CAVOK 19/05 Q1014
ETNS 161520Z AUTO 28009KT //// // ////// 21/13 Q1010 ///
EHAK 161525Z AUTO 35016KT 300V010 9999 ///////// 17/15 Q1014
EBOS 161520Z 29011KT 9999 FEW024 20/13 Q1016 NOSIG
EHHW 161525Z AUTO 01011KT 330V030 9999 FEW015/// 18/14 Q1012
EGLC 161520Z AUTO 29008KT 250V350 9999 NCD 23/11 Q1016
ENOA 161520Z 03011KT CAVOK 18/17 Q1013 W///S4
ENSE 161520Z AUTO 02004KT CAVOK 16/15 Q1014 W/////
EHRD 161525Z AUTO 31009KT 260V020 9999 FEW025/// 19/13 Q1014 NOSIG
EGUW 161520Z 34012KT 9999 FEW040 BKN060 22/11 Q1015 NOSIG RMK BLU BLU
EGPE 161520Z 05008KT 9999 FEW032 20/13 Q1016
ESTL 161520Z AUTO 28008KT 9999 -RA BKN009/// OVC015/// ///// Q1009
ESSD 161520Z AUTO 05010KT 010V080 9999 NCD 26/12 Q1011
ENUG 161520Z AUTO 26013KT 200V270 9999NDV OVC010/// 11/06 Q1017 W///S4
ENLK 161520Z 05013KT CAVOK 20/10 Q1019
ESMT 161520Z 33005KT 9999 -DZ FEW005 SCT012 19/17 Q1009
ESND 161520Z AUTO 07008KT 020V140 9999 FEW074/// 29/14 Q1013
EKRS 161520Z AUTO 30006KT 230V030 9999 NCD 19/13 Q1010
EGQK 161520Z AUTO 02011KT 9999 NCD 20/13 Q1016
ESGJ 161520Z 05005KT 350V070 9999 -RA FEW013 22/18 Q1008
EKEB 161520Z AUTO 32010KT 9999 BKN046/// BKN095/// 18/12 Q1012
ENVD 161520Z 34013KT CAVOK 15/05 Q1014
EHMG 161525Z AUTO 35012KT 9999 FEW015 SCT019 18/14 Q1013
EFET 161520Z AUTO 36014KT 340V040 CAVOK 22/05 Q1015
EDAH 161520Z 02006KT 350V060 CAVOK 21/12 Q1009
ENSH 161520Z 36007KT 320V030 CAVOK 24/13 Q1018 RMK WIND 0150FT 01009KT
EKCH 161520Z AUTO 30010KT 9999 BKN027/// 19/14 Q1009 TEMPO SCT020CB
EGHC 161420Z 23008KT 0050 -RADZ FG VV/// 17/17 Q1018
ENRY 161520Z 29006KT 9999 -SHRA FEW030CB 19/17 Q1011 RERA
ESNO 161520Z AUTO 11006KT 060V160 9999 NCD 24/09 Q1014
ENAT 161520Z 01008KT 330V050 CAVOK 17/05 Q1017 RMK WIND 700FT 36013KT
EPRZ 161530Z 25011KT CAVOK 23/12 Q1010
ESNN 161520Z 07009KT 030V110 CAVOK 25/07 Q1013
ESCF 161520Z AUTO 20002KT 9999 FEW049/// 19/18 Q1008
EIME 161530Z 28006KT 9999 SCT040 BKN080 21/13 Q1016
EBBL 161525Z AUTO 27009KT 9999 SCT028/// BKN063/// BKN070/// 20/13 Q1014 BLU
EGDY 161520Z 30009KT 9999 FEW040 SCT100 24/11 Q1016 NOSIG RMK BLU BLU
EGYD 161520Z 02008KT CAVOK 21/12 Q1016 NOSIG RMK BLU BLU
EFHA 161520Z AUTO 10003KT 040V180 CAVOK 29/13 Q1009
EGJA 161520Z 28009KT 0300 R26/0500 FG BKN000 18/17 Q1019
ETNL 161520Z 34009KT 9999 FEW040 21/12 Q1010 BLU+BLU+ TEMPO WHT
ENRA 161520Z 36008KT 330V030 CAVOK 31/07 Q1015
ESNZ 161520Z AUTO 04007KT 340V090 9999 NCD 28/12 Q1014
ENNA 161520Z 04019KT CAVOK 15/08 Q1016 RMK WIND 1800FT 32016KT
ENDU 161520Z 28011KT CAVOK 22/11 Q1018 RMK WIND 1100FT 31012KT WIND 2200FT 31015KT
ESKN 161520Z 04004KT 340V070 9999 SCT049CB 23/18 Q1007
EDDN 161520Z AUTO 23010KT 200V260 9999 -SHRA SCT029 FEW///TCU 20/13 Q1013 NOSIG
EBFS 161525Z AUTO 32012KT 9999 BKN065/// 21/10 Q1015 BLU
EPSC 161530Z 35008KT 9999 FEW046 21/11 Q1009
EDLN 161520Z 26007KT 210V320 CAVOK 19/14 Q1013
EGGD 161520Z AUTO 25007KT 220V310 9999 NCD 22/10 Q1017
EPKK 161530Z 27008KT 9999 SCT053 22/10 Q1011
EHBK 161525Z AUTO 32008KT 260V010 9999 FEW047 18/12 Q1014 TEMPO 7000 -SHRA FEW025TCU
EGBB 161520Z 33007KT 270V350 9999 FEW049 23/10 Q1017
EGGP 161520Z 31007KT 260V350 CAVOK 21/10 Q1017
EGXV 161520Z AUTO 07009KT 9999 OVC034/// 21/12 Q1016
ESIB 161520Z AUTO 21006KT 9999 SCT043/// BKN120/// 21/18 Q1009
ENFB 161520Z AUTO 04013KT 8000 NCD 16/15 Q1014 W/////
EDVE 161520Z AUTO 23007KT 180V260 9999 +SHRA BKN019 BKN026 BKN031 FEW///CB 17/14 Q1010
ENBO 161520Z 04012KT 360V060 CAVOK 23/12 Q1017 NOSIG
EGNJ 161520Z 04009KT 9999 -RA FEW030 BKN035 21/14 Q1017
EPLL 161530Z 26013KT CAVOK 22/09 Q1009
EGNX 161520Z 31005KT 240V040 9999 SCT044 22/12 Q1016
EHKV 161525Z AUTO 35012KT 9999 FEW013 SCT017 18/14 Q1015
EDXW 161520Z 35015KT CAVOK 20/14 Q1011
EGQA 161520Z AUTO 06008KT 9999 NCD 20/12 Q1016
ENRO 161520Z AUTO 06008KT 9999 SCT080/// 27/09 Q1015
EPPO 161530Z 28009KT CAVOK 22/09 Q1009
ENOL 161520Z 33010KT 9999 FEW045 25/18 Q1013 NOSIG
ESNK 161520Z AUTO 16008KT 9999 NCD 26/12 Q1013
EGAA 161520Z AUTO 11006KT 070V150 9999 NCD 21/14 Q1016
EGJB 161520Z 26013KT 0150 R27/0275N FG OVC000 18/18 Q1019
EGKK 161520Z VRB08KT CAVOK 25/10 Q1016
ENST 161520Z 04010KT 010V070 CAVOK 29/14 Q1014 RMK WIND 0300FT 07010KT
EGHH 161520Z 25010KT 9999 FEW045 26/15 Q1016
EGUB 161520Z 29006KT CAVOK 24/09 Q1016 NOSIG RMK BLU BLU
EKVG 161520Z 28010KT CAVOK 16/12 Q1019 RMK WIND SKEID 29005KT
EGKA 161520Z 24013KT CAVOK 22/15 Q1016
EDTY 161520Z 26005KT 230V290 5000 -RA FEW008 SCT018 OVC027 15/15 Q1014
EHDV 161525Z AUTO 36013KT 9999 FEW014/// 18/15 Q1015
ENGC 161520Z 02012KT 9000 NSC 20/16 Q1013 W17/S3
ENAL 161520Z 03010KT CAVOK 23/18 Q1012
EGNM 161520Z VRB02KT 9999 SCT039 SCT053TCU 22/11 Q1017
EGPB 161520Z 33014KT 9999 FEW006 18/15 Q1015
EVGA 161520Z VRB02KT 9999 FEW037 24/17 Q1005 NOSIG
EGOV 161520Z 24005KT 9999 FEW022 BKN200 18/12 Q1017 NOSIG RMK BLU BLU
ENQC 161520Z AUTO 34012KT 9000 NCD 23/17 Q1012 W///S3
EFUT 161520Z AUTO 09008KT 040V110 CAVOK 27/08 Q1008
EDQM 161520Z AUTO 23007KT 200V280 9999 // SCT037/// SCT057/// BKN072/// 18/11 Q1012
EKOD 161520Z AUTO 31010KT 270V340 9999 FEW030/// 20/13 Q1010
ETEB 161510Z AUTO 25012KT 9999 SCT013 17/14 A2991 RMK AO2 SLP141 PWINO $
ETNG 161513Z AUTO 29016KT 9999 // FEW038/// BKN052/// BKN068/// 19/12 Q1014
EDDF 161520Z AUTO 29011KT 260V330 CAVOK 24/10 Q1011 NOSIG
ENMH 161450Z 32013KT 9999 BKN016 10/06 Q1017
ETWM 161520Z AUTO 32002KT //// // ////// 18/15 Q1011 ///
ESGP 161520Z AUTO 04003KT 9999 FEW049/// SCT100/// 21/19 Q1009
EGPC 161520Z 14003KT 9999 FEW025 18/12 Q1017
EDLP 161520Z 29006KT 240V320 4000 SHRA BR FEW007CB SCT009 OVC015 15/14 Q1012
ESUT 161520Z AUTO 31004KT 260V360 9999 NCD 28/08 Q1016
EGXT 161520Z AUTO 33007KT 9999 OVC063/// 22/11 Q1016
EGVA 161520Z 25010KT CAVOK 24/10 Q1016
EGUL 161455Z AUTO 33007KT 9999 FEW037 FEW070 23/12 A2999 RMK AO2 SLP159 60000 T02290119 52012 FZRANO $
ESSB 161520Z 07011KT 040V100 CAVOK 26/15 Q1008
EPBY 161530Z 32013KT CAVOK 22/09 Q1008
EYPA 161520Z 33004KT 260V050 CAVOK 20/15 Q1005
EPWA 161530Z 33011KT 290V020 CAVOK 22/11 Q1008 NOSIG
ETNH 161520Z AUTO 27009KT 9999 // ////// 21/14 Q1010 ///
ESKM 161520Z 06011KT CAVOK 28/13 Q1011
ETNT 161520Z 35008KT 9999 FEW025 20/12 Q1011 BLACKBLU+
ENSD 161520Z 00000KT CAVOK 29/12 Q1011 RMK WIND RWY 26 09003KT WIND 1140FT 06005KT
EFJY 161520Z AUTO 01008KT 340V050 CAVOK 28/11 Q1009
EQYR 161357Z AUTO 24010KT CLR A3006 RMK AO2 SLPNO $
EGNO 161520Z 28006KT 250V320 9999 FEW020 19/14 Q1017
EGCK 161520Z 24004KT 190V270 9999 FEW037 18/13 Q1017
EBDT 161525Z AUTO 32010KT 9999 BKN050/// BKN077/// 19/12 Q1015 BLU
EGOS 161520Z 34005KT 9999 FEW045 BKN200 23/11 Q1016 NOSIG RMK BLACKBLU BLU
EDDH 161520Z AUTO 33006KT 280V010 9999 FEW041 22/12 Q1010 NOSIG
EBAW 161520Z 30015KT 9999 VCSH FEW032TCU 19/13 Q1015 NOSIG
EGJJ 161520Z 26016KT 1200 R26/P2000N VCFG BR SCT000 BKN002 18/18 Q1019
ESMV 161520Z AUTO VRB01KT 9999 BKN092/// 19/18 Q1008
ETSN 161520Z 30010KT 9999 FEW018 SCT023TCU BKN060 17/15 Q1014 BLU
ENSR 161520Z 33009KT CAVOK 14/10 Q1018 RMK WIND RWY 32 30007KT WIND 1119FT 28001KT
ESPE 161520Z AUTO 01008KT 320V060 9999 NCD 29/10 Q1014
EKBI 161520Z AUTO 30010KT 9999 OVC015/// 17/14 Q1011
EGSC 161520Z 31008KT 230V340 9999 SCT040 24/11 Q1016
EHVL 161525Z AUTO 33013KT 9999 FEW016 OVC160 20/15 Q1013 BLU
EDDP 161520Z AUTO 27009KT 240V300 9999 SCT040 20/11 Q1010 TEMPO 27015G25KT SHRA BKN020CB
EDDG 161520Z AUTO 28008KT 240V340 9999 SHRA SCT022 BKN///CB 17/15 Q1012 TEMPO NSW
ESNV 161520Z AUTO 06006KT 020V110 9999 NCD 28/05 Q1015
EHSG 161525Z AUTO 29010KT //// // FEW032/// BKN038/// BKN042/// 19/14 Q1016 RE//
EDDE 161520Z AUTO 30008KT 9999 FEW025 17/14 Q1012 RESHRA TEMPO 27015G25KT SHRA BKN020CB
EYKA 161520Z VRB04KT CAVOK 24/14 Q1005
ETHC 161520Z 25004KT 9999 -SHRA FEW018CB SCT041 BKN070 18/14 Q1010 BLACKBLU FCST CNL
EPZG 161530Z 24008KT 210V280 9999 FEW050CB 23/09 Q1010
EDDR 161520Z AUTO 25016KT 220V280 9999 SCT020 BKN024 20/15 Q1015 NOSIG
EBLB 161525Z AUTO 31012KT 9999 BKN031/// BKN080/// 17/10 Q1015 BLU
EHSA 161525Z AUTO 30012KT 9999 ///////// 18/14 Q1015 W19/H11
EGNR 161520Z 35009KT 9999 SCT025 21/13 Q1017
EYSA 161520Z VRB02KT 9999 FEW028 23/15 Q1005 NOSIG
ESSL 161520Z 24003KT 9999 FEW030CB 20/19 Q1007
EPKT 161530Z 26008KT CAVOK 22/09 Q1011
EFKK 161520Z AUTO 36012KT CAVOK 22/08 Q1012
ENNO 161520Z VRB03KT 9999 -SHRATS FEW024CB BKN060 20/18 Q1012
ETHA 161520Z 26021KT 9999 FEW040 SCT050 19/11 Q1016 BLU+
ENRM 161520Z 02009KT CAVOK 28/16 Q1014LFRZ 161530Z AUTO 27011KT 240V310 9999 ////// 24/16 Q1020
LFMP 161530Z AUTO 32012KT 290V360 CAVOK 34/12 Q1016 BECMG 31015G27KT
LIRZ 161520Z AUTO 30007KT 250V350 9999 FEW078/// 35/15 Q1009
LFOH 161530Z AUTO 28010KT 9000 BKN002 OVC007 18/18 Q1018 TEMPO 0500 FG VV///
LFKF 161530Z AUTO 23020KT CAVOK 29/21 Q1011 BECMG 25017G27KT
LPBJ 161500Z 31007KT 270V340 CAVOK 38/07 Q1018
LFKC 161530Z AUTO 03007KT 360V070 9999 // NSC ///// Q1011
LFMT 161530Z AUTO 18004KT 150V220 CAVOK 34/10 Q1014 BECMG 32015G27KT
LFRN 161530Z AUTO 27009KT 240V300 9999 OVC036 25/18 Q1019 BECMG 36010KT
LFMO 161530Z AUTO 36017KT CAVOK 32/10 Q1014 BECMG 34020G30KT
LGEL 161520Z 35014KT CAVOK 35/09 Q1006
LYBE 161530Z 35012KT CAVOK 27/11 Q1012 NOSIG
LIRE 161455Z 26007KT CAVOK 29/23 Q1010 RMK SKC VIS MIN 9999 WIND THR13 /////KT WIND THR31 /////KT BLU
LOWW 161520Z 28013KT 9999 FEW050 25/10 Q1012 NOSIG
LFLL 161530Z 34008KT 260V050 CAVOK 28/11 Q1018 NOSIG
LPOV 161500Z 27007KT 220V310 CAVOK 22/17 Q1019
LGMT 161520Z 31011KT 260V360 CAVOK 34/14 Q1003
LEAS 161530Z 07009KT 010V110 CAVOK 26/19 Q1019 NOSIG
LETO 161530Z 27006KT 200V350 CAVOK 38/06 Q1018 NOSIG
LGIR 161520Z 29012KT CAVOK 29/18 Q1007 NOSIG
LDLO 131800Z 16005KT CAVOK 24/22 Q1015
LFLB 161530Z AUTO 02005KT 310V070 CAVOK 29/10 Q1017 NOSIG
LTFH 161450Z 36005KT 330V030 9999 FEW036 29/15 Q1007 NOSIG
LGRP 161520Z 25009KT 9999 FEW025 28/22 Q1004 NOSIG
LICF 161455Z AUTO 34007KT 280V070 //// // ///////// 29/21 Q1011 RMK ///
LHPR 161515Z AUTO VRB02KT CAVOK 23/14 Q1013 NOSIG
LKKB 161500Z 30004KT CAVOK 19/12 Q1011 NOSIG
LTAR 161450Z 35014KT CAVOK 23/08 Q1015
LIRG 161455Z /////KT 9999 FEW025TCU 34/16 Q1010 RMK FEW MON NE LIB NC VIS MIN 9999 BLU
LRSB 161530Z 32011KT 9999 VCSH FEW032TCU SCT038CB 20/17 Q1012
LSZR 161520Z 28009KT 9999 BKN065 20/14 Q1017 RMK L
LFGA 161530Z AUTO 24013G24KT 210V270 9999 VV/// 25/12 Q1016
LTFD 161450Z 05015KT CAVOK 34/12 Q1004
LFTH 161530Z AUTO 23012KT 210V270 CAVOK 34/14 Q1009 NOSIG
LGSA 161520Z 30010KT CAVOK 31/18 Q1007
LIQN 161450Z VRB02KT CAVOK 33/14 Q1011
LTAT 161520Z 06006KT 030V090 9999 FEW040 SCT100 28/13 Q1008 NOSIG RMK RWY03 05005KT 360V080
LFYR 161530Z AUTO 27009KT 220V330 CAVOK 28/15 Q1018
LDSP 161530Z 22014KT 9999 FEW068 31/15 Q1008 NOSIG
LZIB 161530Z 29012KT CAVOK 26/11 Q1011 NOSIG
LFSO 161530Z AUTO 24017KT 9999 -RA BKN017/// OVC025/// ///TCU 19/16 Q1017 TEMPO 27015G30KT 2500 -SHRA
LEMO 161530Z 27011KT 230V320 CAVOK 36/18 Q1016 NOSIG
LIRL 161455Z /////KT 9999 FEW025 33/18 Q1010 RMK FEW MON LIB NC VIS MIN 9999 WIND THR12 /////KT WIND THR30 27010KT BLU
LRCL 161530Z 12003KT 060V180 9999 FEW040 FEW045CB 24/17 Q1011
LSZA 161520Z 19005KT 170V230 9999 FEW070 30/15 Q1011
LPSJ 161530Z 30009KT 250V330 9999 FEW030 25/19 Q1017 RMK WIND RWY13 30010KT 260V320 RWY31 29009KT 250V320
LKPR 161530Z 25012KT 9999 FEW045 20/12 Q1012 NOSIG
LIVM 161455Z AUTO 09007KT //// ///// Q////
LIMJ 161520Z 24005KT 9999 FEW025 26/23 Q1010
LFRU 161530Z AUTO 27010KT 9999 OVC031 24/16 Q1020
LFRK 161530Z AUTO 27011KT 9999 BKN009 OVC014 21/20 Q1018 TEMPO 1500 -RADZ BR OVC003
LPPT 161530Z 33013KT 290V360 CAVOK 30/12 Q1019
LEVX 161530Z 26012KT 230V290 CAVOK 26/15 Q1019 NOSIG
LFLX 161530Z AUTO 27009KT 230V310 CAVOK 27/14 Q1019 NOSIG
LEAM 161530Z 22007KT 190V260 CAVOK 28/24 Q1018
LFBS 161530Z AUTO 35010KT CAVOK 29/15 Q1019
LKKV 161530Z 26007KT 210V290 9999 SCT026TCU 16/11 Q1012
LRCT 161500Z 16005KT 9999 BKN030 BKN100 19/19 Q1012 BLU BLU
LEMI 161530Z 13008KT 090V180 CAVOK 33/18 Q1019
LFRT 161530Z AUTO 27010KT 240V300 9999 BKN027 OVC034 24/17 Q1020
LGAD 161520Z 29012KT 9999 FEW030 32/16 Q1006
LOWG 161520Z AUTO 20007KT 150V230 9999 NCD 23/13 Q1014 NOSIG
LTAD 161332Z 11007KT 9999 FEW025CB SCT040 23/15 Q1011 RETSRA NOSIG RMK RWY29 10008KT
LIPK 161350Z 08008KT CAVOK 31/19 Q1011
LIMP 161450Z 13005KT 090V190 CAVOK 32/18 Q1010
LTCU 161250Z 18008KT 120V230 9999 FEW035 34/05 Q1007
LECV 161530Z 16005KT 9999 FEW050 34/06 Q1022
LIPB 161450Z 20004KT 140V240 9999 FEW060 SCT090 29/17 Q1010
LIPO 161520Z AUTO 13004KT 040V180 9999 NCD 31/18 Q1010
LHBP 161530Z 27012KT CAVOK 24/11 Q1012 NOSIG
LIMH 161455Z AUTO 28017G30KT 230V310 //// 06/M01 Q1030
LICZ 161455Z 09016KT 9999 SCT030 34/24 Q1010 RMK SCT VIS MIN 9999 WIND THR28 09014KT WIND THR10 /////KT A2984 BLU
LGHI 161450Z 01009KT CAVOK 35/10 Q1002
LICJ 161520Z 31005KT CAVOK 29/23 Q1012
LFSD 161530Z AUTO 26007KT 210V300 CAVOK 26/13 Q1018
LFLY 161530Z AUTO 34008KT 280V040 CAVOK 29/11 Q1018 NOSIG
LDOS 161530Z 29009KT CAVOK 24/15 Q1013
LTBS 161520Z 21008KT 9999 FEW030 30/23 Q1004 NOSIG RMK RWY19 21009KT 1CU030
LGAV 161520Z 04015KT CAVOK 34/07 Q1007 NOSIG
LESB 161530Z AUTO 21014KT CAVOK 29/22 Q1018
LTCP 161450Z 35010KT 9999 SCT035 BKN100 34/09 Q1004
LSMP 161520Z AUTO 27004KT 9999NDV FEW055 BKN068 23/12 Q1018 RMK
LIRY 161455Z AUTO 27004KT 230V300 //// // ///////// 36/17 Q1009
LFLU 161530Z AUTO 01015KT 340V040 CAVOK 29/11 Q1016
LFPN 161530Z AUTO 26011KT 9999 OVC022/// 21/17 Q1018 TEMPO BKN012
LEEC 161300Z 21009KT 150V260 CAVOK 36/19 Q1017
LHPP 161515Z AUTO 30005KT CAVOK 22/15 Q1014
LDSB 161530Z 30011KT 270V360 CAVOK 29/12 Q1012
LFOA 161530Z AUTO 30013KT CAVOK 27/14 Q1019 NOSIG
LGKO 161520Z 31008KT CAVOK 29/20 Q1004
LIQW 161455Z AUTO 17004KT 100V220 //// // ///////// 30/19 Q1010 RMK /// WIND THR14 14004KT
LGIO 161520Z 28009KT 220V310 9999 FEW045 33/13 Q1009
LIQC 161455Z AUTO 23004KT 9999 ///////// 28/23 Q1009 RMK /// VIS MIN 9999
LTAU 161520Z 33007KT 9999 FEW040 SCT120 31/06 Q1009 NOSIG RMK RWY07 35006KT 300V040
LZTT 161530Z 27013KT 9999 FEW070 21/08 Q1012 NOSIG
LFLS 161530Z AUTO 33008KT 290V020 CAVOK 28/10 Q1018 NOSIG
LHSN 161515Z 30011KT 260V330 CAVOK 25/08 Q1011 NOSIG RMK BLU
LTBL 151834Z 36015G26KT 340V040 CAVOK 31/14 Q1002 NOSIG RMK RWY17 03012KT 360V060
LIRI 161450Z 26006KT 220V280 CAVOK 29/24 Q1011
LIRK 161455Z AUTO 29013KT //// // ///////// 21/// Q1023 RMK ///
LICT 161455Z 32011KT CAVOK 29/20 Q1012 RMK SKC VIS MIN 9999 WIND THR13 35009KT BLU
LTAZ 161520Z 33006KT 270V010 9999 FEW040 SCT100 33/07 Q1008 RMK RWY29 30005KT 260V350
LIEA 161520Z 29011KT 260V330 CAVOK 27/18 Q1014
LKLN 161500Z AUTO 24006KT 210V280 9999 FEW025 BKN063 BKN190 16/12 Q1014
LPST 161500Z 32013KT 9999 FEW011 25/17 Q1020
LFMU 161530Z AUTO 30014KT 270V330 CAVOK 35/08 Q1015 BECMG 32015G25KT
LYNI 161530Z 32014KT 290V350 9999 FEW050 30/14 Q1010 NOSIG
LTCE 161520Z 28005KT 9999 FEW025CB BKN035 18/13 Q1016 NOSIG RMK RWY08R 13005KT RWY26R 29003KT 240V360 RWY08L 16005KT 1CB025 5CU035
LTAI 161520Z 18004KT 150V210 9999 SCT030 30/25 Q1005 NOSIG RMK RWY18C VRB06KT RWY36R 20005KT 150V240 RWY18L 19005KT 170V230
LFMD 161530Z AUTO 12005KT 050V200 CAVOK 29/21 Q1010 NOSIG
LTBA 161520Z 06017KT CAVOK 31/11 Q1006 RMK RWY23 06015KT
LOWS 161520Z 24004KT 180V300 9999 FEW060 BKN080 23/14 Q1014 TEMPO 31010KT
LFPG 161530Z 26011KT 7000 SCT008 SCT016 BKN033 21/17 Q1017 TEMPO 4000 -DZ BKN012
LDZA 161530Z 09003KT 020V140 CAVOK 24/14 Q1013 NOSIG
LIBC 161450Z 22009KT 180V250 CAVOK 34/16 Q1009
LFBU 161530Z AUTO 27006KT 210V010 CAVOK 29/12 Q1020 NOSIG
LPMT 161500Z 34010KT CAVOK 33/14 Q1018
LIMS 161455Z 08003KT 9999 FEW040 33/26 Q1009 RMK SCT SCT120 VIS MIN 9999 WIND THR30 08004KT BLU
LFSI 161530Z AUTO 31011KT 4900 -RA BR FEW017/// BKN022/// BKN028/// ///TCU 19/18 Q1017
LEAB 161530Z 35006KT 300V040 9999 FEW035 37/08 Q1020 NOSIG
LTBY 161450Z 34011KT 9999 SCT040 31/14 Q1008
LICG 161520Z AUTO 31012KT 280V340 9999 BKN008/// 27/24 Q1014
LIBR 161520Z 34012KT CAVOK 28/21 Q1008
LTFE 161520Z 25011KT CAVOK 32/18 Q1003 NOSIG RMK RWY10 25013KT
LERI 161530Z 11009KT 070V150 CAVOK 35/17 Q1017 NOSIG
LTBH 161450Z 04015KT CAVOK 34/07 Q1005
LEDA 161530Z 22003KT 160V270 CAVOK 33/15 Q1017
LBWB 161200Z 17010KT 9999 BKN050 31/17 Q1009
LIMN 161455Z 22006KT 160V280 9999 FEW040 31/18 Q1011 RMK SCT VIS MIN 9999 BLU
LTBU 161520Z 03013KT CAVOK 32/10 Q1007 RMK RWY22 04012KT
LESO 161530Z 01006KT 320V070 CAVOK 25/21 Q1020
LFPT 161530Z AUTO 28010KT 240V310 9999 BKN023 OVC031 22/17 Q1017
LFJR 161530Z AUTO 31008KT 250V360 9999 OVC047 27/16 Q1019
LTCC 161520Z 12006KT 100V260 9999 FEW040 35/04 Q1004 NOSIG RMK RWY16 11007KT 090V170 2CU040
LGSO 161520Z 35013KT CAVOK 31/12 Q1005
LFHP 161530Z AUTO 33008KT 240V010 CAVOK 26/08 Q1021
LEVC 161530Z 11011KT 090V150 CAVOK 32/19 Q1016 NOSIG
LTBQ 161450Z 04009KT 360V090 CAVOK 31/16 Q1007 NOSIG
LFSN 161530Z AUTO 26009KT 210V300 6000 2400 RA FEW011/// BKN021/// BKN027/// ///TCU 19/16 Q1017
LQTZ 161530Z 06008KT 020V100 CAVOK 26/11 Q1013
LIVD 161455Z AUTO 08004KT 040V120 //// 21/11 Q1018
LTCT 161450Z 06006KT 9999 FEW040 SCT100 34/09 Q1005
LIRV 161455Z 25013KT 210V280 9999 FEW040 33/15 Q1011 RMK FEW MON E SE LIB NC VIS MIN 9999 BLU
LBPL 161500Z 29008KT 9999 FEW060 SCT200 32/15 Q1008
LHSM 161515Z AUTO 23007KT 200V260 9999 //////CB 23/14 Q1013
LSMD 161520Z AUTO 29008KT 260V320 9999NDV SCT065 22/13 Q1017 RMK
LEBG 161530Z 28004KT 210V360 CAVOK 35/02 Q1021
LFRG 161530Z AUTO 28010KT 9999 OVC005 19/18 Q1018 TEMPO 0500 FG VV///
LOWI 161520Z VRB02KT 9999 FEW030 BKN110 21/13 Q1015 TEMPO 28010KT SHRA
LICL 161535Z AUTO VRB05KT //// // ///////// 27/22 Q1009 RMK ///
LFOE 161530Z AUTO 30011KT 270V340 9999 FEW009 OVC017 21/18 Q1018 TEMPO 4000 -RADZ BKN008
LIBP 161520Z AUTO 06006KT 030V090 9999 NCD 30/15 Q1010
LRCV 161530Z 29011KT CAVOK 31/15 Q1008
LTAJ 161520Z 17004KT 140V250 9999 FEW035 30/16 Q1006 RETSRA NOSIG RMK RWY10 21005KT 170V250 2CU035
LPAZ 161530Z 18014KT 9999 FEW008 SCT020 24/21 Q1019
LTAV 161325Z VRB04KT 9999 SCT040 30/11 Q1009 NOSIG RMK RWY11 VRB05KT 4CU040
LTAB 161349Z 11009KT 9999 FEW025CB BKN035 23/16 Q1010 RETSRA NOSIG RMK RWY06 12008KT 090V150
LFBH 161530Z AUTO 31013KT CAVOK 23/16 Q1021 NOSIG
LFMC 161530Z AUTO 28016KT 250V310 CAVOK 38/11 Q1009
LFLP 161530Z AUTO 26004KT 200V350 CAVOK 28/11 Q1018 NOSIG
LFQB 161530Z AUTO 26016KT 9999 OVC039 23/14 Q1017
LFSL 161530Z AUTO 33008KT 290V020 CAVOK 29/09 Q1020 NOSIG
LCRA 161520Z 23009KT 9999 FEW017 28/23 Q1004 NOSIG
LELO 161530Z VRB02KT CAVOK 37/10 Q1017
LTBF 161450Z 03016KT CAVOK 33/15 Q1004 NOSIG
LFBE 161530Z AUTO 25004KT 160V310 CAVOK 31/13 Q1019 NOSIG
LRBS 161530Z 28006KT 250V350 9999 FEW050CB 32/14 Q1007 NOSIG
LEAO 161530Z 31006KT 230V010 CAVOK 40/05 Q1019
LFSG 161530Z AUTO 26013KT 9999 OVC030 20/13 Q1017
LYVR 161530Z AUTO 33014KT 9999 FEW049/// BKN100/// 26/08 Q1012
LYBT 161530Z 34012KT 300V020 CAVOK 28/11 Q1012 NOSIG
LFSM 161530Z AUTO 25011KT 210V290 9999 OVC048 22/12 Q1018
LUKK 161530Z 24004KT 170V280 9999 VCTS -SHRA BKN047CB 19/18 Q1009 RESHRA TEMPO VRB18G28KT 3000 TSRA SCT035CB
LEVS 161530Z VRB05KT CAVOK 37/08 Q1019
LFBA 161530Z AUTO 28008KT 250V330 CAVOK 30/11 Q1019 NOSIG
LSGG 161520Z AUTO 25007KT 220V280 9999 SCT077 28/09 Q1018 NOSIG
LFMN 161530Z 19006KT CAVOK 28/22 Q1011 NOSIG
LIPC 161455Z 08007KT CAVOK 29/20 Q1010 RMK FEW FEW250 VIS MIN 9999 WIND THR11 09008KT WIND THR29 08008KT BLU
LIPX 161520Z 10006KT 070V150 9999 FEW055 30/19 Q1010
LTCV 161450Z 23014G25KT 190V280 9999 FEW040 37/02 Q1003
LEZL 161530Z 23012KT CAVOK 38/14 Q1016 NOSIG
LPPI 161530Z 25014KT 9999 FEW025 25/17 Q1017 RMK WIND RWY09 23012KT 210V270 RWY27 25014KT 210V270
LEZG 161530Z 30007KT 260V340 CAVOK 37/11 Q1016 NOSIG
LFPM 161530Z AUTO 27017KT 9999 BKN031 OVC038 22/16 Q1018
LTCR 161450Z 25007KT 220V310 9999 FEW040 36/10 Q1003
LIRA 161520Z 26009KT 220V300 CAVOK 32/17 Q1010
LSZC 161520Z AUTO VRB02KT 9999 -RA FEW085 BKN100 BKN110 20/14 Q1018
LEBT 161530Z AUTO 11008KT 030V170 CAVOK 33/16 Q1017
LIPE 161520Z 09009KT 040V130 CAVOK 31/19 Q1009
LRBC 161530Z 35006KT 9999 FEW011 SCT050 SCT055CB 19/18 Q1011
LFJL 161530Z AUTO 25013KT 9999 SCT013/// BKN058/// OVC072/// //////TCU 18/16 Q1017 TEMPO 27018G28KT 3000 SHRA SCT020TCU FEW030CB
LRBM 161530Z 33005KT 280V040 9999 FEW040 FEW040CB 24/16 Q1010
LFRI 161530Z AUTO 29010KT 260V330 CAVOK 26/16 Q1021 NOSIG
LTFB 161450Z 25011KT 9999 FEW030 33/16 Q1002
LEGE 161530Z 18009KT 9999 FEW044 29/20 Q1016 NOSIG
LTCJ 161520Z 26008KT 9999 FEW040 35/11 Q1002 NOSIG RMK RWY20 25007KT 1CU040
LFOJ 161530Z AUTO 28014KT 9999 OVC040 24/15 Q1018 NOSIG
LEVT 161530Z 06007KT 010V110 CAVOK 32/15 Q1020
LFGJ 161530Z AUTO 33007KT 260V010 CAVOK 24/12 Q1018 NOSIG
LFVP 161500Z AUTO 25014KT CAVOK 23/18 Q1014 NOSIG
LEGA 161300Z 20009KT 160V250 CAVOK 38/07 Q1021
LEBZ 161530Z 27004KT CAVOK 42/08 Q1016
LPMA 161530Z 06006KT 030V110 9999 FEW015 27/16 Q1020 RMK WIND POS ROSARIO 08006KT 030V120 RWY05 09006KT 040V130 RWY23 05008KT
LFMY 161530Z AUTO 33016KT 280V010 9000 NSC 34/09 Q1013
LLBG 161520Z 29011KT CAVOK 33/15 Q1005 NOSIG
LEGT 161530Z 24004KT 150V300 CAVOK 39/06 Q1019
LYTV 161530Z 19004KT 130V240 CAVOK 32/17 Q1008 NOSIG
LIEE 161520Z 36017KT CAVOK 33/14 Q1012
LPHR 161530Z 25009KT 9999 FEW018 24/19 Q1017
LFBM 161530Z AUTO 07004KT 040V120 CAVOK 32/12 Q1019
LERS 161530Z 20008KT 160V240 9999 FEW036 29/22 Q1017
LTFG 161450Z 25009KT 9999 FEW030 29/24 Q1005
LDDU 161530Z 30014KT CAVOK 28/16 Q1009 NOSIG
LDRI 161530Z 09012KT 050V150 9999 FEW040 30/14 Q1011
LGPA 161520Z 35020KT CAVOK 29/15 Q1005
LPPS 161530Z 01008KT 340V080 9999 FEW015 26/19 Q1021
LPFR 161530Z 19006KT CAVOK 28/15 Q1017
LFKS 161530Z AUTO 09006KT 040V130 CAVOK 29/21 Q1010
LGKP 161520Z 31018KT CAVOK 27/21 Q1004
LFBC 161530Z AUTO 33010KT CAVOK 29/16 Q1019 NOSIG
LFBL 161530Z AUTO 33007KT 270V030 CAVOK 27/13 Q1020 NOSIG
LEMD 161530Z 22006KT 150V260 CAVOK 38/09 Q1018 NOSIG
LEST 161530Z 34009KT 320V030 CAVOK 30/19 Q1019 NOSIG
LIED 161455Z 31015KT CAVOK 33/13 Q1012 RMK SKC VIS MIN 9999 WIND THR34 33016KT WIND THR16 32012KT BLU
LFOP 161530Z AUTO 27009KT 240V300 9999 -RA BKN007 OVC011 19/18 Q1018 TEMPO 4000 BR VV///
LGKZ 161520Z AUTO 06006KT 010V080 //// // ////// 33/04 Q1010 RE//
LYPG 161530Z 19010KT 9999 FEW050 35/14 Q1006 NOSIG
LEAL 161530Z 12007KT 070V170 CAVOK 32/21 Q1018 NOSIG
LTCG 161520Z 27008KT 9999 BKN035 26/20 Q1008 TEMPO TL1600 -TSRA RMK RWY29 27009KT
LIPA 161455Z 04006KT 9999 FEW040 SCT080 25/18 Q1012 RMK BKN VIS MIN 9999 WIND THR05 /////KT WIND THR23 /////KT A2989 BLU
LJCE 161530Z VRB02KT 9999 FEW030 SCT080 BKN100 23/15 Q1014 RMK BLU
LFST 161530Z AUTO 28015KT 250V310 9999 BKN042/// OVC054/// ///TCU 21/15 Q1016 TEMPO 28015G27KT FEW030CB
LEJR 161530Z 24013KT 200V280 CAVOK 34/20 Q1016
LYKV 161530Z 34006KT 290V050 9999 FEW050 29/13 Q1012 NOSIG
LFBF 161530Z AUTO 33009KT 280V010 CAVOK 32/11 Q1019
LTAS 161350Z 30010KT 270V340 9999 FEW040 SCT100 30/20 Q1007
LRTR 161530Z 30008KT 9999 -RA NSC 22/10 Q1012
LRIA 161530Z 23004KT 190V250 9999 FEW035 20/19 Q1010
LDZD 161530Z 32010KT 260V350 CAVOK 32/12 Q1010 NOSIG
LFAQ 161530Z AUTO 30014KT CAVOK 23/10 Q1016 TEMPO 28015G25KT
LTCD 161450Z 28011KT 9999 -TSRA FEW045CB SCT050 BKN080 20/15 Q1013 TEMPO TSRA
LATI 161520Z 34013KT CAVOK 32/17 Q1008 NOSIG
LPGR 161530Z 25010KT 220V290 9999 FEW015 24/19 Q1017 RMK WIND RWY09 25010KT 220V280
LFMK 161530Z AUTO 31014KT CAVOK 33/10 Q1018 NOSIG
LFBX 161530Z AUTO 29006KT 220V030 CAVOK 30/12 Q1019
LIVR 161529Z AUTO VRB06KT 9999 ///////// 15/09 Q1020 RMK /// VIS MIN 9999
LIPS 161455Z 06008KT 9999 FEW025TCU SCT060 26/18 Q1012 RMK BKN BKN140 VIS MIN 9999 WIND THR26 07010KT WIND THR08 07010KT BLU
LOXZ 161450Z 24009KT 9999 FEW070 BKN090 21/10 Q1015 NOSIG
LCLK 161530Z 21012KT 9999 FEW017 BKN050 29/25 Q1004 NOSIG
LGMK 161520Z 34023G33KT CAVOK 29/14 Q1004
LTDA 161450Z 21023KT 9999 FEW040 31/20 Q1002 NOSIG
LFLW 161530Z AUTO 30007KT 250V350 CAVOK 27/10 Q1021 NOSIG
LPAR 161500Z 33010KT 300V360 CAVOK 33/16 Q1018
LLHA 161450Z 27005KT 230V310 CAVOK 31/16 Q1005
LZZI 161530Z 25007KT 220V280 CAVOK 22/11 Q1012
LEBR 161530Z AUTO 32007KT 250V010 CAVOK 37/11 Q1017
LPCR 161530Z 29011KT 9999 FEW017 23/18 Q1016 RMK WIND RWY11 30010KT
LTCO 161350Z 23015KT 210V270 9999 SCT040 30/02 Q1011
LRSV 161530Z 35003KT 9999 FEW022 BKN040 21/16 Q1011
LFRJ 161530Z AUTO 27011KT 230V300 9999 BKN026 23/16 Q1020 NOSIG
LFMH 161530Z AUTO 02008KT 280V070 CAVOK 28/11 Q1019
LFOK 161530Z AUTO 26012KT 230V290 9999 SCT016/// BKN025/// BKN034/// ///TCU 19/17 Q1017 TEMPO 26015G25KT 4000 -RA BKN009
LFRS 161530Z AUTO 27010KT 240V340 9999 SCT035 25/16 Q1020 NOSIG
LFBO 161530Z AUTO 33008KT 270V020 CAVOK 31/10 Q1019 NOSIG
LTCK 161450Z 23010KT 9999 FEW040 SCT080 32/03 Q1008
LUBM 151200Z /////KT 9999 SCT045 TCU 33/14 Q1010
LFOT 161530Z AUTO 27009KT 250V310 9999 OVC047 27/16 Q1019 NOSIG
LFAC 161530Z AUTO 28008KT CAVOK 22/12 Q1016
LIMY 161455Z AUTO 06007KT 030V090 //// // ///////// 32/16 Q1013 RMK ///
LFSB 161530Z AUTO 28013KT 240V310 9999 BKN052 BKN094 OVC110 23/12 Q1017 TEMPO 29015G25KT FEW050TCU
LFRM 161530Z AUTO 26008KT 210V330 9999 OVC042 26/17 Q1019 NOSIG
LPFL 161530Z VRB03KT 9999 SCT019 22/17 Q1017 RMK WIND RWY36 17004KT 150V210 POS MID 17004KT 130V200
LPPR 161530Z 30007KT 260V330 9999 FEW008 20/17 Q1019
LGTS 161520Z 23008KT 9999 FEW025 35/13 Q1006 NOSIG
LETU 161530Z AUTO /////KT //// // ///////// ///// Q////
LTBD 161450Z 26012KT 9999 FEW025CB 35/18 Q1002
LKTB 161530Z 34006KT 310V020 CAVOK 23/10 Q1011 NOSIG
LIPZ 161520Z 06011KT 9999 SCT040 28/18 Q1010 NOSIG
LGLM 161520Z 33008KT CAVOK 33/13 Q1006
LSGS 161520Z AUTO 25017KT 9999 BKN090 25/11 Q1016
LEGR 161530Z 34004KT 290V100 CAVOK 40/07 Q1018
LIML 161520Z VRB03KT 9999 FEW040 32/18 Q1010 NOSIG
LSMA 161520Z AUTO VRB02KT 9999NDV -SHRA FEW010 BKN046 BKN098 21/15 Q1018 RMK
LIPR 161520Z 10006KT 070V130 CAVOK 28/20 Q1010
LTAF 161520Z 23011KT 9999 SCT030 30/23 Q1004 NOSIG RMK RWY23 25013KT 3CU030
LROP 161530Z 28011KT 250V310 9999 FEW065CB 30/14 Q1007 NOSIG
LSMM 161520Z AUTO 32004KT 250V010 9999NDV -SHRA SCT029 BKN042 20/15 Q1019 RMK
LIMG 161450Z 06007KT CAVOK 29/23 Q1010
LESA 161530Z 24010KT 200V280 CAVOK 37/05 Q1020
LRSM 161530Z 31009KT 9999 -SHRA FEW045CB 24/15 Q1010
LEBA 161530Z 26008KT 210V300 CAVOK 41/11 Q1015
LTAP 161450Z 03013KT CAVOK 31/12 Q1007 NOSIG
LTAG 161520Z 21015KT 9999 FEW035 SCT100 30/22 Q1004 NOSIG RMK 2CU035 4AC100
LIVE 161455Z AUTO 35005KT 300V060 //// // ///////// 19/10 Q1018 RMK ///
LFBT 161530Z AUTO 35005KT 310V020 CAVOK 29/16 Q1020 NOSIG
LIRN 161520Z 19008KT 160V240 CAVOK 30/22 Q1010 NOSIG
LLER 161450Z AUTO 17015KT CAVOK 38/06 Q1004
LKPD 161530Z 31004KT 260V350 CAVOK 20/14 Q1012 NOSIG RMK BLU BLU
LFQA 161530Z AUTO 27013KT 230V290 9999 BKN042 OVC048 20/17 Q1016
LIQO 161455Z AUTO /////KT //// // ///////// 32/18 Q1014 RMK ///
LSME 161520Z AUTO VRB02KT 9999NDV -RA BKN029 20/16 Q1018 RMK
LICB 161520Z AUTO 21008KT 160V250 9999 NCD 32/14 Q1011
LTCW 161450Z 20010KT 150V220 9999 FEW040 28/M02 Q1015
LTBJ 161520Z 33018KT CAVOK 36/15 Q1002 NOSIG RMK RWY16 34017KT
LTCA 161520Z 00000KT 9999 -SHRA FEW030TCU SCT033 BKN090 25/14 Q1009 RETSRA TEMPO TL1600 30015G30KT -TSRA RMK RWY07 00000KT 1TCU030 4CU033 6AC090
LTBR 161520Z 36010KT 330V030 CAVOK 32/13 Q1006 NOSIG RMK RWY07 01010KT 340V040
LBSF 161530Z 31008KT 270V360 9999 SCT087 30/11 Q1011 NOSIG
LIVT 161455Z AUTO 07011KT 010V110 //// // ///////// 25/17 Q1010 RMK ///
LTAE 161450Z VRB05KT 9999 SCT040 23/16 Q1010 TEMPO -TSRA RMK RWY21 VRB04KT
LIMU 161455Z AUTO /////KT //// // ///////// 27/22 Q1012 RMK ///
LIBA 161455Z 32007KT CAVOK 35/15 Q1009 RMK SKC VIS MIN 9999 WIND THR11 32007KT WIND THR29 /////KT BLU
LFBP 161530Z AUTO VRB03KT CAVOK 30/18 Q1019 NOSIG
LKKU 161400Z 05005KT 020V090 9999 VCSH FEW043CB SCT048 21/10 Q1013
LRBV 161530Z 07003KT 020V120 9999 -SHRA FEW015 FEW045CB BKN060 19/18 Q1012
LFKB 161530Z AUTO 08005KT 050V130 CAVOK 29/22 Q1010 NOSIG
LFMV 161530Z AUTO 36013KT 330V030 CAVOK 34/09 Q1014 BECMG 35020G35KT
LBPD 161530Z AUTO VRB04KT 9999 NCD 34/12 Q1007 NOSIG
LICD 161520Z 33017KT CAVOK 28/23 Q1012
LIRH 161455Z 20012KT 9999 FEW040 34/19 Q1009 RMK FEW MON LIB NC VIS MIN 9999 WIND THR16 /////KT BLU
LIBD 161520Z 03007KT CAVOK 29/17 Q1009
LIPY 161520Z AUTO 07009KT 030V100 9999 NCD 29/18 Q1009
LTAC 161520Z 24005KT 9999 SCT040 BKN100 23/14 Q1010 NOSIG RMK RWY21L 25004KT 200V280 RWY03L 23005KT 210V280 RWY21R 24004KT 210V290
LFRQ 161530Z AUTO 25009KT 210V290 9999 FEW022 23/16 Q1021 TEMPO BKN012
LOWL 161520Z AUTO 25011KT 9999 FEW060 BKN070 23/12 Q1013 TEMPO SHRA
LGSR 161520Z 33012KT CAVOK 28/17 Q1005
LTCF 161450Z 06008KT 9999 SCT040 20/11 Q1015 NOSIG
LFQG 161530Z AUTO 31013KT 280V340 CAVOK 27/14 Q1018
LDPL 161530Z 09010KT CAVOK 30/13 Q1010 NOSIG
LIBF 161450Z 36010KT 310V040 CAVOK 36/06 Q1009
LIMC 161520Z 25009KT 200V280 CAVOK 31/19 Q1010 NOSIG
LECO 161530Z 31012KT 260V010 CAVOK 22/18 Q1019 NOSIG
LERT 161530Z 26008KT 230V290 CAVOK 28/22 Q1017 NOSIG
LPLA 161500Z 27006KT 240V320 9999 VCSH FEW023 FEW027CB 23/18 Q1017 RMK WIND RWY15 02005KT RH74 BKN080 CB S MOV NE BLU
LSZL 161520Z AUTO 29003KT 260V320 9999NDV NCD 29/14 Q1011 RMK
LTAW 161450Z 01010KT 9999 FEW040 29/11 Q1008
LECH 161530Z AUTO 15007KT 110V200 CAVOK 30/19 Q1018
LKVO 161300Z 28011KT 9999 FEW033 20/10 Q1013
LQSA 161530Z 31006KT 280V360 9999 FEW065 27/12 Q1013 NOSIG
LPMR 161500Z 32012KT 280V350 9999 SCT014 22/17 Q1020
LHDC 161515Z AUTO 07009KT CAVOK 23/16 Q1010 NOSIG
LGKR 161520Z 23006KT 9999 FEW030 35/14 Q1006 NOSIG
LSZS 161520Z 36011KT 9999 VCSH BKN060 16/07 Q1020 RMK T TL170
LROD 161530Z 26012KT 230V290 CAVOK 26/09 Q1010
LTCN 161450Z 28025KT 9999 FEW040 SCT100 32/19 Q1004
LGSM 161520Z VRB04KT CAVOK 34/17 Q1002
LTAN 161450Z 07006KT 040V110 9999 SCT040 BKN100 30/06 Q1010 NOSIG
LFRD 161530Z AUTO 32010KT 290V350 9999 FEW012 SCT018 BKN028 21/18 Q1020 TEMPO BKN008
LFAT 161530Z AUTO 27011KT 230V310 7000 NSC 20/15 Q1017 BECMG 27015G25KT
LFCK 161530Z AUTO 32012KT 280V350 6000 NSC 31/05 Q1020 NOSIG
LEMH 161530Z 25012KT 210V300 CAVOK 30/19 Q1017
LEPP 161530Z 36012KT 320V040 CAVOK 34/12 Q1019
LIPF 161455Z AUTO 11003KT //// // ///////// 33/17 Q1010 RMK ///
LIEC 160949Z AUTO 29020KT 9999 ///////// 30/20 Q1013 RMK /// VIS MIN 9999
LJLJ 161530Z 33005KT 9999 -SHRA FEW020 FEW040TCU BKN050 21/15 Q1015 NOSIG
LJMB 161530Z 21004KT 170V230 CAVOK 22/13 Q1014
LPPD 161530Z 19008KT 9999 FEW016 FEW020CB 22/19 Q1018
LIBN 161455Z 02009KT 9999 FEW040 33/16 Q1008 RMK FEW VIS MIN 9999 WIND THR14 01012KT WIND THR32 01011KT BLU
LRTM 161530Z 19003KT 9999 SCT034 SCT039CB 20/18 Q1011
LTFK 161250Z 03009KT CAVOK 34/13 Q1007
LEAG 161530Z AUTO 16008KT 120V190 CAVOK 25/21 Q1018
LIRM 161455Z 20011KT 9999 FEW018 30/23 Q1010 RMK FEW VIS MIN 9999 WIND THR06 26011KT BLU
LGNX 161450Z 36012KT CAVOK 28/17 Q1005
LOAN 161500Z 28010KT 9999 FEW050 ///// Q////
LGKF 161520Z 32007KT CAVOK 34/18 Q1008
LIMF 161520Z 07007KT 050V110 CAVOK 31/16 Q1011
LEHC 161530Z 24014KT 200V290 CAVOK 37/10 Q1018
LIPL 161455Z /////KT 9999 FEW040 31/23 Q1010 RMK SCT SCT200 VIS MIN 9999 WIND THR31 19002KT WIND THR13 25003KT BLU
LFRV 161530Z AUTO 28006KT 240V320 9999 OVC026 23/17 Q1020
LFLC 161530Z AUTO 32008KT 280V010 CAVOK 30/09 Q1019 NOSIG
LFOZ 161530Z AUTO 26010KT 9999 OVC040 24/15 Q1019
LEXJ 161530Z 04005KT 300V110 CAVOK 26/21 Q1018
LFQQ 161530Z AUTO 29014KT 9999 SCT047 SCT056 BKN072 23/11 Q1015 NOSIG
LTCS 161520Z 34007KT 300V010 9999 FEW040 BKN100 32/12 Q1006 RMK RWY22 33007KT 2CU040 5AC100
LFLV 161530Z AUTO 32006KT 280V020 CAVOK 29/10 Q1019
LGBL 161520Z 11011KT 9999 FEW040 34/15 Q1006
LWOH 161520Z 14003KT 110V180 9999 SCT040 27/17 Q1011
LMML 161545Z 11006KT 060V140 CAVOK 31/20 Q1011 NOSIG
LELL 161530Z 16007KT 100V230 CAVOK 32/19 Q1017
LIMA 161450Z 03005KT 290V100 CAVOK 32/13 Q1011
LFPV 161530Z AUTO 26010KT 9999 OVC021 21/17 Q1018 BECMG OVC010
LIRQ 161520Z 22005KT 180V270 9999 SCT045 35/19 Q1009
LFTW 161530Z AUTO 04011KT 360V080 CAVOK 34/09 Q1014 TEMPO 32015G30KT
LHPA 161515Z 31012KT 270V340 9999 FEW060TCU BKN200 25/09 Q1013 NOSIG RMK BLU
LFBZ 161530Z AUTO 34011KT CAVOK 25/19 Q1019 NOSIG
LIME 161520Z 20005KT 130V260 9999 FEW045 30/18 Q1011 NOSIG
LICR 161520Z AUTO 35013KT 9999 NCD 31/21 Q1011
LETL 161530Z AUTO 22002KT CAVOK 35/09 Q1022
LTDB 161520Z 23012KT 9999 SCT035 29/24 Q1005 NOSIG
LTCI 161450Z 31007KT 9999 FEW040 27/10 Q1012 NOSIG
LICC 161520Z 11010KT 9999 FEW080 31/22 Q1010
LGKV 161520Z 24006KT 9999 FEW030 31/20 Q1006
LOAV 161500Z 28012G22KT 9999 SCT040 25/15 Q////
LCPH 161530Z 27007KT 250V320 9999 BKN015 29/25 Q1004 NOSIG
LSGC 161520Z 25010KT 200V290 9999 FEW030 SCT048 17/11 Q1021
LGKL 161520Z 23006KT 9999 FEW030 36/15 Q1006
LFRB 161530Z AUTO 26008KT 230V310 9999 BKN024 22/16 Q1021 TEMPO BKN012
LEPA 161530Z 23011KT 200V260 9999 FEW020 30/23 Q1018 NOSIG
LHKE 161515Z 31016KT CAVOK 26/09 Q1012 NOSIG RMK BLU
LIBY 161455Z AUTO 15004KT 110V210 //// 30/19 Q1008
LIBG 161450Z 03012KT 350V060 CAVOK 35/14 Q1008
LIVF 161455Z AUTO VRB05KT //// // ///////// 28/14 Q//// RMK ///
LBPG 161500Z 06004KT 9999 SCT060 SCT100 35/10 Q1007
LIVP 161531Z AUTO VRB05KT 9999 ///////// 14/11 Q1021 RMK /// VIS MIN 9999
LIPI 161455Z 05008KT 9999 SCT100 27/18 Q1012 RMK BKN BKN190 VIS MIN 9999 WIND THR06 08008KT WIND THR24 09007KT BLU
LIRF 161520Z 27009KT CAVOK 29/19 Q1010 NOSIG
LIBV 161455Z 36013KT CAVOK 32/13 Q1010 RMK SKC VIS MIN 9999 WIND THR32 03012KT WIND THR14 01011KT BLU
LRAR 161530Z 27011KT 9999 FEW035 26/09 Q1011
LIRU 161450Z 24010KT 200V270 CAVOK 33/17 Q1009
LIBQ 161455Z AUTO VRB04KT //// // ///////// 22/14 Q1020 RMK ///
LIMW 161150Z 30009G19KT 250V350 CAVOK 32/08 Q1014
LFPO 161530Z 26013KT 9999 SCT023 BKN030 22/16 Q1018 NOSIG
LTBO 161450Z 07008KT 040V100 9999 SCT035 BKN100 32/10 Q1007
LFOV 161530Z AUTO 27009KT 240V300 9999 BKN034 OVC041 25/17 Q1019
LIMZ 161520Z AUTO VRB02KT 9999 NCD 32/13 Q1011
LFCR 161530Z AUTO 30012KT CAVOK 28/08 Q1021 NOSIG
LTAY 161450Z 15017KT 9999 -TSRA SCT020CB BKN030 22/16 Q1010 BECMG TL1550 NSW
LTCL 161250Z 19011KT 150V240 9999 FEW040 39/05 Q1003
LGSK 161520Z VRB03KT CAVOK 31/16 Q1007
LTBT 151121Z 35011KT 320V050 9999 SCT035 37/16 Q1001 RMK RWY13 02011KT 320V070 3CU035
LIEO 161520Z 28013KT CAVOK 36/11 Q1010
LICA 161520Z AUTO 26014KT 9999 NCD 29/23 Q1011
LKCV 161530Z 32004KT CAVOK 20/12 Q1012 NOSIG RMK BLU BLU
LBWN 161530Z 13004KT 110V190 9999 BKN045 28/19 Q1007 NOSIG
LTFC 161520Z 19008KT 9999 SCT035 BKN080 21/17 Q1012 RMK RWY23 14005KT 090V210 4CU035 7AC080
LTCM 160950Z 03007KT CAVOK 28/18 Q1008
LFBG 161530Z AUTO 31007KT 240V360 CAVOK 30/12 Q1020 NOSIG
LFBD 161530Z AUTO 06007KT 340V120 CAVOK 30/13 Q1019 NOSIG
LELC 161530Z 12006KT 060V180 CAVOK 31/24 Q1018 NOSIG
LIMK 161455Z AUTO VRB03KT //// // ///////// 29/15 Q1013 RMK ///
LELN 161530Z 23006KT 160V290 CAVOK 32/06 Q1021
LBIA 161500Z 34004KT 9999 SCT060 BKN100 34/12 Q1007
LGKC 161150Z 05013KT CAVOK 31/11 Q1009
LGAL 161520Z 26008KT 9999 FEW025 32/18 Q1005
LEIB 161530Z 22010KT 9999 FEW020 29/23 Q1018 NOSIG
LFRC 161530Z AUTO 29011KT 9999 OVC004 19/18 Q1019 TEMPO 0200 FG VV///
LTFM 161520Z 04010KT CAVOK 28/19 Q1008 NOSIG RMK RWY17L 03008KT RWY34L 04009KT RWY16R 03009KT RWY36 04010KT RWY18 06009KT 020V080
LFMI 161530Z AUTO 34020KT CAVOK 34/09 Q1013 BECMG 34020G32KT
LFBY 161530Z AUTO VRB05KT 9999 // ////// 31/14 Q1019
LTFJ 161520Z 03015KT CAVOK 30/13 Q1006 NOSIG RMK RWY24R 04014KT RWY06R 04017KT RWY24L 03017KT
LTAL 161150Z VRB07KT 9999 FEW040 27/02 Q1012
LRTC 161530Z 19007KT 9999 SCT045CB 28/17 Q1007
LFRO 161530Z AUTO 28015KT 9000 FEW028 22/17 Q1020
LJPZ 161530Z 05002KT CAVOK 31/16 Q1010
LIPU 161350Z 15006KT 090V190 CAVOK 30/17 Q1011
LFRH 161530Z AUTO 25014KT 9999 FEW009 22/16 Q1021 NOSIG
LFRL 161530Z AUTO 26012KT 220V290 9999 BKN018 OVC023 22/16 Q1021 BECMG OVC008
LRCK 161530Z 35018KT 9999 TS SCT040CB 27/17 Q1008 TEMPO 5000 TSRA
LGPZ 161520Z 26010KT 9999 FEW035 30/22 Q1007
LFBI 161530Z AUTO 26007KT 210V310 CAVOK 29/15 Q1019 NOSIG
LFSX 161530Z AUTO 27009KT 240V310 9999 -RA OVC047 21/13 Q1018
LIVC 161455Z AUTO 34013KT //// // ///////// 14/13 Q1024 RMK ///
LFML 161530Z AUTO 31026KT CAVOK 34/12 Q1012 BECMG 32025G35KT
LFPB 161530Z AUTO 26010KT 9999 FEW016 SCT021 BKN028 21/17 Q1017 TEMPO 4000 -DZRA BKN014
LBBG 161530Z 12007KT 9999 FEW033 SCT049 29/18 Q1007 NOSIG
LQBK 161530Z 03006KT 360V080 CAVOK 27/10 Q1013 NOSIG
LXGB 161520Z 08007KT 9999 FEW050 26/22 Q1018 NOSIG
LIPH 161520Z 05009KT 9999 SCT030 BKN060 27/17 Q1011
LIRP 161515Z 28009KT 9999 FEW030 31/25 Q1010 NOSIG
LPCS 161530Z 36015KT 9999 FEW015 27/14 Q1019
LBGO 161530Z AUTO 32011KT 9999 BKN085/// BKN240/// 32/14 Q1007 NOSIG
LGRX 161520Z 24004KT CAVOK 33/18 Q1006
LEVD 161530Z 27009KT 240V320 CAVOK 36/M01 Q1021 NOSIG
LESU 161530Z 25009KT 190V290 9999 FEW060 32/15 Q1019
LFKJ 161530Z AUTO 21011KT CAVOK 29/22 Q1011 NOSIG
LCEN 161520Z 12007KT 090V150 9999 SCT030 BKN040 31/22 Q1005 NOSIG RMK RWY11R 13008KT
LGZA 161520Z 28009KT CAVOK 37/11 Q1006
LWSK 161520Z 36009KT 340V040 9999 SCT060 34/13 Q1008 NOSIG
LZKZ 161530Z 18003KT 130V210 CAVOK 24/13 Q1010 NOSIG
LEMG 161530Z 14009KT 9999 FEW030 29/22 Q1018 NOSIG
LIPQ 161520Z AUTO 10007KT 9999 BKN150/// 27/18 Q1011
LZPP 161530Z 30004KT 220V360 CAVOK 24/11 Q1011
LEBB 161530Z 29008KT 260V330 CAVOK 31/20 Q1018 NOSIG
LLIB 161450Z AUTO 24012KT 210V270 CAVOK 34/03 Q1006
LFOB 161530Z AUTO 30008KT 270V330 9999 SCT008 BKN013 OVC022 20/19 Q1017 TEMPO 2000 RADZ BKN004
LSZH 161520Z 27011KT 9999 FEW048 BKN060 22/12 Q1017 NOSIG
LIRS 161455Z 22011KT 9999 FEW040 33/15 Q1010 RMK FEW VIS MIN 9999 WIND THR03 24010KT WIND THR21 25008KT BLU
LSZB 161520Z 29009KT 260V320 9999 VCSH SCT060 BKN070 22/13 Q1018
LHNY 161515Z AUTO 02009KT 9999 VCTS FEW026 SCT045 BKN089 //////CB 22/15 Q1010
LFLN 161530Z AUTO 30010KT 260V330 CAVOK 28/11 Q1018 NOSIG
LTFO 161450Z 18009KT 160V220 4500 TSRA BKN011 FEW020CB BKN028 25/22 Q1008
LKMT 161530Z 23011KT CAVOK 20/12 Q1011 NOSIG
LSZG 161520Z AUTO 26009KT 230V300 9999 FEW037 22/11 Q1018
LQMO 161530Z 34010KT 310V020 9999 FEW085 36/10 Q1007
LEBL 161530Z 22015KT 180V240 CAVOK 29/22 Q1016 NOSIG
LTCB 161450Z 32003KT 270V350 9999 SCT035 BKN090 26/22 Q1008 NOSIG
LOWK 161520Z AUTO VRB02KT 9999 -RA FEW050 BKN060 18/15 Q1016 RERA NOSIG
LKNA 161530Z 25013KT CAVOK 22/07 Q1012 NOSIG RMK BLACK